{"type":"FeatureCollection","features":[{"type":"Feature","properties":{"name":"Vlaamse Ardennen en omgeving"},"geometry":{"type":"Polygon","coordinates":[[[3.451320018190246,50.8675499987853],[3.4529600022514613,50.86870998703574],[3.454969500832961,50.86815019486263],[3.4564907837364767,50.868214370815735],[3.456899347471274,50.86968257828424],[3.456489955368834,50.87129943726838],[3.455640014101754,50.872260002470256],[3.457200007569726,50.87618998551624],[3.4646417170279045,50.87445119799638],[3.4668700052287393,50.875739988404206],[3.4697405081239414,50.8767010147071],[3.473450007520709,50.88209999199231],[3.4747174037168076,50.882830541108646],[3.474009513061667,50.885530275415114],[3.4705600166344306,50.88937999959048],[3.475062282805462,50.8939328075105],[3.4739600239499757,50.89452999931542],[3.4764643302820986,50.89569150475634],[3.4718797710079823,50.89751015613092],[3.471220010537142,50.8979600082915],[3.4708500115930554,50.89894000035503],[3.471183544416696,50.90004008901766],[3.46930000410257,50.9004200101364],[3.4667300171325364,50.90207000335795],[3.468840006556578,50.90506998827623],[3.4733507566104738,50.90535087238476],[3.4764595522033304,50.90783970978403],[3.4778000065920787,50.90985999060994],[3.479400450383642,50.910250365612164],[3.4844699560042063,50.91353005315877],[3.489120286431361,50.918400361449095],[3.494580006306055,50.9252899929132],[3.502069496400435,50.929919875651386],[3.5045800069924713,50.933829990165776],[3.5067003718345093,50.93434024475055],[3.5091698990364013,50.93568012598922],[3.511802855821082,50.938701871028485],[3.5114700175184286,50.938920001890295],[3.516219261479861,50.94350928635633],[3.517330203254926,50.945140134148254],[3.5193300047647984,50.94645998815129],[3.5289297549345227,50.94821995507133],[3.5311505763527573,50.947730137509225],[3.536977258421145,50.948459846013755],[3.5384500099699654,50.95073999112664],[3.5394700031582387,50.95157998795801],[3.540371674535316,50.951423405430084],[3.541390005663633,50.95300998682868],[3.54180998609289,50.95292999071207],[3.5412799853525634,50.95038000572629],[3.5385582807932057,50.94583176608471],[3.542609994141736,50.94523998893742],[3.5469178531459313,50.940532630136616],[3.5492199969433047,50.940879987590066],[3.551599992478258,50.93912999291174],[3.552281288606786,50.93808196743031],[3.5537199997254922,50.93843998572689],[3.563470953199651,50.935599911517336],[3.5682089225754354,50.935160155695414],[3.570319998240992,50.93587998786088],[3.5734821518222772,50.93364004845778],[3.5788660902887193,50.933630058919384],[3.5797500065517984,50.93476998994685],[3.58120999507498,50.93512998658201],[3.581734192530369,50.93441201062011],[3.5829299945241573,50.934849985086935],[3.584631177379873,50.93185105459345],[3.5881358420982363,50.931770139262284],[3.5909300068417105,50.93543999380405],[3.5940598124722625,50.93834982565313],[3.597760000360849,50.94009998546781],[3.606609621492793,50.936440156535184],[3.6136902202657017,50.934169905270345],[3.6251297078982905,50.929250125624165],[3.6283311137576972,50.9273615331433],[3.626540016258795,50.92851000302254],[3.6279598496160634,50.93041007448464],[3.6290100103431935,50.93408999537558],[3.6321400056646667,50.93904998743516],[3.6336199978650936,50.93880999145006],[3.6370689920098354,50.93730120245361],[3.6379300028076895,50.93779998842896],[3.6422804104286004,50.937580119085936],[3.647299993008865,50.938599986770406],[3.6484905285702696,50.93577314066207],[3.651111306730745,50.93632996051114],[3.649910013207873,50.93829000398807],[3.6497797350197843,50.94218051475026],[3.6477100096173487,50.94755000274995],[3.6475600101728034,50.949049998950116],[3.648680009079367,50.95211999337424],[3.6513997799384557,50.9542298292905],[3.6567897120586768,50.95604990277306],[3.6612603022051906,50.956419950509954],[3.664129998276135,50.95594999291524],[3.6703896035320733,50.95391016642252],[3.6748595090779177,50.95363007747801],[3.6808699912769347,50.95502002784531],[3.683649994843995,50.95612998478155],[3.683959983828302,50.95561000355265],[3.682891888636868,50.95486391646075],[3.687674664178165,50.95222299691566],[3.6883000024550303,50.9527699854819],[3.6905100174659142,50.95186006117605],[3.694099997377919,50.951259990002356],[3.6964184849914092,50.95042060658859],[3.701208617286484,50.95126803480881],[3.7011102309179678,50.95153007605082],[3.7035399972525975,50.95211998851625],[3.7049291815615955,50.951320681403864],[3.705899975504286,50.95136998747396],[3.7054567572620893,50.950808465023414],[3.7074699898199324,50.949779992101206],[3.7078601538071068,50.948040065403276],[3.7085592499306546,50.946981497235264],[3.7108599922298238,50.94629998748808],[3.7119799836686718,50.94509000124269],[3.7110558054408007,50.944353694325905],[3.7113799858876817,50.94397999807342],[3.710789989711615,50.942780010038454],[3.7092415913204717,50.94197060104882],[3.708919989834847,50.94117000739202],[3.7078499950116828,50.94028000713095],[3.7064517154675896,50.939612332037385],[3.70931998215976,50.9378799973996],[3.7088074202084025,50.937298942942846],[3.711619998397944,50.937059990738106],[3.7135707574997867,50.93636164003872],[3.714830007371681,50.937359986692094],[3.717169982222502,50.93819003848137],[3.7206600070604123,50.94020998353286],[3.7249199946205866,50.941459985880215],[3.7258299826160175,50.94000000603101],[3.7253355578281475,50.93981569950087],[3.7257982010828163,50.93913342242005],[3.727559993624402,50.939519986204594],[3.7279220484817635,50.93884234233211],[3.7289099950883102,50.939129986548444],[3.7302100448462236,50.93717003726831],[3.732151629191404,50.935290051737425],[3.7376380631412536,50.93482020966923],[3.738960228314043,50.935499960061684],[3.7423899933152867,50.934899987408635],[3.7435113133182267,50.93374302682254],[3.746430001424598,50.93573998645594],[3.7493899767539554,50.93451999765023],[3.747829767992718,50.9334682737025],[3.7469799902361696,50.93022000725917],[3.744849994745247,50.92892001088684],[3.7387400213402415,50.926679955848165],[3.733999996422454,50.92378001122218],[3.7281432893760624,50.92337669392934],[3.728340366282069,50.921890159877876],[3.7294699857822478,50.92051999920118],[3.7290435618758306,50.919855259394375],[3.7331785572233716,50.914253159036925],[3.7371700022964798,50.915489989051856],[3.74213999368741,50.91605003226886],[3.745979995996749,50.91712998607756],[3.7467632802221145,50.91627141154545],[3.751379994036404,50.917139987247175],[3.7520400594152465,50.915940841500614],[3.753929992639259,50.91522998720112],[3.755669984845846,50.91380999763888],[3.7555171507397422,50.9135444563584],[3.765019528929207,50.91760985977081],[3.766120001190334,50.91847998640338],[3.7712199925116194,50.915729990886206],[3.7752706429345304,50.91081999687071],[3.7811499908847717,50.908639989508146],[3.7846512243692314,50.90216108158924],[3.7894502581456067,50.90202996593387],[3.7962699956883372,50.90112999000928],[3.799129991700707,50.89879999234676],[3.799881614735619,50.897711391505965],[3.802229999274573,50.898109985082534],[3.8040299980233874,50.89762037878294],[3.8052999842125135,50.89797998431622],[3.804961560438906,50.89680871909454],[3.8065236722195426,50.89474158586752],[3.810039975468909,50.8958000573907],[3.811469850659536,50.896610168370934],[3.8121700076434535,50.89755998965083],[3.817416134154307,50.899395939704604],[3.8154000201734384,50.900999999029395],[3.816231726647568,50.90153817606497],[3.815630022118319,50.901959998456576],[3.8184805227725933,50.90338718890556],[3.816750019693196,50.90482999810956],[3.8179295918743774,50.905475200013676],[3.8175000214686343,50.90581999810521],[3.8196709256526993,50.90695652835023],[3.8187400200637116,50.90781999754367],[3.8208324257522728,50.90895674063597],[3.8202100171504276,50.90973999658618],[3.822470005449165,50.910969986803835],[3.8292216561927015,50.91298868972371],[3.82824956003067,50.91399019768605],[3.823430017616744,50.916710003681835],[3.8242441783153356,50.91779296563508],[3.8239100181402845,50.91797000336111],[3.825619551443948,50.91983974364216],[3.8260800095697363,50.921349993032095],[3.8320511491908955,50.92550670992815],[3.82950000975684,50.92702000745847],[3.8289317323966587,50.929092930746386],[3.8284100079758567,50.92900001320332],[3.827420013068513,50.93226999419786],[3.8340700034059894,50.93540999073595],[3.8417200000477045,50.936759983503435],[3.8438901820944085,50.9363911699701],[3.845580005224107,50.93785999120004],[3.8503983559688097,50.93965118851102],[3.8504792315700263,50.94182802090929],[3.84971000961115,50.94233000807557],[3.848530013826752,50.945099996760725],[3.8495617827174673,50.945994612205745],[3.847689537621298,50.94725010495107],[3.8448500154585,50.94817000698334],[3.8449753800855726,50.94847197532474],[3.844390017562236,50.94883000197543],[3.845132092547905,50.949554652801396],[3.8446300229378307,50.94978000262822],[3.847219056389728,50.95168952730547],[3.8476300074002725,50.952759988918125],[3.8520093587523063,50.952641026566845],[3.851700013738314,50.95356999830485],[3.852520005119791,50.95482998555393],[3.8548399788153667,50.95407999453056],[3.853959938032865,50.953129206827235],[3.855974426930432,50.95250178198635],[3.8571300037500227,50.95394998655627],[3.858849988506631,50.95330999108953],[3.859079746447747,50.951211937243606],[3.862933565669893,50.951958959254476],[3.862910012206015,50.952909988260906],[3.8669440871078726,50.95294036629807],[3.8670300120366696,50.95356999285019],[3.867999785068858,50.95426984489505],[3.8689199928683675,50.954259987512984],[3.8691812809762016,50.95383141734971],[3.869979996879955,50.9539099858768],[3.871229981086719,50.95316999745199],[3.870943715898573,50.952867449476194],[3.8717299871825444,50.95193999772589],[3.871597590033251,50.95155815822358],[3.874728252368779,50.950621262008],[3.8778000064216736,50.953479989603416],[3.879839997836475,50.954239985798935],[3.886267083334206,50.94926248262712],[3.8891499982702764,50.950399986154736],[3.8909500860071597,50.949100191351846],[3.892519994979041,50.948749990639286],[3.8937923195139863,50.94753187746789],[3.895919997863128,50.94847998516082],[3.8970041861988034,50.947562501902524],[3.9013999996326927,50.949949987124185],[3.9045818635090432,50.947982156298295],[3.906250006684206,50.94911998540696],[3.916659578968084,50.95188992423326],[3.9192800021012864,50.953359987176825],[3.9377799709295456,50.94986999490129],[3.9368999964658222,50.94935001202802],[3.934261133223016,50.94924998310081],[3.9332499978450115,50.948730010685054],[3.930936092200258,50.94890513287145],[3.931619984902761,50.946680010037205],[3.931213875081751,50.9466361134679],[3.9313295729396347,50.9461716726531],[3.932129982215319,50.94498000695109],[3.931500371048642,50.94482698156534],[3.9313499900916145,50.94376000852147],[3.9294767611595134,50.94319383320924],[3.9312399811349352,50.94088000703745],[3.9284636589535924,50.94030265215361],[3.9286999812601295,50.93997000496086],[3.927789996322606,50.939580015175565],[3.926800004626792,50.93951001199035],[3.9263466373052838,50.93997915246918],[3.9248400090770623,50.93968996743693],[3.919597854124453,50.93774905934416],[3.9232093321141868,50.93372082236661],[3.925159970090826,50.932830002162866],[3.924685880738258,50.93268721243869],[3.9249503375262282,50.93225171286375],[3.9260999955882445,50.932319987479964],[3.9269899920447715,50.9315099927413],[3.930569979864753,50.926770008147905],[3.9275604613026274,50.92630003088456],[3.924889997442192,50.92509001039404],[3.9213916142917973,50.92488990390055],[3.9197699990221135,50.92342001387801],[3.919486499296852,50.92360791887929],[3.9182299971747496,50.92294001090742],[3.9149295266478776,50.92287979039535],[3.9021100112742597,50.9186400157963],[3.9020893863938735,50.92034707158224],[3.9011700103721694,50.91985001829951],[3.9011302429393053,50.920748884561085],[3.8997695697808723,50.920599773188776],[3.892788708099014,50.91811958630824],[3.896638288251576,50.91590118786244],[3.8979699935869356,50.91620998590669],[3.899452888474577,50.91342184972597],[3.905219996355885,50.91484998755214],[3.90772998660689,50.91219999106069],[3.909109733275687,50.90910108250336],[3.9102199874713506,50.908409993036095],[3.9102242673720657,50.905503522952216],[3.9110999970018425,50.90563998877474],[3.9164165796975703,50.901342764530156],[3.9168199955360943,50.901399987454255],[3.9179301133178575,50.90018015245761],[3.920188675208081,50.89910068422754],[3.925659996988552,50.89928998930806],[3.9260999801213727,50.89897999979245],[3.925189919389832,50.89830945676091],[3.9244799912082,50.896910010530654],[3.9239103574971574,50.89673823525921],[3.9236801263717602,50.895900461531646],[3.923550418775186,50.89514867699636],[3.9244899852335595,50.89185000848726],[3.921673310373346,50.891124443341646],[3.922270153524637,50.88950009214142],[3.9241699929206186,50.88736999468213],[3.924999985482498,50.885759996954434],[3.9249499876069796,50.8849600080638],[3.923456050586492,50.88417885035863],[3.92444998033035,50.883030004733406],[3.923680002663628,50.88272001471129],[3.9232079575939216,50.883149828910184],[3.9214195216173895,50.88314979781449],[3.91604676771394,50.88147478788883],[3.917009989396221,50.88077999435655],[3.917029988035036,50.87982001053828],[3.9158992862807915,50.879691792229096],[3.9157607530133682,50.878090751780015],[3.916595227570532,50.877195113317285],[3.919879996898489,50.87857998521966],[3.9203813445533533,50.878050944846166],[3.921309984848694,50.87818998689807],[3.921123972926696,50.87753253259994],[3.92587999501379,50.87832998820197],[3.9264399876523535,50.87751999673016],[3.9263551159045686,50.87648887710907],[3.93046999329016,50.87522998466428],[3.9321509593405897,50.87424989760466],[3.9335204526673277,50.874041674431936],[3.9347900039842605,50.87545998782675],[3.9429199887101145,50.873739990185896],[3.9429619459754703,50.87315811507199],[3.9445099784500504,50.87160000632312],[3.940855308442326,50.87079073009152],[3.940880171106967,50.869691768472265],[3.944969979502755,50.86540000551869],[3.9407165050042736,50.86414964682177],[3.941474083238868,50.86294052499687],[3.946459999970087,50.86333999129443],[3.9486699706638566,50.8629599938713],[3.9466906443658023,50.86164982307714],[3.94749998011939,50.86126999686301],[3.947237760260327,50.861013374782004],[3.94926,50.85926976124988],[3.9492599880651316,50.85890000723821],[3.9452552289577127,50.85681015795737],[3.9470499853886096,50.85407000146848],[3.9457499943044865,50.85276000858009],[3.9419437008493903,50.85142084626321],[3.9418699890670315,50.85017001232864],[3.940619027188363,50.85024959526829],[3.9384199973451772,50.84946001432303],[3.931080005295169,50.84930001187536],[3.9296656857020915,50.85093855055654],[3.9278953117428053,50.85041864405059],[3.928579982763641,50.848940011275346],[3.9256744333997484,50.84900620780477],[3.926419957863988,50.84488055500317],[3.926979988712457,50.84385999802051],[3.926561043419256,50.84117377916644],[3.927009976813979,50.84091000069894],[3.9266730178179565,50.840733293380275],[3.927379982025132,50.83904001553784],[3.92608967764362,50.83936692508403],[3.925279991568872,50.83794000791203],[3.921209376252621,50.83527942035597],[3.9202202999040825,50.83435930168604],[3.919859988130498,50.83207000755018],[3.918236873868448,50.830973210697486],[3.9211572189754333,50.828082817132845],[3.924419994822429,50.8285599874737],[3.9265569587291607,50.825694162861005],[3.927129990373089,50.82578998646124],[3.927442475593,50.823883515440876],[3.9286299935523594,50.82409998770841],[3.9289849021006145,50.82332134164341],[3.930459993349395,50.82359998657946],[3.931193771205513,50.822140735795564],[3.934099991795046,50.82236998724341],[3.934659999997911,50.820830637788426],[3.9362299907633083,50.8195099941475],[3.936361382078049,50.818954061351214],[3.9376199984972007,50.819239987400486],[3.9390599905564905,50.81851999105803],[3.9396802836776708,50.817089687973784],[3.9421399910686032,50.81389999536978],[3.9425229689625567,50.81267207346099],[3.9439799980821757,50.812899986999966],[3.9459143919154207,50.811974561892654],[3.9444400150804575,50.81488000564889],[3.944370014724594,50.81515999076409],[3.9453210521452595,50.81536556111029],[3.944550018260247,50.816239995645724],[3.9456519572149396,50.81667729491568],[3.9454300146713153,50.817089996197],[3.94715000071124,50.81814998605648],[3.9480580230167517,50.81771142243731],[3.948479999322233,50.81794998694776],[3.949189979036384,50.81744000094468],[3.948808640735534,50.817207686983686],[3.9492566520547165,50.816892578428245],[3.950249999073033,50.817439986670344],[3.9508999800399676,50.81695000164734],[3.9500083326376783,50.816473429392694],[3.953009979646686,50.81375000376432],[3.9524745660400074,50.813533509619454],[3.9536199886375445,50.81153999672152],[3.9537351587003338,50.808793596696155],[3.954837562420291,50.80906180058284],[3.9547700114869446,50.81022999199718],[3.956189995074273,50.810659986306504],[3.9570218693572365,50.80940884788859],[3.9603296594540494,50.807370400754266],[3.9624999905001372,50.80714998876617],[3.96264522792676,50.80664194249212],[3.9667982724726203,50.80753110914979],[3.9660200318991943,50.80774000319252],[3.9673199968761654,50.808349985294996],[3.9687999859798935,50.80663999883268],[3.9684159049143544,50.80599750170138],[3.969259974898841,50.80551000131543],[3.968377101370106,50.80510153635696],[3.970368186781678,50.80409112521051],[3.9710899987038752,50.80430998703102],[3.9750100186495225,50.802190044376935],[3.978469987503301,50.801119992308564],[3.978351590167325,50.80040950277131],[3.9794499892770823,50.79934999334877],[3.979702123921302,50.798559182160375],[3.9826699907266945,50.797099991069516],[3.9830815432337494,50.79617944364227],[3.9854599905590877,50.79498998835483],[3.98755706542541,50.79235402042392],[3.987949997534063,50.7924799863288],[3.990737010461451,50.790232476495284],[3.9910801967566503,50.79030984131049],[4.00394980766492,50.779930155123395],[4.002050845317277,50.77914397320835],[4.002929988715358,50.77848999019381],[4.003551249553124,50.7773492079711],[4.0068399907852275,50.77511999361212],[4.007062437438502,50.77420892841647],[4.010410013807094,50.77246003293056],[4.014370480600935,50.771180240885656],[4.014976824990114,50.771272413549156],[4.014840013279653,50.77238999465498],[4.016740238874885,50.773930423296214],[4.018860008124243,50.77698999248079],[4.022300004938757,50.779789991022184],[4.025589284531076,50.78089017121962],[4.026260007065596,50.781879989271054],[4.026939995316494,50.78200998606433],[4.028491072153214,50.7802899081882],[4.030719149120137,50.7797002643545],[4.0318299979596075,50.77979998923413],[4.036779055349373,50.77732240153564],[4.038630006638687,50.77932999106515],[4.039600002480422,50.77979999033012],[4.041016892401789,50.77981463794318],[4.040720047586259,50.781808281854296],[4.040170014880102,50.78228000206406],[4.040470005870979,50.782729987571656],[4.04246068516796,50.782531180004995],[4.044630007018562,50.784379988578564],[4.045729999041863,50.78483998770741],[4.04625419068367,50.784522254980274],[4.049309998529067,50.78612998602481],[4.05080008450805,50.784890151362134],[4.053122307411776,50.784113670478646],[4.056470009865354,50.78846998951871],[4.057860004484969,50.78940998952757],[4.059969942871172,50.7898701399905],[4.061572694868483,50.79087629616612],[4.059620017708087,50.79303999739536],[4.062760290086734,50.79493037041105],[4.067818787640171,50.80031897502423],[4.0679900107970886,50.80232999582417],[4.069659613945116,50.80450959246363],[4.070250007561374,50.80623998631936],[4.071182483428782,50.806025599524865],[4.072659745588506,50.80909957688165],[4.072854171171566,50.81033643559816],[4.0713900145311595,50.81017001270012],[4.071930011293762,50.812289992140954],[4.073190004134701,50.8131599901482],[4.081749989774195,50.81441004215526],[4.087599998121382,50.816419987470155],[4.093570136319749,50.8120803713095],[4.101408955678868,50.8114901307727],[4.112709998336919,50.81539998797371],[4.1146487319499645,50.81405174558933],[4.115859996484487,50.814609984715105],[4.1167114919392995,50.81357151117544],[4.1190299950858895,50.814159986418375],[4.11998258768726,50.81285363538886],[4.123900000253739,50.815449987205334],[4.124688465744784,50.81497187937172],[4.125160251174666,50.815269931996376],[4.128439980832432,50.814239995426256],[4.127105657936701,50.81267660866899],[4.130649981066537,50.809910001026196],[4.12961274216856,50.80925356572844],[4.1322999855721925,50.8077899943103],[4.131029990763373,50.80397000402222],[4.130329178538388,50.802909579995685],[4.136869977917329,50.80140999383914],[4.136246647760813,50.80080329745439],[4.136789973287035,50.80049000288948],[4.1349161446583365,50.799901125350836],[4.138128641334298,50.79795106996864],[4.139789994774182,50.798239986784104],[4.141730174586131,50.79566189779281],[4.14370999818136,50.79605998751536],[4.145289975414046,50.795220000288154],[4.142719998500473,50.793930013076334],[4.140107570590958,50.794558623928815],[4.139136190725537,50.79402563004371],[4.140369976830571,50.79268000851107],[4.138279512354397,50.79241969117734],[4.136380492419419,50.79148430503842],[4.13707108728875,50.790880054613076],[4.138749995162854,50.79066998781165],[4.140199985262597,50.789609996260594],[4.139109991186335,50.78731000640445],[4.136795437355676,50.785114291292224],[4.138470497490385,50.78326978011882],[4.141185431484673,50.781722603381894],[4.141790001373189,50.78200998815569],[4.143269997308189,50.78167999142433],[4.145649991911161,50.78045999213886],[4.146169987081116,50.77937000050505],[4.145570189130373,50.7783299362465],[4.145390370661908,50.77692151104431],[4.145960759991924,50.77595015286],[4.147918918665717,50.77520092714398],[4.148940000271981,50.77570998689386],[4.150119991471287,50.77517998843102],[4.151160600100328,50.77399999355366],[4.152369979381109,50.77355999581735],[4.151799994203999,50.77303001043467],[4.149110228848391,50.77230006210384],[4.14808841692516,50.772619590502416],[4.1436105001864165,50.771620062569305],[4.14117999680552,50.77025000686436],[4.1357500088415495,50.76822001616966],[4.135493512775395,50.769377340764834],[4.1323477377702345,50.768457286637314],[4.133610108810974,50.76825978893293],[4.134439983741509,50.7666500047541],[4.133327951342855,50.76599752098748],[4.134028506879052,50.76545115664299],[4.137569993207156,50.76440998750003],[4.139629988095828,50.762639992713076],[4.139942308149334,50.76136245530075],[4.141469994108548,50.76152998819127],[4.141921564865396,50.76076961379371],[4.1440299673404,50.75998000138219],[4.143465852476187,50.759816181322435],[4.143869982007262,50.75917000709298],[4.138632026040288,50.757786991829406],[4.143369974292119,50.75403000687941],[4.13924008138602,50.7534197835517],[4.136200002115633,50.75146001445844],[4.135551605221976,50.75221750473401],[4.1351100056383645,50.75214001208691],[4.134576215279904,50.753068979809015],[4.129110001933583,50.752250012720836],[4.127576791758782,50.752987161526846],[4.12607555437293,50.75178421084617],[4.1263199830410535,50.751380005699254],[4.121972992739178,50.74972371363977],[4.123449981022927,50.74860000011918],[4.12050843596771,50.746445936813664],[4.12091998047143,50.746060002728164],[4.1195400026819335,50.74538001442919],[4.1177356601809825,50.74732309263731],[4.11602999269546,50.745090008117415],[4.112539967400032,50.742965584658826],[4.113139978593957,50.742470002289366],[4.110060031013616,50.74092995167372],[4.105149994932502,50.736980007531145],[4.099301863647275,50.73373084045791],[4.098902969766722,50.73253942430242],[4.100279979833244,50.73159000026368],[4.094700406623206,50.72796021636993],[4.093469997021664,50.72657001447684],[4.091537167955398,50.727479060537846],[4.081940271553057,50.72444960990945],[4.072070143399565,50.711740184661444],[4.067631378986452,50.70701140401089],[4.067409859078718,50.705849815355734],[4.0587399959810995,50.69449001419708],[4.057700008265516,50.69489000958378],[4.054329189198196,50.70085058024879],[4.053379377479429,50.70159987301012],[4.0516889770352345,50.70184994126518],[4.047508376318676,50.7016092992704],[4.037515622257701,50.69729669128185],[4.03782997693116,50.69706000204131],[4.032412190722722,50.694560964745975],[4.032059993805821,50.693920011232194],[4.028861410762549,50.69411986982391],[4.027949998793313,50.69374001329891],[4.025610535570451,50.694249662713034],[4.024689999383909,50.69396001392577],[4.019202011320624,50.69516937336418],[4.0171200003156216,50.6939200149682],[4.013680010004586,50.696190008971314],[4.012550012989794,50.69838999929881],[4.012805498866556,50.69879484113885],[4.011440001812033,50.69860001090657],[4.009948250379982,50.69941775948033],[4.007839993738072,50.6978200136078],[4.003510015925002,50.69687995112034],[4.000851610102042,50.695705077713654],[4.001139981245859,50.69536000405331],[3.999470147961055,50.69460980215748],[3.99862999390428,50.69363000922808],[3.996789587237201,50.693049630862426],[3.994441493337508,50.69135108028671],[3.9936799891412136,50.69019000996324],[3.9907399943802258,50.68788001327296],[3.987870252108976,50.68749003425871],[3.982399996938343,50.688429964386195],[3.974890003494737,50.68844001316256],[3.971148493413591,50.69056960811632],[3.9617699994962923,50.68924000895862],[3.9587800289578605,50.68958000779167],[3.961579964855101,50.69166003843213],[3.9665197805719923,50.69719975392082],[3.9696107608561277,50.699861143738566],[3.971159969445928,50.70219001683503],[3.9732596140181613,50.706889136135885],[3.974169390566056,50.7107476064868],[3.9737390903457244,50.711700422486494],[3.9716500087450557,50.71313001029947],[3.969912600240206,50.71494720847151],[3.9694600029226565,50.7149100116043],[3.965920205795834,50.717239864546805],[3.9652095431962975,50.71828930570284],[3.9644200072144944,50.718440010113206],[3.9633798463720504,50.7202598653744],[3.962290012697592,50.721090003986674],[3.9624765382703493,50.721682082570865],[3.9617812320290455,50.72221898332135],[3.958279132246552,50.722729419814904],[3.9534599965545,50.72058001015907],[3.9499060221687787,50.71973124483289],[3.9499099877367767,50.71928001097009],[3.947220002359974,50.71904001364234],[3.9457000142145957,50.71974000667663],[3.9461283804388594,50.721348433589284],[3.9449800150069145,50.722250002680106],[3.94518886161101,50.72259344763693],[3.944260011177608,50.72552999930177],[3.944486924630602,50.726030216549155],[3.9435200120744356,50.726750005698314],[3.943631118680856,50.72911743559541],[3.9376300053925744,50.72989001179492],[3.9365887131238617,50.73081886442875],[3.9345800051829816,50.730290013188544],[3.934264633089718,50.73077809767108],[3.931029997769598,50.72976001030244],[3.9269804844681624,50.729639969737725],[3.925249999290766,50.7290800141039],[3.9224707135864536,50.72967907627496],[3.9197199987969,50.72752001323332],[3.9153500060726163,50.72982000779938],[3.9138400105058935,50.73150000691408],[3.9131885670139708,50.732903958533804],[3.9102880457245437,50.7305961710803],[3.910919983610941,50.73003999938113],[3.9099900005158963,50.729110016083126],[3.9089671142589713,50.730268032261755],[3.906010002336899,50.72905001425417],[3.903548515906417,50.73119029670602],[3.89567560458246,50.733020540664626],[3.893885496679148,50.729895034910435],[3.8969599860380595,50.72916999138153],[3.896559988897833,50.72750000831849],[3.89497018061922,50.726587623430596],[3.8947099888792445,50.723890003889856],[3.8923802030917005,50.72030992120434],[3.891959987692168,50.71776000549839],[3.8898308390721943,50.71511027422529],[3.889919987814008,50.71333000506234],[3.889320387588127,50.71278830346463],[3.8893212531764854,50.7115477385206],[3.8901933131427557,50.709979847820605],[3.892640419058502,50.70973033510633],[3.8953499975631027,50.710739986686946],[3.8971918043656624,50.709131648874504],[3.90158998860023,50.7109899828668],[3.9015804817437054,50.708000734152634],[3.902759507845568,50.70666120149134],[3.903919985579255,50.70657998966789],[3.903604859475045,50.70536873713622],[3.905549994662662,50.70454999175629],[3.90781012472579,50.702440212158],[3.90932999418313,50.70194999119746],[3.9113005148872566,50.699679948684256],[3.9134599814114606,50.69873999572056],[3.910970132275196,50.695829921857076],[3.909699991212874,50.69245001000581],[3.9092295282683707,50.69233514759504],[3.9090299887550644,50.690900005897994],[3.907200875175692,50.68922072211599],[3.90682998983072,50.68832000948071],[3.9056999956005547,50.68776001443985],[3.899589696774306,50.68695240474831],[3.900679968880744,50.68596001399839],[3.8999985839662523,50.686039381906056],[3.895989998054874,50.684440009313896],[3.8935052730201565,50.68435940557844],[3.893389988350863,50.68264000652423],[3.890819997240237,50.680830011567004],[3.887413371142168,50.68132582946257],[3.888079986932717,50.680089998636674],[3.8874599897826245,50.67804000759407],[3.8862097205826,50.67720989851046],[3.880369965830245,50.67525914830203],[3.8787399901462947,50.67295001075647],[3.8776463557341203,50.67231013872476],[3.8792099796518524,50.67069000457921],[3.876542359354809,50.669683958855906],[3.8776398395835754,50.6661643805925],[3.8798399959503382,50.66656998828724],[3.8830199846458795,50.66295000017369],[3.8818855793567946,50.66171074710524],[3.8832770484527392,50.66083185525827],[3.8856399975201157,50.66108998721846],[3.888189990158446,50.65971998959603],[3.889289986354064,50.65791999600421],[3.889331102768385,50.65603550012973],[3.889969992794981,50.65605998715821],[3.8911101176757814,50.65398009396534],[3.892845699014786,50.65244387238122],[3.894079999243527,50.65305998716129],[3.8947616683357182,50.65261106319571],[3.896619995681661,50.653249986277416],[3.898150034198403,50.65115003030176],[3.9005099790863045,50.64895000437023],[3.899974943523147,50.64875853806493],[3.900202146775613,50.648299492198824],[3.913149984533985,50.64400999312406],[3.9126442691813614,50.6428554750866],[3.913399980000999,50.64268999237113],[3.912089994581548,50.64091001071542],[3.9114127066172655,50.64090881751626],[3.9112832047326127,50.64048906341393],[3.9128899837552256,50.640369989682604],[3.9124732098686197,50.63929356749061],[3.9132299801695285,50.63899999550617],[3.9110699913688185,50.63673001134234],[3.9097599975226043,50.63603001346215],[3.908737177134737,50.636158481051424],[3.9025700268150527,50.63283996008275],[3.9003579931286905,50.631016524656125],[3.900729978989895,50.63065000395576],[3.899831254361073,50.630283322667786],[3.900109984393058,50.6300299986724],[3.8967756026365667,50.62598495507221],[3.899139977494895,50.62467999997992],[3.896779996543164,50.623380010585684],[3.8949906509349104,50.62314838255394],[3.8937499930706365,50.61988001311136],[3.8893000065411516,50.620950013431596],[3.8873197664606973,50.622518570873254],[3.8845499987683,50.6215200125401],[3.880070017264812,50.622200008422745],[3.880240205811705,50.62252299482302],[3.8783221550197666,50.62314907231833],[3.877430000690255,50.622650012778784],[3.8733800077577882,50.62554000813414],[3.872490781021714,50.62666701788453],[3.869820001412308,50.62554001390519],[3.8673500120538233,50.6272400074855],[3.8669600122012096,50.629939999946316],[3.867249559937894,50.63182993775117],[3.8662626709434447,50.63396379782176],[3.863690002659942,50.63321001298107],[3.862695586023011,50.63402934315819],[3.8610224559482442,50.633777369101345],[3.86111998812241,50.63208000282307],[3.860429994687696,50.63089001474529],[3.85737001679278,50.632014621722846],[3.8566699900277506,50.629750009291115],[3.8549001822302515,50.6290607771628],[3.8557799803043054,50.62831000207411],[3.8545999969951965,50.62768000922256],[3.8528200037002276,50.627430012115845],[3.8516272369057276,50.62849853412451],[3.8447099985077946,50.625980010053794],[3.8396708369210515,50.62647913933811],[3.8366999918629405,50.62347001103439],[3.831961012007947,50.62101032086256],[3.8291899951709345,50.61617001500516],[3.8278075032793155,50.616798388660996],[3.823563844012102,50.6144706856294],[3.8238499860016155,50.6136600022746],[3.822867586543712,50.6124006992646],[3.824739981823915,50.611769994118816],[3.8211837560871986,50.606804543447964],[3.8223699874064887,50.60566999459182],[3.822369988310146,50.604410014629295],[3.8206952237395067,50.60478799120259],[3.8204799926259168,50.60405001423799],[3.8115905716592655,50.60717902879896],[3.8050699999407227,50.60341001252136],[3.8040800234038494,50.603969999445994],[3.8061710464309155,50.60503320441234],[3.804675172136131,50.60616609520848],[3.8024000075910167,50.60492001690818],[3.802097456267298,50.60624165047401],[3.7911308645321817,50.61358935517453],[3.7900392594591406,50.61377784570853],[3.7889499979478765,50.6124000151741],[3.7876707321361414,50.613338941624],[3.786901033417966,50.61322997232038],[3.777669997824104,50.605430013776115],[3.7767908066545894,50.60578830599911],[3.776039747194507,50.605119969965294],[3.7603014269320503,50.60325012642283],[3.755646057388341,50.60019392011857],[3.756680363808125,50.59761110784498],[3.7581799939708826,50.597129989165815],[3.760619978421643,50.59505000302663],[3.758052756891545,50.59387617812143],[3.759599981791703,50.58977001859757],[3.7569094350009795,50.590847902339924],[3.7528099975074305,50.58691001341823],[3.7515512847441497,50.58743097241231],[3.751482836195608,50.58562089249391],[3.7535999801987265,50.585039994146086],[3.753357656678492,50.5847555428983],[3.754479979283927,50.58403000041666],[3.752600196346857,50.5829201159282],[3.7501500047033276,50.58273001129003],[3.7496937314472882,50.58325811287026],[3.745888459815135,50.582112497879784],[3.7459799870303434,50.581750006134904],[3.7427899976477548,50.58034000662396],[3.7388300030666306,50.57926001198571],[3.73798651325039,50.580066144387715],[3.734739999702096,50.577380014100235],[3.733329420122739,50.578450116600784],[3.730500005733092,50.57935001044147],[3.728670220986711,50.580878288938926],[3.725282160048769,50.579530644990506],[3.724719991420119,50.57817000749771],[3.721250406635444,50.576160191059955],[3.7195610561283328,50.574452364597974],[3.727109978394874,50.572969993146],[3.724929165207159,50.570679126089665],[3.727389988336921,50.56977999271944],[3.7271139087482354,50.56712719817627],[3.728301216503745,50.56626072491108],[3.730429993952856,50.56667998711401],[3.7309199846403747,50.565780003793165],[3.7295099965547664,50.564840010971785],[3.71440650901311,50.56452993138628],[3.714109990235067,50.56248001476909],[3.712170005049387,50.56300001037223],[3.709920015015061,50.56469000243346],[3.711097840678005,50.566413662813225],[3.7087245789433982,50.56713784236844],[3.7078999932870937,50.565350014247564],[3.706250256887037,50.56578993149679],[3.705700009815692,50.5661500081481],[3.7048778360111543,50.568119521635026],[3.70278000190918,50.56837000917923],[3.695280021147435,50.571350004106286],[3.697220973981205,50.57320545147219],[3.6947100143343174,50.574030007345236],[3.695316930216699,50.57593104807506],[3.6947500141798613,50.57604000902242],[3.695120008166546,50.57740998770014],[3.6957122369313113,50.57733309879009],[3.696870004965546,50.5787899857418],[3.701197699716313,50.57778232616424],[3.7022700075331763,50.5802999867808],[3.70734149036235,50.57962254511413],[3.7094837369492586,50.5823539115744],[3.7080400174262427,50.58294000486526],[3.711220006794771,50.587159992661],[3.71340920183522,50.58855999882284],[3.7137572877340497,50.58962314788975],[3.710526190274476,50.590577974166905],[3.7100899941731016,50.58968001373746],[3.707133511777265,50.59066711251215],[3.7066999924590274,50.58950001271268],[3.70126001909354,50.59031000818288],[3.7018217177893393,50.59112502843616],[3.695540015643935,50.59498000379331],[3.6965907334757144,50.596731798885706],[3.6899700126165955,50.59857000938987],[3.6900400106516664,50.60198999724618],[3.6935700072986544,50.608679987637146],[3.6962497173753017,50.60863073693001],[3.6985031601701843,50.610735893302284],[3.6974500124056564,50.61137000599724],[3.6980189464566724,50.61559256167256],[3.6975900214503596,50.61573000526869],[3.6980802224232705,50.616219126719436],[3.695760024199011,50.61693000442813],[3.6978663787703647,50.61856012001954],[3.6973782086579736,50.619317732839676],[3.696320013013028,50.61896001654566],[3.69652803245294,50.621296706719406],[3.6882013436595487,50.6229596916352],[3.6846700053013177,50.622060013160045],[3.6833282681786534,50.62421992308121],[3.6793700080107485,50.62494000954462],[3.677610013174828,50.62970000003911],[3.678669432737052,50.632619024719205],[3.6783098124078517,50.634007756555086],[3.6744305168424796,50.63499980973367],[3.670980002643383,50.63476001080233],[3.6701700170335148,50.63529000263338],[3.6705641073331496,50.635784971140744],[3.667440010558233,50.638550005895674],[3.6671600114820726,50.64015999870617],[3.667647836648706,50.641331187046866],[3.6661701263853055,50.642989242145774],[3.6643300057682806,50.64331000960176],[3.663558131320716,50.644299583709135],[3.66142000222134,50.644330010872],[3.6588094494627867,50.64539972565241],[3.6554900059884856,50.645000013007966],[3.655161933441331,50.64548675230804],[3.6537516041659233,50.64540983186636],[3.6528499993245496,50.644980012793866],[3.650587833439051,50.64577980860769],[3.6477595334612474,50.64552974761369],[3.6445175825421137,50.64417271149825],[3.645392638214202,50.64250032438739],[3.6496299885999925,50.64225998952418],[3.649569989467564,50.6401100038821],[3.6490352830977058,50.63943438462149],[3.6495612781944913,50.63887041404863],[3.6516599965745047,50.63881998588261],[3.653429990537959,50.63795999157316],[3.654060482555576,50.636159762851705],[3.6555099877922324,50.634739996045205],[3.6550399900864705,50.63199000828373],[3.652199998308832,50.63096000986987],[3.64867978123427,50.63099006332692],[3.6464000058643604,50.631650014167626],[3.6438189933970717,50.63306977008717],[3.640610009288599,50.6328900117493],[3.640189144363497,50.635240087543075],[3.6377900129759855,50.63717000534889],[3.6379296180354164,50.63841993745155],[3.6373797651638955,50.63959777503045],[3.6339500021342293,50.639500012401825],[3.6318100042889925,50.64033000869953],[3.6302589276022514,50.64146791422644],[3.626030525817268,50.63884012699844],[3.6246899915647166,50.63667001089542],[3.6187098002850027,50.63481997211526],[3.616060001082456,50.634450011197835],[3.614522585214802,50.6349774207663],[3.6141799914136965,50.63431001017133],[3.6102499994596062,50.63309001409772],[3.607841040321839,50.63363970646362],[3.6060100069443406,50.63328001391304],[3.6058553861085754,50.63358963470801],[3.6027700015669875,50.633470013385356],[3.601121605641841,50.633929120415914],[3.599780002769897,50.633020015411795],[3.59856984968896,50.634719836495876],[3.596564196950995,50.63590746118564],[3.594600002627366,50.63477001530019],[3.5934166180067075,50.63615938404052],[3.591160457182321,50.635880016493864],[3.5884199971229163,50.63475000918906],[3.5848600088425573,50.63396997076822],[3.583275685904983,50.63334147269374],[3.583436033459446,50.633101555709736],[3.5866699930705948,50.63390998586495],[3.5876950174423574,50.631591461163325],[3.5916799892716798,50.63240998575594],[3.5918999870645285,50.62956000368661],[3.59115999413856,50.628550012425954],[3.5888960223721464,50.62867865019406],[3.5893099817777805,50.62797000847521],[3.583890009990635,50.62711996020832],[3.5804300064508463,50.625910013963946],[3.579506563829567,50.62828713298611],[3.576609998710133,50.627300010143095],[3.5747100074451033,50.62753001072474],[3.5736747900690577,50.62951898933443],[3.56780001818288,50.628590013944],[3.5682055830490427,50.629505631138855],[3.5673500141461765,50.62971000868725],[3.5676270798044034,50.63084304815021],[3.5669900108570145,50.63088001036],[3.566981126902331,50.63141908671103],[3.564051811754542,50.631175866069206],[3.5641107865205464,50.629909790569464],[3.5655099797308005,50.628380005197165],[3.565013919921736,50.628209531432894],[3.5650997483495095,50.62783997694039],[3.560080021101971,50.627380013344485],[3.560359086516234,50.62787096224583],[3.557010001766643,50.6284000073975],[3.5537908928876334,50.62943966627941],[3.550420004202147,50.629240011061185],[3.5496800204580983,50.62997999506803],[3.5547589269510613,50.63161985066475],[3.55688000705246,50.63425998965924],[3.5626399806360496,50.636060045526555],[3.565335054555467,50.637537342801025],[3.565298965613207,50.63795934183505],[3.562719446482737,50.63947983906992],[3.561050003213392,50.63956001097422],[3.55984943956358,50.64024910115545],[3.5579400007867177,50.63963001189967],[3.5561203281380873,50.640499843142784],[3.553350025876447,50.64235999591657],[3.554743901228667,50.642760580690975],[3.554210016365831,50.643849992614484],[3.5544628547567525,50.643930711138474],[3.5540386919465585,50.64456781489552],[3.5531600074860186,50.644300014226125],[3.5527812108465904,50.645504655748624],[3.5521800075609997,50.64543001243407],[3.5516398283611124,50.6469298961291],[3.5502909245105285,50.64839834994686],[3.548469251941966,50.64828918236515],[3.54569999963885,50.64617001390089],[3.544840008608295,50.646760008418326],[3.5428188754752883,50.64985022938265],[3.5400300056141227,50.650970008497644],[3.539179456008535,50.65190021920952],[3.5351100076025337,50.65408000927523],[3.534359421342229,50.65499003646523],[3.531600022448255,50.656140002986426],[3.5335893123721505,50.65769204706366],[3.531770005937783,50.65847000977102],[3.5292700215840522,50.660529996092485],[3.5324943065133088,50.66164202654759],[3.5316804181190955,50.662957111830615],[3.5307200051160703,50.66271001302706],[3.5297700182117357,50.664199992117325],[3.5311409407819294,50.6644595183389],[3.5308500168659664,50.66500999235161],[3.533298464671316,50.665560360266525],[3.532340010172407,50.66653000556408],[3.5321092638842906,50.667580103024974],[3.5302500178813077,50.66914000042491],[3.5304986870572113,50.669385448346766],[3.5272707982654516,50.670999600867276],[3.5222300074636435,50.67248000946948],[3.5211500157094386,50.67435999708415],[3.521623314746241,50.67475476318488],[3.520490020480483,50.6757299980218],[3.5211350720558934,50.676101533640555],[3.5206306470837787,50.676777978873176],[3.5188100016143804,50.67659001451362],[3.5172400170447458,50.67712000581185],[3.517779271525138,50.67792967839974],[3.5177087472020165,50.67864982190654],[3.515360021157003,50.68012000034695],[3.5171811482301716,50.68135562696291],[3.515020006087577,50.68295000692421],[3.5116298753813937,50.68648981731483],[3.508810021208682,50.687650003849775],[3.5099542198929403,50.68872064120923],[3.5090200172129085,50.68941000229713],[3.509406850037692,50.68990350724231],[3.5083429784572417,50.69134565658056],[3.5067700095207375,50.69085001561533],[3.5066463614812253,50.691560512042734],[3.5049800147613936,50.69199000786874],[3.5052166052454417,50.69266726638171],[3.5046100094145025,50.69288000953624],[3.5042784504693034,50.69379972590014],[3.501420008272152,50.6946400110098],[3.500609281353297,50.695909849313175],[3.4984500051637606,50.69670000842714],[3.4970692240168666,50.69809955643078],[3.4930614087758776,50.69833987381809],[3.491750004871423,50.697790015283026],[3.4906000147368896,50.69964000601325],[3.490460013035288,50.70026999495641],[3.4908874188167873,50.700585791522414],[3.487030015124858,50.70251000514528],[3.48759551383231,50.70361066490818],[3.4866302386344152,50.70462947808335],[3.485810010333635,50.704910010176626],[3.4844708738980197,50.70903667245802],[3.48348001048226,50.70931000915299],[3.4831887178846146,50.7115097543429],[3.4782600187315844,50.71442000019765],[3.4786363157547084,50.714706996257135],[3.4776594934002967,50.71520984715499],[3.4763130347624576,50.715239887694096],[3.475569997956592,50.71457001398959],[3.4710715267482355,50.71671876247977],[3.4695000005818994,50.715930014294656],[3.4690884471855545,50.71617906051481],[3.4681100022518483,50.71586001294766],[3.46677000818509,50.716900007246466],[3.4653902302731865,50.71920950653735],[3.4642300180713548,50.72022000003936],[3.4649669330832156,50.720867865946055],[3.4648400147599014,50.72126999469028],[3.4664300034552284,50.72227998699672],[3.4672874065785204,50.72224181966739],[3.467450216742213,50.722900090149416],[3.4798791755834206,50.728069657101074],[3.4815099795077047,50.729120026721546],[3.485447244196876,50.73268777876797],[3.4852000135308323,50.73407999960827],[3.4855100137600017,50.7353699932544],[3.4874100074698093,50.73773999206591],[3.4887952412122147,50.738726926747596],[3.4847199946540997,50.73957994843288],[3.4788100103474875,50.73959001082161],[3.4787847160639056,50.74002118992315],[3.4763500031894625,50.7406600089165],[3.4736800074234835,50.74218000737685],[3.472528929308407,50.74422933917036],[3.4688900104334213,50.74477001035273],[3.4685600914450125,50.747119017582314],[3.4680005042783795,50.74808901158547],[3.4652300063983614,50.75006000749032],[3.4638692242376146,50.75172042067958],[3.460510898423251,50.75372890973037],[3.4581600061353055,50.75304001328211],[3.457619862129447,50.75424913262056],[3.4568700063487303,50.75459000903215],[3.4534300198690113,50.758129995718804],[3.4544187837336207,50.758519939590606],[3.454677509596107,50.75905847887228],[3.4531600217580296,50.760309997298556],[3.4553198898289246,50.761330150239274],[3.4574170246179103,50.76360016446879],[3.456938767766862,50.76424981045762],[3.4545200038078456,50.76468000956141],[3.4536500118475786,50.76531000640475],[3.453550009229314,50.7674299996418],[3.4542000099833494,50.77046999328473],[3.455450001948803,50.77131998593836],[3.456679985742871,50.77090999219987],[3.456050267822787,50.76842089069306],[3.456160066543867,50.767473041071284],[3.459259987108691,50.76617999244583],[3.4590997524840974,50.764672634595016],[3.4640400056697738,50.76887999200713],[3.4687503647499924,50.771630259249115],[3.4744200051789966,50.77565999110384],[3.480609157686915,50.777889696549565],[3.4824599678231523,50.778960044248706],[3.4843699688427625,50.78068002877966],[3.4879100097700495,50.7852999896676],[3.497660004858892,50.791939991284195],[3.502770002207909,50.79368999115295],[3.51183088554013,50.794360232164074],[3.514499982561915,50.795060046867654],[3.516599531547974,50.79608982293224],[3.519229824483021,50.79853012456712],[3.5208800117991896,50.80230999331169],[3.523604543995455,50.80548949984873],[3.523349811666147,50.805340157523474],[3.519012160048305,50.80896760705151],[3.5179900026439777,50.808530014039256],[3.517130567841698,50.8093777826063],[3.516200003645991,50.8089900144066],[3.5116520712793546,50.81463626773484],[3.5094800096477434,50.81359001767034],[3.5094400119413645,50.81391999194861],[3.5104297195115812,50.81419980650636],[3.5097696692367637,50.81486919531432],[3.5089900073718447,50.81486001232126],[3.5075706629055836,50.81758862055099],[3.5067200083990846,50.81817000700466],[3.506600014376014,50.818439996063034],[3.5074248377116013,50.819035797109734],[3.505470014849531,50.821480000443714],[3.5071280328171985,50.823827306655595],[3.5070477411379954,50.824209077855755],[3.5047470628426796,50.82455873350114],[3.5045999907265313,50.8239900112254],[3.503620000169233,50.823940007037315],[3.4986900120273554,50.82443001068256],[3.4987400115701432,50.82702998631516],[3.4992115569049145,50.82696353098933],[3.4998300051018973,50.828019986997866],[3.5018799822143416,50.82739999413546],[3.5015448283981865,50.82692651096513],[3.5046572797571667,50.82684019555193],[3.5051200060727146,50.827379989610186],[3.509169355200558,50.82817010423393],[3.5105700051815973,50.829409993064864],[3.51296033189628,50.83064039603513],[3.514564610446858,50.83222220442938],[3.511820012726316,50.83447000581575],[3.511826424498073,50.83482802625856],[3.5084700046646446,50.83503001230412],[3.5078185253935774,50.83554022810953],[3.5038000039499577,50.836290009641374],[3.502910738556294,50.836948545949525],[3.5017400022348304,50.836560013115125],[3.5009401786424332,50.83717986155211],[3.499780010660684,50.83826000757383],[3.4990500138029983,50.83991999819237],[3.499610006107872,50.840619988982624],[3.5034351917205644,50.84108181227626],[3.5010799810689495,50.8423299535415],[3.4975897592165466,50.84336013383497],[3.4935600070559,50.84560001016559],[3.49186018424638,50.847049842848676],[3.492086223042544,50.847800552005545],[3.490360013268238,50.84868000713213],[3.4904389736062122,50.84938070096764],[3.4898700137909193,50.85014000138408],[3.490057934881912,50.85054364188883],[3.489591100035512,50.85138714383976],[3.489110011671776,50.85139001159101],[3.489119777834115,50.852824030057725],[3.488760016092579,50.852920008243814],[3.4891998133180833,50.85404872279311],[3.4882000033023126,50.854040011508005],[3.4832099282567883,50.857229815925585],[3.4802655870005914,50.85774880821457],[3.480089991927188,50.857380009424105],[3.4748410932061247,50.85589031026231],[3.4730399952977815,50.8549000109624],[3.4687900008239803,50.85355001427828],[3.4681900077505556,50.85382000831811],[3.4654900144026635,50.85883999788264],[3.4659354508431828,50.859290904965675],[3.464910011130078,50.860230004247526],[3.465084614696304,50.861981804642035],[3.4623900019838323,50.86082001260215],[3.45998997134745,50.8629299600541],[3.457653423837343,50.864277963175944],[3.456000005899888,50.86357001495491],[3.4555390110447766,50.86461960551581],[3.453880007419167,50.86517001253399],[3.451320018190246,50.8675499987853]],[[3.9532052122487173,50.73570482090864],[3.954155033892646,50.73743557978302],[3.9531916064637436,50.73570120233452],[3.9532052122487173,50.73570482090864]],[[3.9536611093740697,50.73767788395787],[3.9511000635483833,50.73853708992043],[3.9536659353871575,50.73766463983648],[3.9536611093740697,50.73767788395787]],[[3.9514921621530377,50.73209610365306],[3.9515160631356823,50.732126153267835],[3.9514857556988723,50.73210879664587],[3.9514921621530377,50.73209610365306]],[[3.947238512036029,50.77517584080991],[3.9483429971088335,50.77555885745021],[3.947226162129889,50.77518304520597],[3.947238512036029,50.77517584080991]],[[3.9469703443971618,50.746906725106385],[3.9457579032216303,50.749318187359265],[3.946965462378966,50.746893614653494],[3.9469703443971618,50.746906725106385]],[[3.945275767859167,50.774084144456594],[3.9457004463363075,50.77419291359869],[3.9452643786604153,50.7740927187807],[3.945275767859167,50.774084144456594]],[[3.9454763801868316,50.74959925750407],[3.9450873522361576,50.74970173503543],[3.9450800118391443,50.749689483655644],[3.9454763801868316,50.74959925750407]],[[3.9442913851866535,50.774308671616254],[3.944585063034301,50.77449020067055],[3.9442584805537417,50.77433291200514],[3.9442913851866535,50.774308671616254]],[[3.944584427085802,50.729673761049405],[3.9438975334892006,50.729393261068154],[3.943920176632688,50.72930280115179],[3.943933810051437,50.729299163362946],[3.944584427085802,50.729673761049405]],[[3.9422610243046248,50.74902307270536],[3.9430010255590804,50.74896046967894],[3.9444191810198226,50.74953123707597],[3.944407176874856,50.749538410252626],[3.9422610243046248,50.74902307270536]],[[3.9420792572357573,50.74896502750913],[3.941760411673156,50.74876666303502],[3.94175812754511,50.74875280341509],[3.9420792572357573,50.74896502750913]],[[3.9325672420019626,50.74924456544906],[3.932949809518705,50.74679142682736],[3.933299859928621,50.746318365737665],[3.9333071674010065,50.74633053826023],[3.9325672420019626,50.74924456544906]],[[3.9228656342490886,50.825417080508686],[3.9194755006634323,50.82474852645546],[3.919467768119103,50.82473671511881],[3.9228656342490886,50.825417080508686]],[[3.8990784310232085,50.73716093149659],[3.89901107698449,50.73719752332547],[3.899077327045409,50.73714677093381],[3.8990784310232085,50.73716093149659]],[[3.892865422446417,50.7425600341093],[3.894192610727674,50.74130652661808],[3.894243315298838,50.741343386904596],[3.8929520543635454,50.74254810366442],[3.892865422446417,50.7425600341093]],[[3.892632401556791,50.73497828988263],[3.892548732961159,50.73504937221825],[3.8926294586487216,50.73496451421226],[3.892632401556791,50.73497828988263]],[[3.8907085421792167,50.74370040737456],[3.8895577335818072,50.744040419044985],[3.890994349656351,50.74340341989237],[3.8907085421792167,50.74370040737456]],[[3.887523831867167,50.74840981700447],[3.889708765652951,50.74565161579648],[3.8901885127284515,50.74550136497605],[3.8901889906555556,50.74551539724504],[3.887523831867167,50.74840981700447]],[[3.889474950711956,50.74408784976488],[3.889770604405142,50.74454104242697],[3.889766114264699,50.74455456371506],[3.889474950711956,50.74408784976488]],[[3.8855790280856053,50.83223040804487],[3.8808083383995466,50.83222810702279],[3.8855881414506346,50.83221952003787],[3.8855790280856053,50.83223040804487]],[[3.883929526668709,50.750470067771516],[3.8802353311474387,50.75132616762652],[3.8849499706575914,50.749887124705644],[3.883929526668709,50.750470067771516]],[[3.882941346417341,50.91415673461483],[3.883714665623887,50.914239150321265],[3.8837231013140046,50.91425041490368],[3.882941346417341,50.91415673461483]],[[3.8814398554856995,50.80920991195078],[3.880984563219154,50.80968928864816],[3.881685721321228,50.80854321431642],[3.8814398554856995,50.80920991195078]],[[3.880011566780609,50.915144527861344],[3.8802397262537305,50.915040328227576],[3.880252583222423,50.9150474046206],[3.880011566780609,50.915144527861344]],[[3.880031563472272,50.832134957211316],[3.8781706535690255,50.831632419485736],[3.878163874193984,50.83162007924221],[3.880031563472272,50.832134957211316]],[[3.877572374955093,50.75019651323839],[3.8767719274614865,50.74971111322033],[3.877585966275806,50.75019275095446],[3.877572374955093,50.75019651323839]],[[3.860659864077575,50.75048572411673],[3.8600085230504235,50.74946400752994],[3.860012216060363,50.74945011963128],[3.860659864077575,50.75048572411673]],[[3.8578855672626906,50.75150853415499],[3.859079126980082,50.749937041854395],[3.8590925356931756,50.74993300612598],[3.858430561621972,50.751278437684874],[3.8578855672626906,50.75150853415499]],[[3.857450011829886,50.750150002558215],[3.857637003561923,50.75162648429578],[3.857211116307398,50.750469612818556],[3.858529986233101,50.748250000074684],[3.85828570594156,50.74781530780824],[3.8586871404574543,50.748323461924755],[3.857450011829886,50.750150002558215]],[[3.8569100066629485,50.74755001228984],[3.856467881499397,50.74830724551699],[3.856454292151678,50.748310890404206],[3.856898481837784,50.74749366042469],[3.857305251078691,50.74755927094859],[3.8569100066629485,50.74755001228984]],[[3.855514597691857,50.74795197504074],[3.855645736293301,50.74748289238067],[3.855524002731701,50.74796273686413],[3.855514597691857,50.74795197504074]],[[3.8554523495178903,50.74878114431134],[3.855474033585536,50.7486966435664],[3.855557832181745,50.748849984685414],[3.8554523495178903,50.74878114431134]],[[3.8478629272737175,50.838182356704905],[3.8475611015100095,50.838223413584295],[3.8478699504850296,50.83817003187244],[3.8478629272737175,50.838182356704905]],[[3.84383293609383,50.74556039061115],[3.840070181435413,50.7423401553782],[3.839229276787448,50.74184828719891],[3.8401208610786437,50.74231074428341],[3.84383293609383,50.74556039061115]],[[3.8408035079724887,50.8378891366895],[3.840431088511649,50.837690381573594],[3.8408160842970265,50.837882289326544],[3.8408035079724887,50.8378891366895]],[[3.836351157670556,50.742569545454494],[3.838355207011621,50.74138278302551],[3.8384499221681416,50.7414294255688],[3.838445859227704,50.7414429832725],[3.836351157670556,50.742569545454494]],[[3.8279304704414767,50.743054099530234],[3.8278287431948317,50.74310722426735],[3.827930611528092,50.74304006611043],[3.8279304704414767,50.743054099530234]],[[3.8245109449122476,50.74430966333965],[3.824452273291548,50.74429824713202],[3.825376181431609,50.74399083223988],[3.8245109449122476,50.74430966333965]],[[3.8176174945300616,50.795360724414465],[3.8189393365968134,50.79573708142224],[3.8176053542946775,50.79536788314042],[3.8176174945300616,50.795360724414465]],[[3.817032108936616,50.746357986382556],[3.818831206093065,50.744688606802534],[3.817011179027041,50.74645562487857],[3.817032108936616,50.746357986382556]],[[3.8163004272618797,50.74953804495322],[3.8162328606464824,50.74960229714577],[3.816542382470828,50.74838468590214],[3.8163004272618797,50.74953804495322]],[[3.816495530559377,50.825772896368996],[3.816258363771192,50.82565571196962],[3.8165087125525337,50.8257663895105],[3.816495530559377,50.825772896368996]],[[3.8156902189320223,50.75296850485958],[3.8155284979349777,50.75314562288644],[3.8159303090139285,50.75157210627103],[3.8156902189320223,50.75296850485958]],[[3.815468052321121,50.75070912997085],[3.8159143736370225,50.75123230247226],[3.8142678829304963,50.75018369221389],[3.815468052321121,50.75070912997085]],[[3.8142279683571565,50.7873596380185],[3.8135216557782274,50.78721963436728],[3.813515039149737,50.787207032409555],[3.8142279683571565,50.7873596380185]],[[3.8140602504819894,50.78939946345631],[3.813240886284796,50.7888996065657],[3.814073783489478,50.78939564083161],[3.8140602504819894,50.78939946345631]],[[3.813239395025358,50.749879505604504],[3.8135041687162063,50.74985185793295],[3.8132314291517027,50.74989115447326],[3.813239395025358,50.749879505604504]],[[3.8077310185453537,50.750268043483835],[3.8013455272052044,50.75001726132562],[3.8077412475429364,50.75025835084064],[3.8077310185453537,50.750268043483835]],[[3.795050289857078,50.810260207711345],[3.793671626017543,50.80908926139077],[3.797004652220541,50.81164858863961],[3.795050289857078,50.810260207711345]],[[3.7892468999568245,50.8127075605095],[3.792671791424555,50.8103608186868],[3.7926855459500555,50.81036369925411],[3.7892468999568245,50.8127075605095]],[[3.7874633676846132,50.814829272187765],[3.788027237389192,50.81399607322813],[3.7880412011222138,50.81399545040274],[3.7874633676846132,50.814829272187765]],[[3.787231271776821,50.816745662410604],[3.7871814524061653,50.816739786305035],[3.7872269611718945,50.81648985834848],[3.787231271776821,50.816745662410604]],[[3.783031806969441,50.748878120567184],[3.782578091509676,50.74899998834224],[3.7830382107008518,50.748865575690616],[3.783031806969441,50.748878120567184]],[[3.7780600004707727,50.747490013295305],[3.776701217847823,50.748347512845015],[3.7780205856389033,50.74744161046019],[3.779608198990557,50.748268627517994],[3.7780600004707727,50.747490013295305]],[[3.7707400131669493,50.75468000971439],[3.7707633770646933,50.75512155139324],[3.770657818711954,50.754668326952746],[3.7731600752020165,50.75407967295275],[3.7707400131669493,50.75468000971439]],[[3.7684567938583484,50.75729541484457],[3.7708152062036477,50.755733255046906],[3.768458998562823,50.757321017972245],[3.7684567938583484,50.75729541484457]],[[3.7657700036967516,50.75881001116414],[3.76685999682157,50.758819986218185],[3.7686463164798507,50.75789305096818],[3.7668107935685184,50.75886939713384],[3.7657700036967516,50.75881001116414]],[[3.7653007442870625,50.86335939158764],[3.7656230310278818,50.86309724239755],[3.765286195425968,50.8634016579576],[3.7653007442870625,50.86335939158764]],[[3.764131598766386,50.865687745093325],[3.7628411477488095,50.86836765687795],[3.762778102336546,50.868406406941894],[3.76277370318084,50.86839300994205],[3.764131598766386,50.865687745093325]],[[3.763329841962119,50.84518019355201],[3.761278153594102,50.844855190337285],[3.76126981309729,50.84484393129524],[3.763445570348937,50.845098754624864],[3.762851770534337,50.84579000804327],[3.763329841962119,50.84518019355201]],[[3.7619976827807147,50.84784047214534],[3.762665855030229,50.848208085019955],[3.7626030569780964,50.84847739345261],[3.7625889572836684,50.848476843856155],[3.7619976827807147,50.84784047214534]],[[3.7620677848023245,50.84614287349654],[3.76226002471791,50.846229505561524],[3.7620500275413393,50.84617217537972],[3.7620677848023245,50.84614287349654]],[[3.761850448917923,50.8476598646661],[3.7618707560585216,50.847696477832855],[3.7618429045791357,50.84767208562287],[3.761850448917923,50.8476598646661]],[[3.7611584795927624,50.76153152040724],[3.7612055611183304,50.76153329493369],[3.761096625292563,50.76160735004309],[3.7611584795927624,50.76153152040724]],[[3.760109760545681,50.76258376741462],[3.760299754401074,50.76410946446366],[3.7599743902308407,50.764867816053915],[3.760109760545681,50.76258376741462]],[[3.7593104058960853,50.778684061897366],[3.758531974414426,50.77661689767924],[3.7586909010672165,50.77674264688495],[3.7593104058960853,50.778684061897366]],[[3.7592343511404414,50.77902949667998],[3.7586514567446536,50.78028448793484],[3.7592268827057627,50.77901748306181],[3.7592343511404414,50.77902949667998]],[[3.757956178208454,50.7757402689516],[3.7556422763839095,50.77494047528895],[3.75561769058703,50.774915776805805],[3.757468965604594,50.775269973569365],[3.757956178208454,50.7757402689516]],[[3.757794687350977,50.76858554021685],[3.7532324411943643,50.77183918607058],[3.7531454972247382,50.771546542935674],[3.757794687350977,50.76858554021685]],[[3.7563759116646613,50.77909444716916],[3.7566460506043446,50.77919750930789],[3.7563635699957514,50.779101231204585],[3.7563759116646613,50.77909444716916]],[[3.7541693495609247,50.685336296886554],[3.7544364943460367,50.6858635429078],[3.7542650965773285,50.685945207449045],[3.754254018035005,50.68593667333913],[3.7541693495609247,50.685336296886554]],[[3.7536810504266573,50.77341054528541],[3.7535926972626625,50.77304062260558],[3.754266596327927,50.77385776651335],[3.7536810504266573,50.77341054528541]],[[3.7527146174332886,50.77798177959996],[3.7506900262177956,50.77664996841074],[3.7484128287814746,50.77436964827849],[3.748463482450109,50.77436296446554],[3.7527146174332886,50.77798177959996]],[[3.7495390495529257,50.90922183703566],[3.746968504575465,50.90781127162298],[3.749552520061344,50.90921769039547],[3.7495390495529257,50.90922183703566]],[[3.739869993612675,50.772560008142136],[3.7379416874635067,50.77148670940085],[3.740099886323621,50.772560147394735],[3.7420300044457093,50.774749988913534],[3.7436588426731316,50.77461032197373],[3.7443000025640103,50.77499998717471],[3.7477133644588476,50.77448879234076],[3.7441725972675957,50.775079520956915],[3.7435099969637546,50.774690013126936],[3.741871908951872,50.774819375142954],[3.739869993612675,50.772560008142136]],[[3.7468688848757137,50.84606888577756],[3.7463829724822015,50.845586631620236],[3.7469980852314606,50.84609601170243],[3.7468688848757137,50.84606888577756]],[[3.7468328813380247,50.907664796857006],[3.746983578210524,50.90742886625387],[3.746842678158809,50.90768334767424],[3.7468328813380247,50.907664796857006]],[[3.7452996316274967,50.844598965581255],[3.74497540399971,50.84376593177407],[3.745463799071398,50.844744655164],[3.7452996316274967,50.844598965581255]],[[3.7446901913464807,50.72935755225808],[3.7451199817487755,50.72930993469328],[3.7446827826038485,50.72936969603127],[3.7446901913464807,50.72935755225808]],[[3.734795163737354,50.73188112916022],[3.7391498235803513,50.730674760185515],[3.7347885713548186,50.731893513689414],[3.734795163737354,50.73188112916022]],[[3.7325200035916515,50.77056001271074],[3.7319210163871728,50.77093922711577],[3.7324824497055156,50.770520097071945],[3.7361299990903216,50.770599988048026],[3.7381772362111567,50.77025147590274],[3.7360799968347984,50.77065995362628],[3.7325200035916515,50.77056001271074]],[[3.73178776189153,50.733374740225],[3.7337011638679,50.73223619373092],[3.73178460535819,50.733388706857525],[3.73178776189153,50.733374740225]],[[3.7292035448021483,50.734178398577356],[3.7275314414935092,50.734719551535356],[3.7273786026494866,50.73471312658804],[3.7273854271173623,50.734700665644475],[3.7292035448021483,50.734178398577356]],[[3.7244001926759407,50.68686989461014],[3.7238124340031815,50.68713635182841],[3.725915803823011,50.68602955574945],[3.7244001926759407,50.68686989461014]],[[3.7168710784230123,50.768100334064506],[3.7205440919922785,50.769259062657504],[3.7163778533931873,50.768070801345274],[3.7168710784230123,50.768100334064506]],[[3.714754380849687,50.8381317246106],[3.7160470419697327,50.83944699014064],[3.716018820663894,50.83960111414906],[3.7160047809448877,50.83959993633529],[3.714754380849687,50.8381317246106]],[[3.7145356590641647,50.84174654889885],[3.715918938608177,50.84013118249235],[3.7145377774288413,50.8417607109688],[3.7145356590641647,50.84174654889885]],[[3.7115900179766843,50.770549999286565],[3.7146669505194425,50.77303944216783],[3.7146684092229942,50.77305353780778],[3.711535843956352,50.77056324672355],[3.713007970421022,50.769188346927606],[3.7115900179766843,50.770549999286565]],[[3.714648103007876,50.83761965872852],[3.7136338514136193,50.83695917888039],[3.713636268430749,50.83694510044406],[3.714648103007876,50.83761965872852]],[[3.7119635565396294,50.78247573510656],[3.710425072372847,50.78196440290239],[3.7104211385548767,50.78195071769087],[3.7119635565396294,50.78247573510656]],[[3.7115863408537817,50.774322488078624],[3.711565135764099,50.77433497270483],[3.7115653898278813,50.774320872574314],[3.7115863408537817,50.774322488078624]],[[3.710174361421601,50.73543046102255],[3.7103947579717347,50.735457786459676],[3.7104023530755637,50.73546969330206],[3.710174361421601,50.73543046102255]],[[3.7054014996772215,50.737398534033105],[3.709953051163287,50.73545660393225],[3.7053967142627005,50.73741168755394],[3.7054014996772215,50.737398534033105]],[[3.7081406541572317,50.85361299099422],[3.7080512948731417,50.85329538746768],[3.7081704476812156,50.853612878524366],[3.7081406541572317,50.85361299099422]],[[3.7019422922080687,50.80769097219355],[3.7011507780366104,50.81067713957128],[3.7010277204642033,50.810783057060505],[3.7010207829528414,50.81077054585845],[3.7019422922080687,50.80769097219355]],[[3.700899819869387,50.8108774747896],[3.7005889926462006,50.8111800154535],[3.6997125665172956,50.811332383187604],[3.6997183921150563,50.811319416282885],[3.700899819869387,50.8108774747896]],[[3.697757775021944,50.86037194761718],[3.6969566172709345,50.86105222925982],[3.6977820235510945,50.86009818439583],[3.697757775021944,50.86037194761718]],[[3.697486573967854,50.862658880709745],[3.6976863706992527,50.86262966612724],[3.6974851735112635,50.86267355067768],[3.697486573967854,50.862658880709745]],[[3.6976824102424044,50.8624552909889],[3.697642272615316,50.86169761400022],[3.69765459004285,50.86169094317825],[3.6976824102424044,50.8624552909889]],[[3.6973121280855676,50.773720846325745],[3.6971823504779464,50.77346434801893],[3.697326380134712,50.77372203686841],[3.6973121280855676,50.773720846325745]],[[3.6945744252428963,50.77468377451971],[3.6961391792129197,50.77365058671846],[3.696898940385964,50.773518625158886],[3.696894465357186,50.773532099930605],[3.6945744252428963,50.77468377451971]],[[3.694693964613158,50.80172065488181],[3.6939979276111328,50.803214392285284],[3.6939845875862014,50.80321874640376],[3.694693964613158,50.80172065488181]],[[3.6922457630473398,50.7744875991986],[3.6914116045189838,50.77431030189556],[3.6922572107762797,50.77447945095621],[3.6922457630473398,50.7744875991986]],[[3.691239441415426,50.753081799883624],[3.691609338179441,50.75216763863014],[3.6912461858108374,50.75309436205183],[3.691239441415426,50.753081799883624]],[[3.689232128425804,50.874581641024704],[3.6892107874318167,50.874553458684964],[3.690842997500082,50.873575362221715],[3.689232128425804,50.874581641024704]],[[3.6899596069188996,50.77453117749815],[3.6889530191210222,50.77465067680582],[3.6899678255496013,50.77451979799057],[3.6899596069188996,50.77453117749815]],[[3.6870927377062257,50.77254586164023],[3.688526435229878,50.773477623486585],[3.6885328685129917,50.77351317834861],[3.688519032699382,50.77351574223558],[3.6870927377062257,50.77254586164023]],[[3.6866072547328566,50.90397846672977],[3.6866598824884558,50.9044290191041],[3.686573590993679,50.90467411188287],[3.68656399018383,50.90466348875603],[3.6866072547328566,50.90397846672977]],[[3.685928240257047,50.90053112886422],[3.6864393889368716,50.90139903735787],[3.6864683859809286,50.90188866953946],[3.6864554609340794,50.90188297675405],[3.685928240257047,50.90053112886422]],[[3.6855602602779243,50.90783904110712],[3.685486860815788,50.90789672567552],[3.6856628103098976,50.90749153963484],[3.6855602602779243,50.90783904110712]],[[3.6835581655835217,50.89712736674675],[3.6847792523093426,50.898449172378044],[3.684993337657035,50.89884570147921],[3.6849791861551178,50.89884443327077],[3.6835581655835217,50.89712736674675]],[[3.6847383004012424,50.90881821380805],[3.682662930878049,50.91093289419059],[3.6847369768629354,50.90880404324087],[3.6847383004012424,50.90881821380805]],[[3.6829713894403437,50.807148684086506],[3.6832008924451465,50.8072709680761],[3.6845185667601763,50.80871484153942],[3.6845045335876816,50.808714587724175],[3.6829713894403437,50.807148684086506]],[[3.683140832220903,50.80055751604727],[3.683633038101958,50.80014021303616],[3.6831402300277367,50.80057156781097],[3.683140832220903,50.80055751604727]],[[3.6814406701672606,50.91187469067288],[3.6804193829312197,50.912384634545674],[3.681442516280251,50.911860594048974],[3.6814406701672606,50.91187469067288]],[[3.6800299333130635,50.89336084846642],[3.6802903426286084,50.89348047355765],[3.6807465138383795,50.89399877143076],[3.680732388073613,50.89399944370328],[3.6800299333130635,50.89336084846642]],[[3.679009381326054,50.70406560917837],[3.6785218128614314,50.70430912499341],[3.6784361149205393,50.704291908108665],[3.6784419943616724,50.704279141906895],[3.679009381326054,50.70406560917837]],[[3.6776036125445493,50.770708974915365],[3.6782042593199127,50.77225474974459],[3.677531791648967,50.77072491718875],[3.6776036125445493,50.770708974915365]],[[3.676752302500358,50.8144769943838],[3.6773293745275866,50.81424171246323],[3.677342150532393,50.814247691693694],[3.676752302500358,50.8144769943838]],[[3.6764073357067,50.81496970751151],[3.6760004247218006,50.81600851003356],[3.6755762792174664,50.81624859954398],[3.675573301351499,50.816234659616896],[3.6764073357067,50.81496970751151]],[[3.6734799440501518,50.82199436765992],[3.6739012149303796,50.8220007439795],[3.675558890144384,50.82295969403236],[3.6755455493161793,50.82296457619396],[3.6734799440501518,50.82199436765992]],[[3.6751817696835594,50.89114013087281],[3.6683713416340007,50.88947061950472],[3.6751937321309502,50.8911326806696],[3.6751817696835594,50.89114013087281]],[[3.6725016299013538,50.82151858808287],[3.6724637121340082,50.82149980038733],[3.6724732577124515,50.82148951022232],[3.6725016299013538,50.82151858808287]],[[3.671912440868779,50.821698432544586],[3.6717000222559575,50.8214322810165],[3.6724327088506294,50.821525633824244],[3.671912440868779,50.821698432544586]],[[3.6687290229139093,50.75586385008726],[3.6666517687456035,50.75447116545253],[3.6687428537771187,50.75586096492095],[3.6687290229139093,50.75586385008726]],[[3.655844879175015,50.705497068493116],[3.6685739686197136,50.704291818243625],[3.6685847240473013,50.70430092334366],[3.655844879175015,50.705497068493116]],[[3.667550513221931,50.88918150176008],[3.66721961981155,50.8890896688609],[3.665858270406254,50.88810364963885],[3.665872226891144,50.888100443447904],[3.667550513221931,50.88918150176008]],[[3.665229281169178,50.754253486271985],[3.664251144938401,50.754070190823064],[3.6652405631156197,50.75424510580397],[3.665229281169178,50.754253486271985]],[[3.6600827764387733,50.77742111769536],[3.660107439521141,50.77743078199928],[3.6600810828451746,50.77743510554004],[3.6600827764387733,50.77742111769536]],[[3.6540481361711405,50.88624760339993],[3.6590665067023025,50.88630700946076],[3.654038110899453,50.886257544457216],[3.6540481361711405,50.88624760339993]],[[3.6552565018487404,50.78347789076292],[3.65530678958074,50.783601929611805],[3.6545492327477804,50.783702234733504],[3.6552565018487404,50.78347789076292]],[[3.6529272377751907,50.70667910994403],[3.6550400914416397,50.70566389579983],[3.6529231322311104,50.706692474445695],[3.6529272377751907,50.70667910994403]],[[3.6478337009661304,50.707860668756396],[3.651513568013211,50.70708288654785],[3.6515252247220027,50.707090773641724],[3.6478337009661304,50.707860668756396]],[[3.6473918428850562,50.71589288355139],[3.6474389991091316,50.71587367518125],[3.6474012801616404,50.715903625009624],[3.6473918428850562,50.71589288355139]],[[3.6423703729324117,50.716789956654786],[3.640282842937298,50.71685490679321],[3.6470902748281895,50.7161333901584],[3.6423703729324117,50.716789956654786]],[[3.6427190806375878,50.71364478581779],[3.6436569579748475,50.713729659474794],[3.6437341084778696,50.71379915529228],[3.6437225951930814,50.71380769402485],[3.6427190806375878,50.71364478581779]],[[3.6416589266411585,50.73188167011752],[3.6419626418324524,50.73306648393882],[3.64195655146975,50.73307922087514],[3.6416702159470016,50.732310458586795],[3.6416589266411585,50.73188167011752]],[[3.6410416195556334,50.912756759467506],[3.6413363337164264,50.91219387182875],[3.6410638139441227,50.91280797746574],[3.6410416195556334,50.912756759467506]],[[3.6396673825710826,50.716880432266244],[3.639419084544867,50.716909621912336],[3.638286492027698,50.71649313748505],[3.638298916788263,50.71648612856611],[3.6396673825710826,50.716880432266244]],[[3.5997531142702575,50.767422441626636],[3.597685150265374,50.76729356608127],[3.5997634997601695,50.767412929951085],[3.5997531142702575,50.767422441626636]],[[3.5929714807397306,50.76643005208529],[3.592343552028851,50.76628076707792],[3.59298310553352,50.76642220671466],[3.5929714807397306,50.76643005208529]],[[3.5887304334365777,50.765000214513556],[3.5909287988109253,50.765868855440594],[3.5878200179134154,50.76493010696272],[3.5887304334365777,50.765000214513556]],[[3.585462828299417,50.80430021762506],[3.584632364776689,50.80359194314984],[3.58547674010004,50.804298489072686],[3.585462828299417,50.80430021762506]],[[3.584130400822306,50.76439688392574],[3.579452567296302,50.76226769466154],[3.5841434259493994,50.7643916479534],[3.584130400822306,50.76439688392574]],[[3.5756610923266066,50.82099074580754],[3.5807899004747936,50.824516756435976],[3.575276758302609,50.82086385969837],[3.5756610923266066,50.82099074580754]],[[3.5782835148469405,50.880960296577705],[3.5795254520971667,50.88163513362892],[3.5795291886207385,50.88164872282602],[3.5782835148469405,50.880960296577705]],[[3.5757587455420112,50.83565204975829],[3.576720412770153,50.83509992639964],[3.5792109266043375,50.834454896066504],[3.5792047609163316,50.83446772074938],[3.5757587455420112,50.83565204975829]],[[3.5779899148020946,50.761534175539886],[3.576610068424044,50.759966300725544],[3.576612169146075,50.75995221416921],[3.5779899148020946,50.761534175539886]],[[3.575606237607753,50.84710228163966],[3.5748005144117787,50.84688998513174],[3.574330685359526,50.84646458727948],[3.574344232128802,50.84646001099412],[3.575606237607753,50.84710228163966]],[[3.572739988101868,50.81997004964355],[3.574394148678983,50.82056891971883],[3.569811955099771,50.81958328248212],[3.572739988101868,50.81997004964355]],[[3.5709799780428435,50.843280023412554],[3.5718948861294413,50.844316769247676],[3.5686995243130513,50.84147276872484],[3.5709799780428435,50.843280023412554]],[[3.5655213055709862,50.790100339753856],[3.568234220291508,50.79082699436708],[3.565183670784578,50.79011242370478],[3.5655213055709862,50.790100339753856]],[[3.5640492442199587,50.79012012707806],[3.5642755849181516,50.79013684635936],[3.5626988442599266,50.79035721681395],[3.5640492442199587,50.79012012707806]],[[3.558402333217166,50.820255814801904],[3.560318782285424,50.82053983236052],[3.558391305352692,50.8202645194711],[3.558402333217166,50.820255814801904]],[[3.5526454545833293,50.818609068312604],[3.555088568104613,50.8198193037212],[3.5526321923129633,50.81861382191743],[3.5526454545833293,50.818609068312604]],[[3.5445494106712845,50.87967508084287],[3.548510135751837,50.880150020769605],[3.553270904202294,50.88088845669569],[3.553259620848366,50.880896908948614],[3.5445494106712845,50.87967508084287]],[[3.549268322411867,50.732908544079024],[3.5488608378497624,50.732780221318805],[3.5492804493103436,50.73290134648589],[3.549268322411867,50.732908544079024]],[[3.546529968791869,50.813240051105026],[3.547997710287555,50.81439820520863],[3.5457393727425615,50.81287782216925],[3.546529968791869,50.813240051105026]],[[3.5410898054507918,50.81128995647314],[3.5447888048747442,50.812433310200426],[3.5309747015086717,50.80903702567347],[3.5410898054507918,50.81128995647314]],[[3.5433792598345097,50.80893244306587],[3.5434523539898946,50.80894074764616],[3.543327865381352,50.80904780868852],[3.5433792598345097,50.80893244306587]],[[3.5432385465787726,50.73262913635818],[3.54169426353576,50.732789501664655],[3.5432471817829345,50.732617994624476],[3.5432385465787726,50.73262913635818]],[[3.5427696172866736,50.81017374381831],[3.5425487396361457,50.81057247962648],[3.5427628763012997,50.810161207877165],[3.5427696172866736,50.81017374381831]],[[3.5413114810435022,50.73349713624258],[3.5412695794268627,50.733370096612646],[3.541325447246553,50.73349863383393],[3.5413114810435022,50.73349713624258]],[[3.5390981912619717,50.73362417891013],[3.5388514242401516,50.73284726445847],[3.53924162501922,50.73361336759702],[3.5390981912619717,50.73362417891013]],[[3.535068133763867,50.764632080782235],[3.5389871962891877,50.764210316130054],[3.5350594485329654,50.76464318557332],[3.535068133763867,50.764632080782235]],[[3.529499116360772,50.885296997190586],[3.5287766029085508,50.88277088777717],[3.5295651129357988,50.88534673532211],[3.529499116360772,50.885296997190586]],[[3.5275023314209664,50.76390523017916],[3.526989525855609,50.76384988206561],[3.5243088055757523,50.76317287821087],[3.5243207928352853,50.763165477351116],[3.5275023314209664,50.76390523017916]],[[3.5130149124005094,50.75972964614425],[3.5141505500341355,50.76005490516164],[3.514156909519497,50.76006740510382],[3.5130149124005094,50.75972964614425]],[[3.505197046533945,50.87089016049413],[3.505041518126339,50.870602520128266],[3.5052110661107774,50.87089199252549],[3.505197046533945,50.87089016049413]],[[3.5017345892959866,50.86985544243915],[3.5027899937437526,50.8699600312894],[3.5041526355354184,50.870357120678776],[3.504140750144746,50.87036498238359],[3.5017345892959866,50.86985544243915]],[[3.501341775968402,50.758951253573635],[3.501000024574502,50.75897984025595],[3.5007229372906883,50.75887619661528],[3.5007342085809037,50.75886764338269],[3.501341775968402,50.758951253573635]],[[3.4970441769062717,50.757613837129774],[3.498014798619141,50.75793224426648],[3.498020477242344,50.75794501138826],[3.4970441769062717,50.757613837129774]],[[3.4929400131543,50.75770677003343],[3.493634205734673,50.7576678620912],[3.4936443932766763,50.757677584224425],[3.4929400131543,50.75770677003343]],[[3.4889913339815175,50.879969379329594],[3.4889386245515164,50.87994712514949],[3.4891945947693332,50.8798724244579],[3.4889913339815175,50.879969379329594]],[[3.486842340431294,50.87981995036875],[3.4867234137772694,50.87964579158579],[3.487594325550114,50.879864414513285],[3.486842340431294,50.87981995036875]],[[3.484965185953337,50.87747891095727],[3.4856798227285672,50.87802014588136],[3.4861411554455026,50.87893137396389],[3.486127109815348,50.87892981070207],[3.484965185953337,50.87747891095727]],[[3.459662577727102,50.761859313713884],[3.463952260428418,50.763607249348276],[3.4639576359751505,50.76362031101468],[3.459662577727102,50.761859313713884]]]}}]}