{"type":"FeatureCollection","features":[{"type":"Feature","properties":{"name":"Pajottegem","src":"VRBG"},"geometry":{"type":"MultiPolygon","coordinates":[[[[3.98787,50.68749],[3.99074,50.68788],[3.99368,50.69019],[3.99444,50.69135],[3.99679,50.69305],[3.99863,50.69363],[3.99947,50.69461],[4.00114,50.69536],[4.00084,50.6957],[4.00351,50.69688],[4.00784,50.69782],[4.00995,50.69942],[4.01144,50.6986],[4.01282,50.6988],[4.01255,50.69839],[4.01368,50.69619],[4.01712,50.69392],[4.0192,50.69517],[4.02469,50.69396],[4.02561,50.69425],[4.02795,50.69374],[4.02886,50.69412],[4.03206,50.69392],[4.03241,50.69456],[4.03783,50.69706],[4.0375,50.69729],[4.04751,50.70161],[4.05169,50.70185],[4.05338,50.7016],[4.05433,50.70085],[4.0577,50.69489],[4.05874,50.69449],[4.06741,50.70585],[4.06763,50.70701],[4.07207,50.71174],[4.08194,50.72445],[4.09154,50.72748],[4.09347,50.72657],[4.0947,50.72796],[4.10028,50.73159],[4.0989,50.73254],[4.0993,50.73373],[4.10515,50.73698],[4.11006,50.74093],[4.11314,50.74247],[4.11253,50.74296],[4.11603,50.74509],[4.11774,50.74733],[4.11954,50.74538],[4.12092,50.74606],[4.1205,50.74644],[4.12345,50.7486],[4.12196,50.74972],[4.12632,50.75138],[4.12607,50.75178],[4.12758,50.75299],[4.12911,50.75225],[4.13458,50.75307],[4.13511,50.75214],[4.13555,50.75222],[4.1362,50.75146],[4.13924,50.75342],[4.14337,50.75403],[4.13862,50.75779],[4.14387,50.75917],[4.14346,50.75982],[4.14403,50.75998],[4.14192,50.76077],[4.14147,50.76153],[4.13994,50.76136],[4.13963,50.76264],[4.13757,50.76441],[4.13403,50.76545],[4.13332,50.766],[4.13444,50.76665],[4.13361,50.76826],[4.13231,50.76845],[4.1355,50.76938],[4.13575,50.76822],[4.14118,50.77025],[4.14361,50.77162],[4.14809,50.77262],[4.14911,50.7723],[4.1518,50.77303],[4.15237,50.77356],[4.15116,50.774],[4.15012,50.77518],[4.14894,50.77571],[4.14792,50.7752],[4.14596,50.77595],[4.14539,50.77692],[4.14557,50.77833],[4.14617,50.77937],[4.14565,50.78046],[4.14327,50.78168],[4.14179,50.78201],[4.14119,50.78172],[4.13847,50.78327],[4.13679,50.78512],[4.13911,50.78731],[4.1402,50.78961],[4.13875,50.79067],[4.13707,50.79088],[4.13637,50.79148],[4.13828,50.79242],[4.14037,50.79268],[4.13913,50.79403],[4.14011,50.79456],[4.14272,50.79393],[4.14529,50.79522],[4.14371,50.79606],[4.14173,50.79566],[4.13979,50.79824],[4.13813,50.79795],[4.1349,50.79991],[4.13679,50.80049],[4.13624,50.8008],[4.13687,50.80141],[4.13032,50.80291],[4.13103,50.80397],[4.1323,50.80779],[4.1296,50.80926],[4.13065,50.80991],[4.1271,50.81268],[4.12844,50.81424],[4.12745,50.81465],[4.12516,50.81527],[4.12469,50.81497],[4.1239,50.81545],[4.11998,50.81285],[4.11903,50.81416],[4.11671,50.81357],[4.11586,50.81461],[4.11465,50.81405],[4.11271,50.8154],[4.10141,50.81149],[4.09357,50.81208],[4.0876,50.81642],[4.08175,50.81441],[4.07319,50.81316],[4.07193,50.81229],[4.07139,50.81017],[4.07286,50.81034],[4.07266,50.8091],[4.07118,50.80602],[4.07025,50.80624],[4.06966,50.80451],[4.06799,50.80233],[4.06782,50.80032],[4.06276,50.79493],[4.05962,50.79304],[4.06158,50.79088],[4.05997,50.78987],[4.05786,50.78941],[4.05647,50.78847],[4.05312,50.78411],[4.0508,50.78489],[4.04931,50.78613],[4.04625,50.78452],[4.04573,50.78484],[4.04463,50.78438],[4.04246,50.78253],[4.04047,50.78273],[4.04017,50.78228],[4.04072,50.78181],[4.04102,50.77981],[4.0396,50.7798],[4.03863,50.77933],[4.03678,50.77732],[4.03183,50.7798],[4.03072,50.7797],[4.02849,50.78029],[4.02694,50.78201],[4.02626,50.78188],[4.02559,50.78089],[4.0223,50.77979],[4.01886,50.77699],[4.01674,50.77393],[4.01484,50.77239],[4.01498,50.77127],[4.01437,50.77118],[4.01041,50.77246],[4.00706,50.77421],[4.00684,50.77512],[4.00355,50.77735],[4.00293,50.77849],[4.00204,50.77915],[4.00127,50.77942],[3.99979,50.77915],[3.99748,50.77838],[3.996,50.77663],[3.99553,50.77688],[3.99354,50.7755],[3.99265,50.77438],[3.9933,50.77405],[3.99265,50.77228],[3.99166,50.77108],[3.99156,50.7701],[3.98805,50.76749],[3.98657,50.76724],[3.98648,50.76672],[3.98538,50.76606],[3.97351,50.76721],[3.9705,50.76644],[3.96857,50.76685],[3.96965,50.76908],[3.97025,50.76994],[3.97087,50.77014],[3.9717,50.77157],[3.97162,50.77458],[3.97208,50.77558],[3.96859,50.7765],[3.96542,50.77651],[3.96345,50.77576],[3.96262,50.77717],[3.96011,50.77972],[3.95655,50.77905],[3.95202,50.77697],[3.94974,50.77697],[3.94828,50.77627],[3.94844,50.7756],[3.94809,50.77541],[3.94689,50.77508],[3.94565,50.77414],[3.94498,50.77404],[3.94483,50.7746],[3.94422,50.77427],[3.94474,50.77387],[3.94161,50.77264],[3.94193,50.77147],[3.93936,50.77031],[3.93932,50.76848],[3.93701,50.76619],[3.93101,50.75841],[3.93154,50.75841],[3.93334,50.75516],[3.9322,50.75283],[3.93306,50.75144],[3.93251,50.74947],[3.93332,50.74628],[3.93466,50.74593],[3.93511,50.74645],[3.94054,50.7486],[3.94116,50.74833],[3.94204,50.74897],[3.94533,50.74976],[3.946,50.74909],[3.94716,50.74648],[3.9455,50.74544],[3.94633,50.74479],[3.94612,50.7444],[3.94774,50.74404],[3.9482,50.74365],[3.94777,50.74327],[3.94845,50.74302],[3.94791,50.74257],[3.94832,50.74246],[3.94795,50.74222],[3.94817,50.74202],[3.94851,50.74207],[3.94839,50.74149],[3.94762,50.74119],[3.94806,50.74053],[3.94788,50.73998],[3.94963,50.73974],[3.95104,50.73855],[3.95189,50.73851],[3.95421,50.73742],[3.95264,50.73474],[3.95254,50.73311],[3.95164,50.73273],[3.95152,50.7321],[3.94858,50.73156],[3.94546,50.73234],[3.94513,50.73193],[3.94554,50.73136],[3.94484,50.73104],[3.94442,50.73023],[3.94463,50.7297],[3.94364,50.72913],[3.94352,50.72675],[3.94449,50.72603],[3.94426,50.72553],[3.94519,50.72259],[3.94498,50.72225],[3.94613,50.72135],[3.9457,50.71974],[3.94722,50.71904],[3.94991,50.71928],[3.9499,50.71973],[3.95346,50.72058],[3.95828,50.72273],[3.96178,50.72222],[3.96248,50.72168],[3.96229,50.72109],[3.96338,50.72026],[3.96442,50.71844],[3.96521,50.71829],[3.96592,50.71724],[3.96946,50.71491],[3.96991,50.71495],[3.97165,50.71313],[3.97374,50.7117],[3.97417,50.71075],[3.97326,50.70689],[3.97116,50.70219],[3.96961,50.69986],[3.96652,50.6972],[3.96158,50.69166],[3.95878,50.68958],[3.96177,50.68924],[3.97115,50.69057],[3.97489,50.68844],[3.9824,50.68843],[3.98787,50.68749]]]]}},{"type":"Feature","properties":{"name":"Gavere","src":"VRBG"},"geometry":{"type":"MultiPolygon","coordinates":[[[[3.72796,50.90238],[3.72913,50.90253],[3.72953,50.90311],[3.73496,50.90565],[3.73614,50.90569],[3.73997,50.90737],[3.74354,50.90827],[3.74439,50.90785],[3.74521,50.90814],[3.74704,50.90791],[3.75085,50.90991],[3.75323,50.91037],[3.75511,50.91295],[3.75567,50.91381],[3.75393,50.91523],[3.75204,50.91594],[3.75138,50.91714],[3.74913,50.9167],[3.74893,50.91693],[3.74676,50.91627],[3.74598,50.91713],[3.74214,50.91605],[3.73717,50.91549],[3.73318,50.91425],[3.72904,50.91986],[3.72947,50.92052],[3.72834,50.92189],[3.72814,50.92338],[3.734,50.92378],[3.73874,50.92668],[3.74485,50.92892],[3.74698,50.93022],[3.74783,50.93347],[3.74939,50.93452],[3.74643,50.93574],[3.74351,50.93374],[3.74239,50.9349],[3.73896,50.9355],[3.73764,50.93482],[3.73215,50.93529],[3.73021,50.93717],[3.72891,50.93913],[3.72792,50.93884],[3.72756,50.93952],[3.7258,50.93913],[3.72533,50.93982],[3.72583,50.94],[3.72492,50.94146],[3.72066,50.94021],[3.71717,50.93819],[3.71483,50.93736],[3.71357,50.93636],[3.71162,50.93706],[3.70879,50.9373],[3.70932,50.93788],[3.70644,50.93961],[3.70785,50.94028],[3.70892,50.94117],[3.70924,50.94197],[3.71079,50.94278],[3.71138,50.94398],[3.71105,50.94435],[3.71198,50.94509],[3.71086,50.9463],[3.70856,50.94698],[3.70786,50.94804],[3.70747,50.94978],[3.70545,50.95081],[3.7059,50.95137],[3.70493,50.95132],[3.70354,50.95212],[3.70278,50.95208],[3.70111,50.95153],[3.70122,50.95127],[3.69642,50.95042],[3.6941,50.95126],[3.69051,50.95186],[3.6883,50.95277],[3.68768,50.95222],[3.68288,50.95487],[3.68396,50.95561],[3.68365,50.95613],[3.68087,50.95502],[3.67486,50.95363],[3.67039,50.95391],[3.66413,50.95595],[3.66126,50.95642],[3.65679,50.95605],[3.6514,50.95423],[3.64868,50.95212],[3.64756,50.94905],[3.64771,50.94755],[3.64978,50.94218],[3.64991,50.93829],[3.65112,50.93633],[3.64849,50.93577],[3.6473,50.9386],[3.64228,50.93758],[3.63793,50.9378],[3.63707,50.9373],[3.63362,50.93881],[3.63214,50.93905],[3.62901,50.93409],[3.62796,50.93041],[3.62654,50.92851],[3.63236,50.92485],[3.63152,50.92356],[3.62598,50.92411],[3.62396,50.92012],[3.6418,50.91618],[3.6413,50.91512],[3.64151,50.91385],[3.64095,50.9131],[3.6415,50.91181],[3.64515,50.90909],[3.64654,50.90925],[3.64839,50.90852],[3.64892,50.90899],[3.65003,50.90801],[3.6517,50.9089],[3.6521,50.90858],[3.65256,50.90883],[3.65422,50.90853],[3.65431,50.90892],[3.65513,50.90881],[3.65533,50.90915],[3.66126,50.90934],[3.6613,50.90985],[3.66202,50.90983],[3.66201,50.91046],[3.66345,50.91049],[3.66303,50.91083],[3.66628,50.91233],[3.66985,50.91338],[3.67059,50.91266],[3.6724,50.91335],[3.67175,50.91377],[3.67308,50.9145],[3.68096,50.91224],[3.68346,50.91034],[3.68556,50.90784],[3.68782,50.9078],[3.68901,50.90499],[3.69143,50.90546],[3.69439,50.9072],[3.69324,50.90795],[3.69285,50.90868],[3.69182,50.90889],[3.69136,50.91039],[3.69404,50.91061],[3.69479,50.90943],[3.69563,50.91013],[3.69629,50.91004],[3.69795,50.91097],[3.69855,50.91063],[3.70011,50.91113],[3.70042,50.91092],[3.70185,50.91171],[3.70478,50.90995],[3.70578,50.91],[3.70677,50.90904],[3.71279,50.91113],[3.71656,50.9113],[3.71733,50.91032],[3.72142,50.91201],[3.72261,50.91098],[3.72554,50.91204],[3.72844,50.90807],[3.72617,50.90759],[3.72751,50.90533],[3.72679,50.9052],[3.72796,50.90238]]]]}},{"type":"Feature","properties":{"name":"Sint-Lievens-Houtem","src":"VRBG"},"geometry":{"type":"MultiPolygon","coordinates":[[[[3.84793,50.90253],[3.84851,50.90282],[3.84726,50.90425],[3.84917,50.90495],[3.84967,50.90417],[3.85067,50.90538],[3.85247,50.90384],[3.85345,50.90447],[3.8542,50.90393],[3.85468,50.90421],[3.85584,50.90326],[3.85856,50.90461],[3.85941,50.90546],[3.86146,50.90495],[3.8623,50.90414],[3.86374,50.90462],[3.86525,50.90441],[3.86927,50.90544],[3.86491,50.90853],[3.86894,50.91065],[3.87505,50.91278],[3.87879,50.91618],[3.87982,50.91522],[3.88271,50.91413],[3.88473,50.91439],[3.88366,50.91596],[3.8869,50.91719],[3.88869,50.91701],[3.89579,50.91895],[3.89977,50.9206],[3.90114,50.92075],[3.90117,50.91985],[3.90209,50.92036],[3.90211,50.91864],[3.91493,50.92288],[3.91823,50.92294],[3.91949,50.92361],[3.91977,50.92342],[3.92139,50.92489],[3.92489,50.92509],[3.92756,50.9263],[3.93057,50.92677],[3.92699,50.93151],[3.9261,50.93232],[3.92495,50.93225],[3.92468,50.93269],[3.92516,50.93283],[3.92321,50.93372],[3.91959,50.93775],[3.92484,50.93969],[3.92635,50.93998],[3.9268,50.93951],[3.92779,50.93958],[3.9287,50.93997],[3.92845,50.9403],[3.93124,50.94088],[3.92947,50.9432],[3.93135,50.94376],[3.9315,50.94483],[3.93213,50.94498],[3.93133,50.94617],[3.93121,50.94664],[3.93162,50.94668],[3.93093,50.94891],[3.93325,50.94873],[3.93426,50.94925],[3.9369,50.94935],[3.93778,50.94987],[3.91928,50.95336],[3.91666,50.95189],[3.90625,50.94912],[3.90458,50.94798],[3.9014,50.94995],[3.897,50.94756],[3.89592,50.94848],[3.89379,50.94753],[3.89252,50.94875],[3.89095,50.9491],[3.88915,50.9504],[3.88627,50.94926],[3.87984,50.95424],[3.8778,50.95348],[3.87473,50.95062],[3.87159,50.95156],[3.87173,50.95194],[3.87094,50.95287],[3.87123,50.95317],[3.86998,50.95391],[3.86918,50.95383],[3.86892,50.95426],[3.868,50.95427],[3.86703,50.95357],[3.86695,50.95294],[3.86291,50.95291],[3.86294,50.95196],[3.85907,50.95121],[3.85885,50.95331],[3.85713,50.95395],[3.85598,50.9525],[3.85395,50.95313],[3.85484,50.95408],[3.85252,50.95483],[3.8517,50.95357],[3.85202,50.95264],[3.84763,50.95276],[3.84722,50.95169],[3.84463,50.94978],[3.84514,50.94956],[3.84439,50.94883],[3.84498,50.94847],[3.84485,50.94817],[3.84769,50.94725],[3.84957,50.94599],[3.84853,50.9451],[3.84971,50.94233],[3.85048,50.94183],[3.8504,50.93965],[3.84558,50.93786],[3.84389,50.93639],[3.84172,50.93676],[3.83407,50.93541],[3.82742,50.93227],[3.82841,50.929],[3.82893,50.9291],[3.8295,50.92702],[3.83206,50.92551],[3.82608,50.92135],[3.82562,50.91984],[3.82391,50.91797],[3.82425,50.9178],[3.82343,50.91671],[3.82825,50.91399],[3.82923,50.91299],[3.82896,50.91287],[3.82947,50.91217],[3.83319,50.90942],[3.83464,50.90763],[3.83685,50.90824],[3.84238,50.90614],[3.84365,50.90592],[3.84452,50.90621],[3.84793,50.90253]]]]}},{"type":"Feature","properties":{"name":"Zottegem","src":"VRBG"},"geometry":{"type":"MultiPolygon","coordinates":[[[[3.79334,50.80993],[3.79505,50.81026],[3.79752,50.81203],[3.79892,50.81467],[3.80106,50.81557],[3.81137,50.82237],[3.81256,50.82267],[3.81628,50.82569],[3.81706,50.82599],[3.82726,50.82427],[3.8287,50.82471],[3.82894,50.82534],[3.8278,50.82564],[3.82745,50.82774],[3.8291,50.82772],[3.83272,50.82629],[3.83292,50.82729],[3.83162,50.82833],[3.83389,50.83069],[3.83478,50.83251],[3.83835,50.83437],[3.83912,50.83522],[3.83955,50.83513],[3.84045,50.83778],[3.84194,50.83824],[3.84312,50.83742],[3.84294,50.83793],[3.84765,50.83824],[3.84946,50.83775],[3.85305,50.83921],[3.85332,50.84051],[3.85376,50.84088],[3.85887,50.84282],[3.86005,50.84364],[3.86224,50.84343],[3.86529,50.84453],[3.8637,50.84631],[3.86167,50.84649],[3.85825,50.84796],[3.85783,50.84739],[3.85651,50.84691],[3.85382,50.8495],[3.85267,50.84917],[3.85143,50.84973],[3.85222,50.85075],[3.85173,50.85308],[3.85256,50.85387],[3.85352,50.85667],[3.85494,50.8588],[3.85786,50.86062],[3.86221,50.86183],[3.86353,50.86319],[3.85907,50.86467],[3.85749,50.86395],[3.85597,50.86403],[3.85392,50.86559],[3.8558,50.86664],[3.85593,50.86759],[3.85802,50.86834],[3.85722,50.86875],[3.85754,50.8696],[3.85657,50.87013],[3.85701,50.87097],[3.85971,50.87133],[3.86006,50.87208],[3.86311,50.87175],[3.86662,50.87245],[3.8673,50.87227],[3.86345,50.87593],[3.85996,50.87605],[3.85943,50.87713],[3.86014,50.87767],[3.86147,50.88011],[3.86047,50.8802],[3.86034,50.8808],[3.85916,50.88113],[3.86001,50.88206],[3.85098,50.88452],[3.84985,50.8858],[3.85065,50.88615],[3.85007,50.88649],[3.84854,50.88596],[3.84657,50.88747],[3.84479,50.88644],[3.84416,50.88704],[3.84372,50.88685],[3.84176,50.88862],[3.83961,50.88857],[3.83771,50.89468],[3.83899,50.89456],[3.84054,50.89497],[3.84038,50.89521],[3.84371,50.89539],[3.84175,50.89763],[3.84282,50.89799],[3.84208,50.8989],[3.84504,50.8994],[3.84619,50.90078],[3.84566,50.90136],[3.84793,50.90253],[3.84452,50.90621],[3.84365,50.90592],[3.84238,50.90614],[3.83685,50.90824],[3.83464,50.90763],[3.83319,50.90942],[3.82896,50.91287],[3.82247,50.91097],[3.82021,50.90974],[3.82084,50.90896],[3.81874,50.90782],[3.81968,50.90696],[3.8175,50.90582],[3.81794,50.90548],[3.81675,50.90483],[3.81849,50.90339],[3.81563,50.90196],[3.81624,50.90154],[3.8154,50.901],[3.81743,50.8994],[3.81217,50.89756],[3.81147,50.89661],[3.81004,50.8958],[3.80652,50.89474],[3.80496,50.89681],[3.8053,50.89798],[3.80403,50.89762],[3.80223,50.89811],[3.79988,50.89771],[3.79913,50.8988],[3.79627,50.90113],[3.78945,50.90203],[3.78465,50.90216],[3.78115,50.90864],[3.77527,50.91082],[3.77122,50.91573],[3.76612,50.91848],[3.76502,50.91761],[3.75577,50.91389],[3.75323,50.91037],[3.75085,50.90991],[3.74683,50.90773],[3.74734,50.90673],[3.74982,50.90689],[3.7511,50.90576],[3.75145,50.90521],[3.75122,50.90286],[3.75251,50.90122],[3.75218,50.90061],[3.75067,50.90043],[3.75112,50.89999],[3.74884,50.89903],[3.74921,50.89871],[3.74965,50.89898],[3.75088,50.89818],[3.74993,50.89758],[3.75482,50.89505],[3.7536,50.89422],[3.75686,50.89234],[3.75721,50.89259],[3.75996,50.89039],[3.75958,50.89035],[3.75997,50.89001],[3.75959,50.88962],[3.75995,50.88939],[3.75951,50.88872],[3.75801,50.88755],[3.75779,50.88617],[3.75888,50.88498],[3.75824,50.88448],[3.7584,50.88374],[3.75631,50.88325],[3.75678,50.88286],[3.7563,50.88208],[3.75298,50.87971],[3.75319,50.87944],[3.75264,50.87827],[3.75312,50.87783],[3.75253,50.87742],[3.75262,50.87671],[3.75164,50.87578],[3.75005,50.8755],[3.75354,50.8743],[3.75902,50.87031],[3.76054,50.86996],[3.76284,50.86837],[3.76525,50.86345],[3.76617,50.86258],[3.76738,50.85808],[3.76665,50.85459],[3.76594,50.85358],[3.76447,50.85264],[3.76333,50.85264],[3.76346,50.85156],[3.76231,50.85053],[3.76254,50.84935],[3.76301,50.84893],[3.76257,50.84862],[3.76267,50.84821],[3.76183,50.84772],[3.76282,50.84716],[3.76186,50.84684],[3.76204,50.84618],[3.76244,50.84627],[3.76351,50.84504],[3.76538,50.84082],[3.76706,50.84115],[3.76821,50.84086],[3.77169,50.84214],[3.77507,50.84232],[3.77828,50.84021],[3.77683,50.83956],[3.78056,50.83703],[3.78073,50.83673],[3.77922,50.83621],[3.77904,50.83557],[3.78217,50.83373],[3.78481,50.83322],[3.785,50.83123],[3.78569,50.8307],[3.78584,50.82948],[3.78542,50.8272],[3.78478,50.82631],[3.78507,50.82544],[3.78403,50.82493],[3.78504,50.82354],[3.78692,50.82386],[3.78744,50.82173],[3.78859,50.82171],[3.7886,50.82132],[3.7894,50.82104],[3.78917,50.81697],[3.78723,50.81682],[3.78726,50.81513],[3.78867,50.81311],[3.79334,50.80993]]]]}},{"type":"Feature","properties":{"name":"Herzele","src":"VRBG"},"geometry":{"type":"MultiPolygon","coordinates":[[[[3.90913,50.82163],[3.91031,50.82228],[3.91049,50.82199],[3.91127,50.82233],[3.91397,50.82374],[3.91369,50.82399],[3.91402,50.82416],[3.91464,50.82355],[3.91517,50.82376],[3.9161,50.82308],[3.91681,50.82333],[3.91644,50.82405],[3.91668,50.82416],[3.92295,50.82548],[3.92116,50.82808],[3.91823,50.83097],[3.91986,50.83207],[3.92022,50.83436],[3.92121,50.83528],[3.92528,50.83794],[3.92609,50.83937],[3.92738,50.83904],[3.92667,50.84074],[3.92701,50.84091],[3.92656,50.84117],[3.92698,50.84386],[3.92642,50.84488],[3.92567,50.84901],[3.92858,50.84894],[3.92789,50.85042],[3.92967,50.85094],[3.93108,50.8493],[3.93842,50.84946],[3.94062,50.85025],[3.94187,50.85017],[3.94194,50.85142],[3.94575,50.85276],[3.94705,50.85407],[3.94525,50.85681],[3.94926,50.8589],[3.94926,50.85927],[3.94723,50.86102],[3.9475,50.86127],[3.94668,50.86165],[3.94867,50.86296],[3.94646,50.86334],[3.94147,50.86294],[3.94071,50.86416],[3.94497,50.8654],[3.94088,50.86969],[3.94085,50.87079],[3.94451,50.8716],[3.94296,50.87316],[3.94292,50.87374],[3.93479,50.87546],[3.93352,50.87404],[3.93215,50.87425],[3.93047,50.87523],[3.92635,50.87649],[3.92644,50.87752],[3.92588,50.87833],[3.92111,50.87753],[3.92131,50.87819],[3.92038,50.87805],[3.91988,50.87858],[3.9166,50.87719],[3.91576,50.87809],[3.9159,50.8797],[3.91703,50.87982],[3.91701,50.88078],[3.91603,50.88147],[3.92142,50.88315],[3.92321,50.88315],[3.92368,50.88272],[3.92445,50.88303],[3.92345,50.88418],[3.92495,50.88496],[3.925,50.88576],[3.92417,50.88737],[3.92227,50.8895],[3.92167,50.89113],[3.92449,50.89185],[3.92355,50.89515],[3.92368,50.8959],[3.92391,50.89674],[3.92448,50.89691],[3.92519,50.89831],[3.9261,50.89898],[3.92566,50.89929],[3.92019,50.8991],[3.91793,50.90018],[3.91682,50.9014],[3.91642,50.90134],[3.9111,50.90564],[3.91022,50.9055],[3.91022,50.90841],[3.90911,50.9091],[3.90773,50.9122],[3.90522,50.91485],[3.89945,50.91342],[3.89797,50.91621],[3.89664,50.9159],[3.89273,50.91815],[3.88869,50.91701],[3.8869,50.91719],[3.88366,50.91596],[3.88473,50.91439],[3.88298,50.91413],[3.88003,50.91511],[3.87879,50.91618],[3.87505,50.91278],[3.86894,50.91065],[3.86491,50.90853],[3.86927,50.90544],[3.86525,50.90441],[3.86374,50.90462],[3.8623,50.90414],[3.86146,50.90495],[3.85941,50.90546],[3.85856,50.90461],[3.85584,50.90326],[3.85468,50.90421],[3.8542,50.90393],[3.85345,50.90447],[3.85247,50.90384],[3.85067,50.90538],[3.84967,50.90417],[3.84917,50.90495],[3.84726,50.90425],[3.84851,50.90282],[3.84566,50.90136],[3.84619,50.90078],[3.84504,50.8994],[3.84208,50.8989],[3.84282,50.89799],[3.84175,50.89763],[3.84371,50.89539],[3.84038,50.89521],[3.84054,50.89497],[3.83899,50.89456],[3.83771,50.89468],[3.83961,50.88857],[3.84176,50.88862],[3.84372,50.88685],[3.84416,50.88704],[3.84479,50.88644],[3.84657,50.88747],[3.84854,50.88596],[3.85007,50.88649],[3.85065,50.88615],[3.84985,50.8858],[3.85098,50.88452],[3.86001,50.88206],[3.85916,50.88113],[3.86034,50.8808],[3.86047,50.8802],[3.86147,50.88011],[3.86014,50.87767],[3.85943,50.87713],[3.85996,50.87605],[3.86345,50.87593],[3.8673,50.87227],[3.86662,50.87245],[3.86311,50.87175],[3.86006,50.87208],[3.85971,50.87133],[3.85701,50.87097],[3.85657,50.87013],[3.85754,50.8696],[3.85722,50.86875],[3.85802,50.86834],[3.85593,50.86759],[3.8558,50.86664],[3.85392,50.86559],[3.85597,50.86403],[3.85749,50.86395],[3.85907,50.86467],[3.86353,50.86319],[3.86221,50.86183],[3.85786,50.86062],[3.85494,50.8588],[3.85352,50.85667],[3.85256,50.85387],[3.85173,50.85308],[3.85222,50.85075],[3.85143,50.84973],[3.85267,50.84917],[3.85382,50.8495],[3.85651,50.84691],[3.85783,50.84739],[3.85825,50.84796],[3.86167,50.84649],[3.8637,50.84631],[3.86529,50.84453],[3.86224,50.84343],[3.86005,50.84364],[3.85887,50.84282],[3.85376,50.84088],[3.85332,50.84051],[3.85305,50.83921],[3.84946,50.83775],[3.8503,50.83754],[3.85273,50.83526],[3.85779,50.83423],[3.85933,50.83298],[3.86188,50.83178],[3.86922,50.83054],[3.87145,50.83128],[3.87708,50.83131],[3.87982,50.83212],[3.88275,50.83247],[3.88582,50.83221],[3.88653,50.83259],[3.88845,50.83162],[3.89226,50.83313],[3.8956,50.83698],[3.89872,50.83545],[3.90198,50.83233],[3.90489,50.83023],[3.90255,50.82957],[3.90325,50.82889],[3.90384,50.8292],[3.90544,50.82758],[3.90595,50.82525],[3.9052,50.82363],[3.90581,50.82314],[3.90654,50.82359],[3.90851,50.82201],[3.90896,50.82215],[3.90913,50.82163]]]]}},{"type":"Feature","properties":{"name":"Zwalm","src":"VRBG"},"geometry":{"type":"MultiPolygon","coordinates":[[[[3.71703,50.83316],[3.71802,50.83397],[3.71836,50.83507],[3.72068,50.83471],[3.72133,50.83542],[3.72073,50.83557],[3.72116,50.83647],[3.7209,50.83687],[3.71854,50.8387],[3.72106,50.8391],[3.72066,50.83986],[3.725,50.84108],[3.72677,50.84137],[3.7278,50.84078],[3.73077,50.84221],[3.7311,50.84164],[3.7333,50.84192],[3.7333,50.84299],[3.73562,50.84356],[3.73733,50.84652],[3.74117,50.84451],[3.74486,50.84354],[3.7453,50.8446],[3.74687,50.84607],[3.75021,50.84691],[3.75078,50.84638],[3.75703,50.8473],[3.75719,50.84672],[3.76019,50.84676],[3.76001,50.84606],[3.76074,50.84477],[3.76333,50.84518],[3.76244,50.84627],[3.76206,50.84614],[3.76187,50.84675],[3.76282,50.84716],[3.76244,50.84765],[3.76183,50.84766],[3.76301,50.84893],[3.76254,50.84935],[3.76231,50.85053],[3.76346,50.85156],[3.76333,50.85264],[3.76447,50.85264],[3.76594,50.85358],[3.76665,50.85459],[3.76738,50.85808],[3.76617,50.86258],[3.7653,50.86336],[3.76272,50.8685],[3.76054,50.86996],[3.75902,50.87031],[3.75354,50.8743],[3.75005,50.8755],[3.75164,50.87578],[3.75262,50.87671],[3.75253,50.87742],[3.75312,50.87783],[3.75264,50.87827],[3.75319,50.87944],[3.75298,50.87971],[3.7563,50.88208],[3.75678,50.88286],[3.75631,50.88325],[3.7584,50.88374],[3.75824,50.88448],[3.75888,50.88498],[3.75779,50.88617],[3.75801,50.88755],[3.75951,50.88872],[3.75995,50.88939],[3.75959,50.88962],[3.75997,50.89001],[3.75958,50.89035],[3.75996,50.89039],[3.75721,50.89259],[3.75686,50.89234],[3.7536,50.89422],[3.75482,50.89505],[3.74993,50.89758],[3.75088,50.89818],[3.74965,50.89898],[3.74921,50.89871],[3.74884,50.89903],[3.75112,50.89999],[3.75067,50.90043],[3.75218,50.90061],[3.75251,50.90122],[3.75122,50.90286],[3.75145,50.90521],[3.7511,50.90576],[3.74982,50.90689],[3.74734,50.90673],[3.74683,50.90767],[3.74704,50.90791],[3.74521,50.90814],[3.74439,50.90785],[3.74354,50.90827],[3.73997,50.90737],[3.73614,50.90569],[3.73496,50.90565],[3.72953,50.90311],[3.72913,50.90253],[3.72796,50.90238],[3.72679,50.9052],[3.72751,50.90533],[3.72617,50.90759],[3.72844,50.90807],[3.72554,50.91204],[3.72261,50.91098],[3.72142,50.91201],[3.71733,50.91032],[3.71656,50.9113],[3.71279,50.91113],[3.70677,50.90904],[3.70578,50.91],[3.70478,50.90995],[3.70185,50.91171],[3.70042,50.91092],[3.70011,50.91113],[3.69855,50.91063],[3.69795,50.91097],[3.69629,50.91004],[3.69563,50.91013],[3.69479,50.90943],[3.69404,50.91061],[3.69136,50.91039],[3.69182,50.90889],[3.69285,50.90868],[3.69324,50.90795],[3.69439,50.9072],[3.69143,50.90546],[3.68901,50.90499],[3.68782,50.9078],[3.68556,50.90784],[3.68666,50.90443],[3.68644,50.9014],[3.68478,50.89845],[3.68029,50.89348],[3.67658,50.89146],[3.66775,50.88931],[3.66838,50.88866],[3.66998,50.88874],[3.67039,50.88834],[3.6705,50.88901],[3.67212,50.88896],[3.67328,50.88944],[3.67488,50.8894],[3.67671,50.88849],[3.68033,50.8889],[3.68125,50.88797],[3.68088,50.88765],[3.68105,50.88708],[3.68248,50.88655],[3.68339,50.88401],[3.68208,50.88361],[3.68159,50.8826],[3.6828,50.88027],[3.68401,50.87934],[3.68863,50.88092],[3.69055,50.87791],[3.68988,50.87666],[3.68947,50.87663],[3.69019,50.87557],[3.68917,50.87462],[3.69296,50.87228],[3.69219,50.87174],[3.69348,50.87107],[3.69338,50.87042],[3.69414,50.87003],[3.69442,50.86645],[3.69574,50.86499],[3.69558,50.8641],[3.69702,50.86279],[3.69769,50.86263],[3.69766,50.86164],[3.69695,50.8611],[3.69776,50.86037],[3.69783,50.85965],[3.69913,50.8585],[3.70179,50.85722],[3.70407,50.85487],[3.70818,50.85361],[3.70791,50.85295],[3.70823,50.85251],[3.71083,50.85106],[3.7098,50.84999],[3.71217,50.8486],[3.71431,50.84848],[3.71557,50.84732],[3.71467,50.84628],[3.71464,50.8429],[3.71429,50.84207],[3.71592,50.84013],[3.71605,50.83945],[3.71454,50.83788],[3.71469,50.83764],[3.71346,50.83682],[3.71362,50.83575],[3.71439,50.83499],[3.71415,50.83382],[3.71532,50.83382],[3.71703,50.83316]]]]}},{"type":"Feature","properties":{"name":"Oudenaarde","src":"VRBG"},"geometry":{"type":"MultiPolygon","coordinates":[[[[3.56487,50.79005],[3.56894,50.79099],[3.56923,50.79154],[3.56992,50.79176],[3.57034,50.79247],[3.57026,50.79442],[3.5721,50.79814],[3.57559,50.80017],[3.5763,50.80103],[3.57824,50.80128],[3.58167,50.79933],[3.58351,50.80046],[3.58011,50.80226],[3.58176,50.80332],[3.58443,50.80351],[3.58592,50.80465],[3.58967,50.80498],[3.59057,50.8054],[3.59042,50.80622],[3.5909,50.80661],[3.59536,50.80597],[3.59642,50.80638],[3.59687,50.80548],[3.6004,50.80961],[3.60265,50.80955],[3.59644,50.81285],[3.59744,50.81353],[3.59915,50.81311],[3.59808,50.81384],[3.59843,50.81436],[3.59806,50.81511],[3.59733,50.81466],[3.59608,50.81504],[3.59746,50.81642],[3.59876,50.81661],[3.59899,50.818],[3.60631,50.822],[3.60713,50.82289],[3.61124,50.8255],[3.61318,50.82487],[3.61579,50.82253],[3.61747,50.82227],[3.6181,50.82286],[3.6196,50.82269],[3.61951,50.82219],[3.62066,50.82177],[3.6211,50.82134],[3.6208,50.82113],[3.62144,50.82092],[3.62136,50.82055],[3.62193,50.82034],[3.62227,50.81958],[3.62401,50.8206],[3.62477,50.82144],[3.62475,50.82197],[3.62675,50.82174],[3.6258,50.82005],[3.62771,50.81994],[3.62756,50.81912],[3.62848,50.81905],[3.63037,50.82214],[3.63018,50.82679],[3.63345,50.82728],[3.63319,50.82835],[3.63443,50.82874],[3.63894,50.82759],[3.64239,50.82762],[3.64272,50.82687],[3.64751,50.82694],[3.64773,50.83004],[3.65885,50.82976],[3.66001,50.82938],[3.6639,50.82603],[3.66575,50.82593],[3.66831,50.8251],[3.66972,50.82279],[3.67097,50.82205],[3.67085,50.82137],[3.67144,50.82116],[3.67191,50.8217],[3.67247,50.82152],[3.67577,50.82307],[3.67862,50.82362],[3.68176,50.82516],[3.68092,50.82612],[3.68091,50.82671],[3.68286,50.82816],[3.67945,50.83],[3.68006,50.83156],[3.67889,50.83216],[3.67861,50.83377],[3.67757,50.83501],[3.67872,50.83553],[3.67821,50.83621],[3.68083,50.83641],[3.68294,50.83964],[3.68258,50.84202],[3.68526,50.84676],[3.68543,50.84764],[3.68514,50.84787],[3.68651,50.84876],[3.6862,50.84898],[3.68654,50.84921],[3.68473,50.85008],[3.68546,50.8507],[3.68284,50.85242],[3.68612,50.85474],[3.68505,50.8555],[3.68617,50.85626],[3.69156,50.85932],[3.69627,50.86135],[3.69771,50.86249],[3.69558,50.8641],[3.69574,50.86499],[3.69442,50.86645],[3.69414,50.87003],[3.69338,50.87042],[3.69348,50.87107],[3.69219,50.87174],[3.69296,50.87228],[3.6892,50.87456],[3.69019,50.87557],[3.68947,50.87663],[3.68988,50.87666],[3.69055,50.87791],[3.68863,50.88092],[3.68401,50.87934],[3.6828,50.88027],[3.68159,50.8826],[3.68208,50.88361],[3.68339,50.88401],[3.68248,50.88655],[3.68105,50.88708],[3.68088,50.88765],[3.68125,50.88797],[3.68033,50.8889],[3.67671,50.88849],[3.67488,50.8894],[3.67328,50.88944],[3.67212,50.88896],[3.6705,50.88901],[3.67039,50.88834],[3.66998,50.88874],[3.66838,50.88866],[3.66775,50.88931],[3.66553,50.88788],[3.65892,50.88626],[3.65106,50.88624],[3.64864,50.88729],[3.64866,50.8879],[3.64268,50.88871],[3.64362,50.89004],[3.64211,50.89168],[3.64451,50.8933],[3.64444,50.89376],[3.64569,50.8952],[3.64324,50.89595],[3.64336,50.89622],[3.64264,50.89602],[3.63962,50.8969],[3.64031,50.8978],[3.63882,50.89833],[3.63656,50.89827],[3.63499,50.89948],[3.63024,50.90035],[3.63129,50.90114],[3.63142,50.90229],[3.63093,50.90292],[3.63168,50.90324],[3.63109,50.90388],[3.62854,50.90353],[3.62948,50.90262],[3.62719,50.90076],[3.62391,50.90032],[3.62114,50.90093],[3.61792,50.89949],[3.61649,50.89841],[3.61184,50.89712],[3.60718,50.89652],[3.60387,50.89685],[3.60383,50.89735],[3.60185,50.89722],[3.59535,50.89572],[3.59506,50.89557],[3.59646,50.89445],[3.59482,50.89386],[3.59677,50.89179],[3.59795,50.88985],[3.59406,50.88892],[3.59237,50.88724],[3.59214,50.88629],[3.586,50.88437],[3.58079,50.88236],[3.5784,50.88099],[3.57142,50.8785],[3.56961,50.8783],[3.56668,50.88182],[3.56627,50.88279],[3.56485,50.88238],[3.56389,50.88382],[3.56247,50.8836],[3.56091,50.88398],[3.55809,50.88261],[3.55582,50.88208],[3.55605,50.88164],[3.55485,50.88112],[3.54851,50.88015],[3.55454,50.87664],[3.55908,50.87289],[3.56282,50.8691],[3.57005,50.86335],[3.57176,50.86268],[3.57096,50.86211],[3.57131,50.86075],[3.57096,50.86068],[3.57419,50.85884],[3.57279,50.85788],[3.57315,50.85711],[3.57162,50.85644],[3.57179,50.85596],[3.57093,50.85546],[3.57137,50.85487],[3.57084,50.85482],[3.57119,50.85325],[3.57432,50.85288],[3.57756,50.85011],[3.57779,50.84888],[3.57713,50.84833],[3.57696,50.84665],[3.57578,50.84652],[3.5757,50.84715],[3.57346,50.84601],[3.57098,50.84328],[3.56841,50.84123],[3.56585,50.84008],[3.56633,50.83931],[3.56777,50.83811],[3.57189,50.83857],[3.57391,50.83814],[3.5749,50.83678],[3.57464,50.83626],[3.57495,50.83593],[3.57946,50.83438],[3.58257,50.83668],[3.58407,50.83571],[3.58448,50.8349],[3.58641,50.83583],[3.58932,50.83352],[3.58713,50.83186],[3.58405,50.82746],[3.58187,50.82523],[3.57566,50.82099],[3.57274,50.81997],[3.56956,50.81954],[3.56087,50.82053],[3.55547,50.81993],[3.55145,50.81805],[3.54824,50.81456],[3.54653,50.81324],[3.54406,50.81208],[3.54109,50.81129],[3.54266,50.81053],[3.54302,50.80936],[3.54368,50.80872],[3.5456,50.80871],[3.55078,50.8033],[3.55363,50.80139],[3.55305,50.80043],[3.55633,50.80012],[3.55629,50.79858],[3.55892,50.79622],[3.56165,50.792],[3.56179,50.7905],[3.56487,50.79005]]]]}},{"type":"Feature","properties":{"name":"Wortegem-Petegem","src":"VRBG"},"geometry":{"type":"MultiPolygon","coordinates":[[[[3.52335,50.80534],[3.5268,50.8076],[3.53005,50.80882],[3.54523,50.81255],[3.54824,50.81456],[3.55145,50.81805],[3.55509,50.81982],[3.56032,50.82054],[3.56956,50.81954],[3.57501,50.8207],[3.58187,50.82523],[3.58405,50.82746],[3.58713,50.83186],[3.58932,50.83352],[3.58641,50.83583],[3.58448,50.8349],[3.58407,50.83571],[3.58257,50.83668],[3.57946,50.83438],[3.57672,50.8351],[3.57465,50.83624],[3.5749,50.83678],[3.57391,50.83814],[3.57189,50.83857],[3.56777,50.83811],[3.56585,50.84008],[3.56841,50.84123],[3.5748,50.84689],[3.5757,50.84715],[3.57578,50.84652],[3.57696,50.84665],[3.57713,50.84833],[3.57779,50.84888],[3.57756,50.85011],[3.57432,50.85288],[3.5712,50.85323],[3.57084,50.85482],[3.57137,50.85487],[3.57093,50.85546],[3.57179,50.85596],[3.57162,50.85644],[3.57315,50.85711],[3.57279,50.85788],[3.57419,50.85884],[3.57096,50.86068],[3.57131,50.86075],[3.57096,50.86211],[3.57176,50.86268],[3.57005,50.86335],[3.56282,50.8691],[3.55908,50.87289],[3.55454,50.87664],[3.54851,50.88015],[3.54323,50.87949],[3.54235,50.88135],[3.53771,50.88374],[3.53534,50.88585],[3.53267,50.8867],[3.53096,50.88652],[3.52962,50.88549],[3.52837,50.88146],[3.53239,50.87748],[3.53133,50.87688],[3.53054,50.87519],[3.52767,50.87639],[3.52446,50.87546],[3.52216,50.87388],[3.5084,50.87368],[3.50715,50.87314],[3.50748,50.87295],[3.5055,50.87256],[3.50445,50.87175],[3.50532,50.87105],[3.50504,50.8706],[3.50279,50.86996],[3.50152,50.86981],[3.50081,50.87039],[3.50072,50.8713],[3.50004,50.872],[3.50011,50.87275],[3.49884,50.87245],[3.49756,50.8729],[3.49804,50.87324],[3.49754,50.87354],[3.4982,50.87406],[3.49711,50.87431],[3.49659,50.87391],[3.49462,50.87546],[3.49271,50.87522],[3.49085,50.87693],[3.49176,50.87827],[3.49059,50.87895],[3.48973,50.87884],[3.48917,50.87943],[3.48941,50.87979],[3.48854,50.88008],[3.48649,50.87959],[3.48568,50.87802],[3.48491,50.87741],[3.47778,50.87779],[3.47773,50.87724],[3.47496,50.87747],[3.47196,50.87713],[3.47194,50.87835],[3.47091,50.87826],[3.46974,50.8767],[3.46687,50.87574],[3.46464,50.87445],[3.4572,50.87619],[3.45564,50.87226],[3.45649,50.8713],[3.4569,50.86968],[3.45649,50.86821],[3.45497,50.86815],[3.45296,50.86871],[3.45132,50.86755],[3.45388,50.86517],[3.45554,50.86462],[3.456,50.86357],[3.45765,50.86428],[3.45999,50.86293],[3.46239,50.86082],[3.46509,50.86199],[3.46491,50.86023],[3.46594,50.85929],[3.46549,50.85884],[3.46819,50.85382],[3.46879,50.85355],[3.47304,50.8549],[3.47484,50.85589],[3.48009,50.85738],[3.48026,50.85775],[3.48321,50.85723],[3.4882,50.85404],[3.48921,50.85405],[3.48876,50.85292],[3.48912,50.85283],[3.48911,50.85139],[3.48959,50.85139],[3.49006,50.85054],[3.48987,50.85014],[3.49044,50.84938],[3.49036,50.84868],[3.49209,50.8478],[3.49186,50.84705],[3.49356,50.8456],[3.49759,50.84336],[3.50108,50.84233],[3.50346,50.84107],[3.49961,50.84062],[3.49905,50.83992],[3.49978,50.83826],[3.50094,50.83718],[3.50174,50.83656],[3.50291,50.83695],[3.5038,50.83629],[3.50782,50.83554],[3.50847,50.83503],[3.51183,50.83483],[3.51182,50.83447],[3.51457,50.83222],[3.51296,50.83064],[3.51057,50.82941],[3.50917,50.82817],[3.50512,50.82738],[3.50466,50.82684],[3.50187,50.82685],[3.50153,50.82693],[3.50188,50.8274],[3.49983,50.82802],[3.49921,50.82696],[3.49874,50.82703],[3.49869,50.82443],[3.50362,50.82394],[3.5046,50.82399],[3.50474,50.82456],[3.50705,50.82421],[3.50713,50.82383],[3.50547,50.82148],[3.50743,50.81903],[3.5066,50.81844],[3.50672,50.81817],[3.50757,50.81759],[3.50899,50.81486],[3.50977,50.81487],[3.51044,50.81419],[3.50944,50.81392],[3.50948,50.81359],[3.51165,50.81464],[3.5162,50.80899],[3.51713,50.80938],[3.51799,50.80853],[3.51901,50.80897],[3.52335,50.80534]]]]}},{"type":"Feature","properties":{"name":"Brakel","src":"VRBG"},"geometry":{"type":"MultiPolygon","coordinates":[[[[3.77806,50.74749],[3.77942,50.74823],[3.7826,50.74902],[3.7861,50.74787],[3.7886,50.74862],[3.79222,50.74863],[3.79636,50.74957],[3.80268,50.75015],[3.81081,50.75034],[3.81368,50.74982],[3.81599,50.75129],[3.81551,50.75322],[3.81301,50.7564],[3.81082,50.75817],[3.8164,50.76079],[3.81991,50.76165],[3.81619,50.76453],[3.81663,50.76474],[3.8159,50.76542],[3.81684,50.76567],[3.81683,50.76628],[3.81363,50.76914],[3.81259,50.7687],[3.81033,50.77053],[3.81233,50.77091],[3.81247,50.7713],[3.81437,50.77117],[3.8141,50.77219],[3.81178,50.77417],[3.80994,50.77445],[3.81029,50.77483],[3.80908,50.77529],[3.80875,50.77641],[3.80628,50.77582],[3.80441,50.77864],[3.80363,50.77905],[3.80687,50.7812],[3.80789,50.78226],[3.80803,50.78313],[3.80967,50.78274],[3.81071,50.78325],[3.81439,50.78021],[3.81693,50.7814],[3.8181,50.78037],[3.8198,50.78113],[3.81816,50.78333],[3.81766,50.7832],[3.81701,50.78389],[3.81531,50.78357],[3.81434,50.7843],[3.81326,50.78714],[3.81418,50.78742],[3.81321,50.78893],[3.81484,50.78983],[3.8154,50.79064],[3.81524,50.79165],[3.81567,50.79232],[3.819,50.79511],[3.81899,50.79571],[3.8162,50.795],[3.80972,50.79445],[3.80726,50.79374],[3.80503,50.79253],[3.80091,50.79271],[3.79962,50.79316],[3.79725,50.79484],[3.79485,50.79573],[3.79385,50.79698],[3.79202,50.79815],[3.78858,50.79845],[3.786,50.79798],[3.78549,50.799],[3.78373,50.80005],[3.78347,50.80178],[3.78957,50.80439],[3.79328,50.80879],[3.79505,50.81026],[3.79334,50.80993],[3.78954,50.81238],[3.78749,50.81457],[3.78718,50.81675],[3.78917,50.81697],[3.7894,50.82104],[3.7886,50.82132],[3.78859,50.82171],[3.78744,50.82173],[3.78692,50.82386],[3.78504,50.82354],[3.78403,50.82493],[3.78507,50.82544],[3.78478,50.82631],[3.78542,50.8272],[3.78584,50.82948],[3.78569,50.8307],[3.785,50.83123],[3.78481,50.83322],[3.78217,50.83373],[3.77904,50.83557],[3.77922,50.83621],[3.78073,50.83673],[3.78056,50.83703],[3.77683,50.83956],[3.77828,50.84021],[3.77507,50.84232],[3.77169,50.84214],[3.76821,50.84086],[3.76706,50.84115],[3.76538,50.84082],[3.76347,50.8451],[3.76074,50.84477],[3.76001,50.84606],[3.76019,50.84676],[3.75719,50.84672],[3.75703,50.8473],[3.75078,50.84638],[3.75021,50.84691],[3.74713,50.84619],[3.74557,50.84493],[3.74486,50.84354],[3.74117,50.84451],[3.73733,50.84652],[3.73562,50.84356],[3.7333,50.84299],[3.7333,50.84192],[3.7311,50.84164],[3.73077,50.84221],[3.7278,50.84078],[3.72677,50.84137],[3.725,50.84108],[3.72066,50.83986],[3.72106,50.8391],[3.71854,50.8387],[3.7209,50.83687],[3.72116,50.83647],[3.72073,50.83557],[3.72133,50.83542],[3.72068,50.83471],[3.71836,50.83507],[3.71802,50.83397],[3.71703,50.83316],[3.71532,50.83382],[3.71415,50.83382],[3.71439,50.83499],[3.71362,50.83575],[3.71349,50.83676],[3.70749,50.83472],[3.709,50.83349],[3.70615,50.83217],[3.70789,50.83163],[3.71175,50.82817],[3.7102,50.82747],[3.71113,50.82656],[3.70933,50.8257],[3.70607,50.823],[3.70814,50.82125],[3.70517,50.81947],[3.70646,50.81952],[3.70567,50.81887],[3.70625,50.81837],[3.70599,50.81784],[3.70651,50.81623],[3.70295,50.81464],[3.70361,50.81427],[3.69917,50.81144],[3.70059,50.81118],[3.70115,50.81068],[3.70217,50.80693],[3.70511,50.805],[3.70432,50.79682],[3.70472,50.79685],[3.70539,50.79576],[3.70715,50.79589],[3.71034,50.79495],[3.70982,50.79419],[3.70958,50.79216],[3.70894,50.79206],[3.71038,50.79067],[3.70595,50.7895],[3.70503,50.78844],[3.7026,50.78696],[3.70356,50.78651],[3.70378,50.78567],[3.70946,50.78656],[3.71131,50.78549],[3.71047,50.78522],[3.71206,50.7825],[3.71018,50.78186],[3.71331,50.78035],[3.71293,50.77967],[3.71051,50.77809],[3.70904,50.7747],[3.70983,50.77395],[3.71158,50.77434],[3.71468,50.77305],[3.71159,50.77055],[3.71437,50.76791],[3.71602,50.76798],[3.72175,50.7696],[3.73125,50.77139],[3.73252,50.77056],[3.73608,50.77066],[3.73819,50.77031],[3.73793,50.77154],[3.73987,50.77256],[3.74187,50.77482],[3.74351,50.77469],[3.74417,50.77508],[3.74841,50.77438],[3.75069,50.77665],[3.75261,50.77797],[3.75672,50.77922],[3.75852,50.78041],[3.75901,50.77999],[3.75933,50.77862],[3.75869,50.77674],[3.75758,50.77581],[3.75797,50.77574],[3.75747,50.77527],[3.75559,50.7749],[3.7545,50.77412],[3.75334,50.77274],[3.75322,50.77163],[3.75853,50.76811],[3.75823,50.76715],[3.75996,50.76492],[3.7603,50.76411],[3.76015,50.76254],[3.76098,50.76171],[3.76181,50.76106],[3.76374,50.76051],[3.76577,50.75881],[3.76681,50.75887],[3.76865,50.7579],[3.76839,50.75738],[3.77082,50.75573],[3.77074,50.75468],[3.77316,50.75413],[3.77317,50.75318],[3.77222,50.75276],[3.77222,50.75222],[3.77567,50.74789],[3.7767,50.74836],[3.77806,50.74749]]]]}},{"type":"Feature","properties":{"name":"Lierde","src":"VRBG"},"geometry":{"type":"MultiPolygon","coordinates":[[[[3.84483,50.77472],[3.8485,50.77775],[3.85101,50.77853],[3.85471,50.78082],[3.85781,50.782],[3.85583,50.78275],[3.85655,50.7832],[3.85994,50.78388],[3.8643,50.78372],[3.86829,50.78497],[3.87023,50.78682],[3.86899,50.7878],[3.86659,50.78778],[3.86505,50.7907],[3.86568,50.79092],[3.86521,50.79159],[3.86562,50.79171],[3.86493,50.79266],[3.86668,50.79316],[3.86972,50.79537],[3.87286,50.79986],[3.87245,50.80034],[3.87233,50.80487],[3.87714,50.80522],[3.8777,50.80537],[3.87773,50.80592],[3.88083,50.80627],[3.88041,50.80805],[3.88173,50.80845],[3.88093,50.80978],[3.87911,50.80948],[3.87892,50.81023],[3.88007,50.81231],[3.88138,50.81321],[3.88181,50.81431],[3.87783,50.81367],[3.87788,50.812],[3.87319,50.81188],[3.87117,50.81234],[3.87187,50.81385],[3.87252,50.81376],[3.87254,50.81468],[3.86832,50.81437],[3.86791,50.81453],[3.86786,50.81512],[3.86713,50.81508],[3.86695,50.81551],[3.8652,50.81445],[3.86451,50.8145],[3.86346,50.81526],[3.86102,50.81572],[3.86094,50.81621],[3.85948,50.81684],[3.85949,50.81871],[3.86338,50.82053],[3.86504,50.8228],[3.86457,50.82292],[3.86475,50.82346],[3.86377,50.82366],[3.86419,50.82446],[3.86268,50.82477],[3.86419,50.8278],[3.86554,50.82922],[3.86563,50.8299],[3.86497,50.82999],[3.86556,50.83115],[3.86188,50.83178],[3.85933,50.83298],[3.85779,50.83423],[3.85273,50.83526],[3.8503,50.83754],[3.84893,50.83797],[3.84743,50.83824],[3.84294,50.83793],[3.84312,50.83742],[3.84194,50.83824],[3.84135,50.83813],[3.84029,50.83762],[3.83955,50.83513],[3.83912,50.83522],[3.83835,50.83437],[3.83478,50.83251],[3.83389,50.83069],[3.83162,50.82833],[3.83292,50.82729],[3.83272,50.82629],[3.8291,50.82772],[3.82745,50.82774],[3.8278,50.82564],[3.82894,50.82534],[3.8287,50.82471],[3.82726,50.82427],[3.81706,50.82599],[3.81576,50.82544],[3.81256,50.82267],[3.81137,50.82237],[3.80106,50.81557],[3.79892,50.81467],[3.79752,50.81203],[3.79328,50.80879],[3.78957,50.80439],[3.78347,50.80178],[3.78373,50.80005],[3.78549,50.799],[3.786,50.79798],[3.78858,50.79845],[3.79202,50.79815],[3.79385,50.79698],[3.79485,50.79573],[3.79725,50.79484],[3.79962,50.79316],[3.80091,50.79271],[3.80503,50.79253],[3.80726,50.79374],[3.80972,50.79445],[3.8162,50.795],[3.81895,50.79574],[3.819,50.79511],[3.81567,50.79232],[3.81524,50.79165],[3.8154,50.79064],[3.81484,50.78983],[3.81319,50.78887],[3.81418,50.78742],[3.81801,50.78391],[3.81909,50.7836],[3.82196,50.78153],[3.82439,50.7788],[3.82587,50.77892],[3.82633,50.77775],[3.83034,50.77813],[3.83106,50.77701],[3.83474,50.77614],[3.83604,50.77539],[3.84091,50.77601],[3.84483,50.77472]]]]}},{"type":"Feature","properties":{"name":"Geraardsbergen","src":"VRBG"},"geometry":{"type":"MultiPolygon","coordinates":[[[[3.91972,50.72752],[3.92247,50.72968],[3.92525,50.72908],[3.92698,50.72964],[3.93103,50.72976],[3.93427,50.73078],[3.93458,50.73029],[3.93659,50.73082],[3.93763,50.72989],[3.944,50.72907],[3.94389,50.72939],[3.94464,50.72972],[3.94442,50.73023],[3.94484,50.73104],[3.94554,50.73136],[3.94513,50.73193],[3.94544,50.73234],[3.94858,50.73156],[3.951,50.73181],[3.95158,50.73217],[3.95164,50.73273],[3.95254,50.73311],[3.95264,50.73474],[3.95418,50.73748],[3.95104,50.73855],[3.94963,50.73974],[3.94788,50.73998],[3.94806,50.74053],[3.94762,50.74119],[3.94839,50.74149],[3.94851,50.74207],[3.94817,50.74202],[3.94795,50.74222],[3.94832,50.74246],[3.94791,50.74257],[3.94845,50.74302],[3.94777,50.74327],[3.9482,50.74365],[3.94774,50.74404],[3.94612,50.7444],[3.94633,50.74479],[3.9455,50.74544],[3.94716,50.74648],[3.94563,50.74956],[3.94492,50.74972],[3.943,50.74896],[3.94215,50.74901],[3.94116,50.74833],[3.94054,50.7486],[3.93511,50.74645],[3.93466,50.74593],[3.93332,50.74628],[3.93295,50.74679],[3.93251,50.74947],[3.93306,50.75144],[3.9322,50.75283],[3.93334,50.75516],[3.93154,50.75841],[3.93101,50.75841],[3.93701,50.76619],[3.93932,50.76848],[3.93936,50.77031],[3.94193,50.77147],[3.94161,50.77264],[3.94474,50.77387],[3.94425,50.77434],[3.94483,50.7746],[3.94498,50.77404],[3.94585,50.77423],[3.94689,50.77508],[3.94844,50.7756],[3.94828,50.77627],[3.94974,50.77697],[3.95202,50.77697],[3.95655,50.77905],[3.96011,50.77972],[3.96262,50.77717],[3.96345,50.77576],[3.96542,50.77651],[3.96859,50.7765],[3.97208,50.77558],[3.97162,50.77458],[3.9717,50.77157],[3.97087,50.77014],[3.97025,50.76994],[3.96965,50.76908],[3.96857,50.76685],[3.9705,50.76644],[3.97351,50.76721],[3.98538,50.76606],[3.98648,50.76672],[3.98657,50.76724],[3.98805,50.76749],[3.99156,50.7701],[3.99166,50.77108],[3.99265,50.77228],[3.9933,50.77405],[3.99265,50.77438],[3.99354,50.7755],[3.99553,50.77688],[3.996,50.77663],[3.99753,50.77841],[4.00122,50.77942],[4.00204,50.77915],[4.00395,50.77993],[3.99108,50.79031],[3.99074,50.79023],[3.98795,50.79248],[3.98756,50.79235],[3.98546,50.79499],[3.98308,50.79618],[3.98267,50.7971],[3.9797,50.79856],[3.97945,50.79935],[3.97835,50.80041],[3.97847,50.80112],[3.97501,50.80219],[3.97109,50.80431],[3.97037,50.80409],[3.96836,50.80511],[3.96926,50.80551],[3.96841,50.806],[3.9688,50.80664],[3.96732,50.80835],[3.96602,50.80774],[3.96684,50.80754],[3.96264,50.80664],[3.9625,50.80715],[3.96033,50.80737],[3.95702,50.80941],[3.95619,50.81066],[3.95477,50.81023],[3.95484,50.80906],[3.95373,50.80879],[3.95362,50.81154],[3.95247,50.81354],[3.95301,50.81375],[3.95,50.81648],[3.9509,50.81695],[3.95025,50.81744],[3.94926,50.81689],[3.9488,50.81721],[3.94919,50.81744],[3.94848,50.81795],[3.94806,50.81771],[3.94715,50.81815],[3.94543,50.81709],[3.94566,50.81668],[3.94455,50.81624],[3.94533,50.81536],[3.94437,50.81516],[3.94444,50.81488],[3.94593,50.81196],[3.94398,50.8129],[3.94252,50.81267],[3.94214,50.8139],[3.93968,50.81709],[3.93906,50.81852],[3.93762,50.81924],[3.93636,50.81895],[3.93623,50.81951],[3.93466,50.82083],[3.9341,50.82237],[3.93119,50.82214],[3.93046,50.8236],[3.92898,50.82332],[3.92863,50.8241],[3.92744,50.82388],[3.92713,50.82579],[3.92656,50.82569],[3.92442,50.82856],[3.92116,50.82808],[3.92288,50.82542],[3.91668,50.82416],[3.91644,50.82405],[3.91681,50.82333],[3.9161,50.82308],[3.91517,50.82376],[3.91464,50.82355],[3.91402,50.82416],[3.91369,50.82399],[3.91397,50.82374],[3.91127,50.82233],[3.91049,50.82199],[3.91031,50.82228],[3.90913,50.82163],[3.90896,50.82215],[3.90851,50.82201],[3.90654,50.82359],[3.90581,50.82314],[3.9052,50.82363],[3.90595,50.82525],[3.90544,50.82758],[3.90384,50.8292],[3.90325,50.82889],[3.90255,50.82957],[3.90489,50.83023],[3.90198,50.83233],[3.89872,50.83545],[3.8956,50.83698],[3.89226,50.83313],[3.88845,50.83162],[3.88653,50.83259],[3.88582,50.83221],[3.88037,50.83222],[3.87708,50.83131],[3.87145,50.83128],[3.86922,50.83054],[3.86556,50.83115],[3.86497,50.82999],[3.86563,50.8299],[3.86554,50.82922],[3.86419,50.8278],[3.86268,50.82477],[3.86419,50.82446],[3.86377,50.82366],[3.86475,50.82346],[3.86457,50.82292],[3.86504,50.8228],[3.86338,50.82053],[3.85949,50.81871],[3.85948,50.81684],[3.86094,50.81621],[3.86102,50.81572],[3.86346,50.81526],[3.86451,50.8145],[3.8652,50.81445],[3.86695,50.81551],[3.86713,50.81508],[3.86786,50.81512],[3.86791,50.81453],[3.86832,50.81437],[3.87254,50.81468],[3.87252,50.81376],[3.87187,50.81385],[3.87117,50.81234],[3.87319,50.81188],[3.87788,50.812],[3.87783,50.81367],[3.88181,50.81431],[3.88138,50.81321],[3.88007,50.81231],[3.87892,50.81023],[3.87911,50.80948],[3.88093,50.80978],[3.88144,50.80921],[3.88173,50.80845],[3.88041,50.80805],[3.88083,50.80627],[3.87773,50.80592],[3.8777,50.80537],[3.87714,50.80522],[3.87233,50.80487],[3.87245,50.80034],[3.87286,50.79986],[3.86972,50.79537],[3.86668,50.79316],[3.86493,50.79266],[3.86562,50.79171],[3.86521,50.79159],[3.86568,50.79092],[3.86505,50.7907],[3.86659,50.78778],[3.86899,50.7878],[3.87023,50.78682],[3.86829,50.78497],[3.8643,50.78372],[3.85994,50.78388],[3.85655,50.7832],[3.85583,50.78275],[3.85781,50.782],[3.85471,50.78082],[3.85101,50.77853],[3.8485,50.77775],[3.84483,50.77472],[3.84091,50.77601],[3.83604,50.77539],[3.83474,50.77614],[3.83106,50.77701],[3.83034,50.77813],[3.82633,50.77775],[3.82587,50.77892],[3.82439,50.7788],[3.82196,50.78153],[3.81909,50.7836],[3.81801,50.78391],[3.81441,50.7874],[3.81326,50.78714],[3.81434,50.7843],[3.81531,50.78357],[3.81701,50.78389],[3.81766,50.7832],[3.81816,50.78333],[3.8198,50.78113],[3.8181,50.78037],[3.81693,50.7814],[3.81439,50.78021],[3.81071,50.78325],[3.80967,50.78274],[3.80803,50.78313],[3.80789,50.78226],[3.80687,50.7812],[3.80363,50.77905],[3.80441,50.77864],[3.80628,50.77582],[3.80875,50.77641],[3.80908,50.77529],[3.81029,50.77483],[3.80994,50.77445],[3.81178,50.77417],[3.8141,50.77219],[3.81437,50.77117],[3.81247,50.7713],[3.81233,50.77091],[3.81033,50.77053],[3.81259,50.7687],[3.81363,50.76914],[3.81683,50.76628],[3.81684,50.76567],[3.8159,50.76542],[3.81663,50.76474],[3.81619,50.76453],[3.81991,50.76165],[3.8164,50.76079],[3.81082,50.75817],[3.81301,50.7564],[3.81569,50.75297],[3.81599,50.75129],[3.81544,50.75077],[3.8163,50.74954],[3.81696,50.74652],[3.81884,50.74468],[3.82116,50.74479],[3.82451,50.74431],[3.82785,50.74312],[3.82895,50.74222],[3.8349,50.74335],[3.83847,50.74143],[3.84007,50.74234],[3.84383,50.74556],[3.84834,50.74616],[3.85172,50.74881],[3.85556,50.74737],[3.85545,50.74878],[3.85597,50.74916],[3.85691,50.74755],[3.85814,50.74761],[3.85853,50.74825],[3.85721,50.75047],[3.85763,50.75163],[3.85843,50.75128],[3.85938,50.74938],[3.85997,50.7494],[3.86062,50.75048],[3.86138,50.75088],[3.86213,50.74982],[3.86632,50.74792],[3.86735,50.74913],[3.87053,50.74801],[3.8729,50.74938],[3.87669,50.7497],[3.8798,50.75145],[3.88393,50.75047],[3.88745,50.74849],[3.89024,50.74546],[3.88953,50.74407],[3.89071,50.7437],[3.89157,50.74283],[3.89295,50.74255],[3.89425,50.74135],[3.89402,50.74112],[3.89442,50.74039],[3.89505,50.74056],[3.89699,50.73844],[3.89767,50.7385],[3.89909,50.73715],[3.89256,50.73507],[3.89384,50.73345],[3.90355,50.73119],[3.90601,50.72905],[3.90897,50.73027],[3.90999,50.72911],[3.91092,50.73004],[3.91028,50.73059],[3.91319,50.73291],[3.91384,50.7315],[3.91535,50.72982],[3.91972,50.72752]]]]}},{"type":"Feature","properties":{"name":"Kluisbergen","src":"VRBG"},"geometry":{"type":"MultiPolygon","coordinates":[[[[3.4969,50.75757],[3.501,50.75898],[3.50909,50.75877],[3.51053,50.75955],[3.51269,50.75964],[3.51574,50.76055],[3.51983,50.76114],[3.52305,50.76287],[3.52699,50.76385],[3.53358,50.76482],[3.53899,50.76421],[3.54067,50.7629],[3.54622,50.76434],[3.54903,50.76424],[3.55222,50.76348],[3.55696,50.76369],[3.55768,50.76324],[3.56478,50.76268],[3.567,50.76142],[3.56937,50.76108],[3.57424,50.75917],[3.57644,50.75974],[3.57768,50.76139],[3.58141,50.76326],[3.58476,50.76466],[3.58713,50.76485],[3.58781,50.76561],[3.58728,50.76665],[3.58518,50.76806],[3.58448,50.76923],[3.58447,50.77178],[3.58395,50.77363],[3.58235,50.77469],[3.58206,50.77605],[3.58083,50.77705],[3.57898,50.78084],[3.57811,50.78171],[3.57988,50.78338],[3.58049,50.7835],[3.57837,50.78553],[3.57819,50.78656],[3.57868,50.78719],[3.58029,50.78775],[3.58182,50.78716],[3.58453,50.78905],[3.58425,50.78978],[3.58025,50.79045],[3.58148,50.79263],[3.58376,50.79403],[3.58136,50.79451],[3.57921,50.79413],[3.57889,50.7945],[3.57955,50.79483],[3.57905,50.79548],[3.5802,50.79546],[3.58173,50.79661],[3.58306,50.79689],[3.58188,50.79833],[3.58274,50.79885],[3.57824,50.80128],[3.5763,50.80103],[3.57559,50.80017],[3.5721,50.79814],[3.57026,50.79442],[3.57034,50.79247],[3.56992,50.79176],[3.56923,50.79154],[3.56894,50.79099],[3.56552,50.7901],[3.56405,50.79012],[3.56179,50.7905],[3.56165,50.792],[3.55892,50.79622],[3.55629,50.79858],[3.55633,50.80012],[3.55305,50.80043],[3.55363,50.80139],[3.55078,50.8033],[3.5456,50.80871],[3.54338,50.80893],[3.5425,50.81066],[3.54109,50.81129],[3.53005,50.80882],[3.5268,50.8076],[3.52431,50.80611],[3.52235,50.80437],[3.52088,50.80231],[3.51923,50.79853],[3.5166,50.79609],[3.5145,50.79506],[3.51183,50.79436],[3.50277,50.79369],[3.49766,50.79194],[3.48791,50.7853],[3.48437,50.78068],[3.48246,50.77896],[3.48061,50.77789],[3.47442,50.77566],[3.46875,50.77163],[3.46404,50.76888],[3.45905,50.76463],[3.45999,50.76388],[3.4593,50.76215],[3.45964,50.76185],[3.46667,50.76475],[3.46935,50.76283],[3.47517,50.76098],[3.47837,50.76286],[3.47881,50.76226],[3.48122,50.76139],[3.47812,50.75993],[3.47791,50.75942],[3.47831,50.75912],[3.48062,50.75877],[3.48281,50.75915],[3.48836,50.75874],[3.49219,50.75774],[3.4969,50.75757]]]]}},{"type":"Feature","properties":{"name":"Kruisem","src":"VRBG"},"geometry":{"type":"MultiPolygon","coordinates":[[[[3.50152,50.86981],[3.50492,50.87053],[3.50532,50.87105],[3.50445,50.87175],[3.5055,50.87256],[3.50748,50.87295],[3.50715,50.87314],[3.5084,50.87368],[3.52216,50.87388],[3.52446,50.87546],[3.52767,50.87639],[3.53054,50.87519],[3.53133,50.87688],[3.53239,50.87748],[3.52837,50.88146],[3.5295,50.8853],[3.53104,50.88654],[3.53267,50.8867],[3.53534,50.88585],[3.53771,50.88374],[3.54235,50.88135],[3.54323,50.87949],[3.55485,50.88112],[3.55605,50.88164],[3.55582,50.88208],[3.55809,50.88261],[3.56091,50.88398],[3.56247,50.8836],[3.56389,50.88382],[3.56485,50.88238],[3.56627,50.88279],[3.56668,50.88182],[3.56961,50.8783],[3.57135,50.87848],[3.57816,50.8809],[3.58079,50.88236],[3.586,50.88437],[3.59214,50.88629],[3.59237,50.88724],[3.59406,50.88892],[3.59795,50.88985],[3.59677,50.89179],[3.59482,50.89386],[3.59646,50.89445],[3.59506,50.89557],[3.59535,50.89572],[3.60185,50.89722],[3.60383,50.89735],[3.60387,50.89685],[3.60718,50.89652],[3.61184,50.89712],[3.61649,50.89841],[3.61792,50.89949],[3.62114,50.90093],[3.62391,50.90032],[3.62719,50.90076],[3.62948,50.90262],[3.62854,50.90353],[3.63109,50.90388],[3.63168,50.90324],[3.63093,50.90292],[3.63142,50.90229],[3.63129,50.90114],[3.63024,50.90035],[3.63499,50.89948],[3.63656,50.89827],[3.63882,50.89833],[3.64031,50.8978],[3.63962,50.8969],[3.64264,50.89602],[3.64336,50.89622],[3.64324,50.89595],[3.64569,50.8952],[3.64444,50.89376],[3.64451,50.8933],[3.64211,50.89168],[3.64362,50.89004],[3.64268,50.88871],[3.64866,50.8879],[3.64864,50.88729],[3.65106,50.88624],[3.65972,50.88632],[3.66553,50.88788],[3.66722,50.88909],[3.66928,50.88979],[3.67658,50.89146],[3.6796,50.89297],[3.68169,50.89487],[3.68553,50.89951],[3.6867,50.90251],[3.68652,50.90536],[3.6854,50.90811],[3.68207,50.91153],[3.67922,50.91299],[3.67308,50.9145],[3.67175,50.91377],[3.6724,50.91335],[3.67059,50.91266],[3.66985,50.91338],[3.66628,50.91233],[3.66303,50.91083],[3.66345,50.91049],[3.66201,50.91046],[3.66202,50.90983],[3.6613,50.90985],[3.66126,50.90934],[3.65533,50.90915],[3.65513,50.90881],[3.65431,50.90892],[3.65422,50.90853],[3.65256,50.90883],[3.6521,50.90858],[3.6517,50.9089],[3.65003,50.90801],[3.64892,50.90899],[3.64839,50.90852],[3.64654,50.90925],[3.64515,50.90909],[3.6415,50.91181],[3.64104,50.91276],[3.64151,50.91385],[3.6413,50.91512],[3.6418,50.91618],[3.62396,50.92012],[3.62598,50.92411],[3.63152,50.92356],[3.63236,50.92485],[3.63177,50.92533],[3.62513,50.92925],[3.61369,50.93417],[3.60661,50.93644],[3.59776,50.9401],[3.59406,50.93835],[3.59093,50.93544],[3.58814,50.93177],[3.58463,50.93185],[3.58293,50.93485],[3.58173,50.93441],[3.58121,50.93513],[3.57975,50.93477],[3.57887,50.93363],[3.57348,50.93364],[3.57032,50.93588],[3.56821,50.93516],[3.56347,50.9356],[3.55372,50.93844],[3.55228,50.93808],[3.5516,50.93913],[3.54922,50.94088],[3.54692,50.94053],[3.54261,50.94524],[3.53855,50.94583],[3.54128,50.95038],[3.54181,50.95293],[3.54139,50.95301],[3.54037,50.95142],[3.53947,50.95158],[3.53845,50.95074],[3.53698,50.94846],[3.53115,50.94773],[3.52893,50.94822],[3.51933,50.94646],[3.51733,50.94514],[3.51622,50.94351],[3.51147,50.93892],[3.51181,50.93871],[3.50917,50.93568],[3.5067,50.93434],[3.50458,50.93383],[3.50207,50.92992],[3.49458,50.92529],[3.48912,50.9184],[3.48447,50.91353],[3.4794,50.91025],[3.4778,50.90986],[3.47646,50.90784],[3.47335,50.90535],[3.46884,50.90507],[3.46673,50.90207],[3.4693,50.90042],[3.47119,50.90004],[3.47085,50.89894],[3.47122,50.89796],[3.47188,50.89751],[3.47648,50.89569],[3.47396,50.89453],[3.47507,50.89394],[3.47056,50.88938],[3.47401,50.88553],[3.47472,50.88283],[3.47345,50.8821],[3.47091,50.87826],[3.47194,50.87835],[3.47196,50.87713],[3.47496,50.87747],[3.47773,50.87724],[3.47778,50.87779],[3.48491,50.87741],[3.48684,50.87982],[3.48899,50.87997],[3.48941,50.87979],[3.48917,50.87943],[3.48973,50.87884],[3.49059,50.87895],[3.49176,50.87827],[3.49085,50.87693],[3.49271,50.87522],[3.49462,50.87546],[3.49659,50.87391],[3.49711,50.87431],[3.4982,50.87406],[3.49754,50.87354],[3.49804,50.87324],[3.49756,50.8729],[3.49884,50.87245],[3.50011,50.87275],[3.50004,50.872],[3.50072,50.8713],[3.50081,50.87039],[3.50152,50.86981]]]]}},{"type":"Feature","properties":{"name":"Horebeke","src":"VRBG"},"geometry":{"type":"MultiPolygon","coordinates":[[[[3.68769,50.7984],[3.68956,50.80009],[3.69034,50.79983],[3.69107,50.80032],[3.69182,50.80153],[3.6944,50.80072],[3.69473,50.80164],[3.6937,50.80379],[3.69358,50.80523],[3.69187,50.80704],[3.68832,50.8091],[3.68804,50.81079],[3.69008,50.81137],[3.6945,50.80993],[3.6953,50.81078],[3.69698,50.81092],[3.6983,50.81185],[3.69917,50.81144],[3.70361,50.81427],[3.70295,50.81464],[3.70651,50.81623],[3.70599,50.81784],[3.70625,50.81837],[3.70567,50.81887],[3.70646,50.81952],[3.70517,50.81947],[3.70814,50.82125],[3.70607,50.823],[3.70933,50.8257],[3.71113,50.82656],[3.7102,50.82747],[3.71175,50.82817],[3.70789,50.83163],[3.70615,50.83217],[3.709,50.83349],[3.70749,50.83472],[3.71349,50.83676],[3.71401,50.83748],[3.71469,50.83764],[3.71454,50.83788],[3.71609,50.8397],[3.71429,50.84207],[3.71464,50.8429],[3.71467,50.84628],[3.71557,50.84732],[3.71431,50.84848],[3.71217,50.8486],[3.7098,50.84999],[3.71083,50.85106],[3.70823,50.85251],[3.70791,50.85295],[3.70815,50.85364],[3.70407,50.85487],[3.70179,50.85722],[3.69913,50.8585],[3.69695,50.86106],[3.69766,50.86164],[3.69746,50.86229],[3.69627,50.86135],[3.69156,50.85932],[3.68617,50.85626],[3.68505,50.8555],[3.68612,50.85474],[3.68284,50.85242],[3.68546,50.8507],[3.68473,50.85008],[3.68654,50.84921],[3.6862,50.84898],[3.68651,50.84876],[3.68514,50.84787],[3.68543,50.84764],[3.68526,50.84676],[3.68258,50.84202],[3.68294,50.83964],[3.68083,50.83641],[3.67821,50.83621],[3.67872,50.83553],[3.67757,50.83501],[3.67861,50.83377],[3.67889,50.83216],[3.68006,50.83156],[3.67945,50.83],[3.68286,50.82816],[3.68091,50.82671],[3.68092,50.82612],[3.68176,50.82516],[3.67862,50.82362],[3.67577,50.82307],[3.6739,50.822],[3.67289,50.82194],[3.67225,50.82124],[3.6722,50.82071],[3.67393,50.82007],[3.67499,50.81876],[3.67493,50.81833],[3.67301,50.81746],[3.67347,50.81612],[3.67555,50.81627],[3.676,50.81601],[3.67661,50.81453],[3.67917,50.81358],[3.68006,50.81261],[3.68096,50.81259],[3.68357,50.81152],[3.68343,50.81111],[3.68463,50.81007],[3.68497,50.80919],[3.6832,50.80727],[3.68192,50.80646],[3.68038,50.80657],[3.67937,50.80527],[3.68018,50.8044],[3.68308,50.80361],[3.68412,50.80451],[3.68319,50.80488],[3.68384,50.80566],[3.68732,50.80505],[3.68632,50.80377],[3.68674,50.80364],[3.68561,50.80267],[3.68317,50.80357],[3.68273,50.80306],[3.68383,50.8027],[3.68247,50.80118],[3.68381,50.79999],[3.68769,50.7984]]]]}},{"type":"Feature","properties":{"name":"Maarkedal","src":"VRBG"},"geometry":{"type":"MultiPolygon","coordinates":[[[[3.58745,50.76483],[3.59254,50.76635],[3.59793,50.76735],[3.60095,50.76747],[3.60552,50.76628],[3.60881,50.76608],[3.61154,50.76655],[3.61791,50.76674],[3.62255,50.76866],[3.62523,50.76739],[3.63099,50.76757],[3.63113,50.7683],[3.63213,50.76947],[3.63473,50.77097],[3.64071,50.77175],[3.64139,50.77176],[3.64268,50.77071],[3.64452,50.77043],[3.64497,50.7698],[3.64725,50.76895],[3.6488,50.77148],[3.65147,50.77375],[3.6536,50.77475],[3.65486,50.77618],[3.6545,50.77714],[3.65486,50.77778],[3.65436,50.7785],[3.65462,50.7786],[3.65413,50.77949],[3.65441,50.78023],[3.65406,50.78095],[3.65185,50.78123],[3.6532,50.78417],[3.65441,50.78421],[3.65443,50.78373],[3.65532,50.7836],[3.65482,50.78251],[3.65595,50.78235],[3.65713,50.78147],[3.65839,50.77872],[3.65938,50.77779],[3.66015,50.77741],[3.6609,50.77794],[3.66345,50.77623],[3.66224,50.77421],[3.66333,50.77396],[3.66863,50.7704],[3.67026,50.77166],[3.67218,50.77064],[3.67287,50.77084],[3.6743,50.7702],[3.67447,50.7708],[3.67664,50.77105],[3.67751,50.7707],[3.67822,50.77229],[3.68014,50.77131],[3.68243,50.77275],[3.68479,50.77098],[3.68854,50.77353],[3.68896,50.7747],[3.69121,50.77432],[3.6943,50.77482],[3.69708,50.77344],[3.69789,50.77442],[3.70367,50.77786],[3.70465,50.77882],[3.71117,50.78237],[3.71206,50.7825],[3.71047,50.78522],[3.71131,50.78549],[3.70946,50.78656],[3.70378,50.78567],[3.70356,50.78651],[3.7026,50.78696],[3.70503,50.78844],[3.70595,50.7895],[3.71038,50.79067],[3.70894,50.79206],[3.70958,50.79216],[3.70982,50.79419],[3.71034,50.79495],[3.70715,50.79589],[3.70539,50.79576],[3.70472,50.79685],[3.70432,50.79682],[3.70511,50.805],[3.70217,50.80693],[3.701,50.81084],[3.6983,50.81185],[3.69698,50.81092],[3.6953,50.81078],[3.6945,50.80993],[3.69008,50.81137],[3.68804,50.81079],[3.68832,50.8091],[3.69187,50.80704],[3.69358,50.80523],[3.6937,50.80379],[3.69473,50.8018],[3.6944,50.80072],[3.69182,50.80153],[3.69107,50.80032],[3.69034,50.79983],[3.68956,50.80009],[3.68769,50.7984],[3.68358,50.80015],[3.68247,50.80118],[3.68383,50.8027],[3.68273,50.80306],[3.68317,50.80357],[3.68561,50.80267],[3.68674,50.80364],[3.68632,50.80377],[3.68732,50.80505],[3.68384,50.80566],[3.68319,50.80488],[3.68412,50.80451],[3.68308,50.80361],[3.68018,50.8044],[3.67937,50.80527],[3.68038,50.80657],[3.68185,50.80645],[3.68263,50.8068],[3.68497,50.80919],[3.68463,50.81007],[3.68343,50.81111],[3.68357,50.81152],[3.68096,50.81259],[3.68006,50.81261],[3.67917,50.81358],[3.67675,50.81445],[3.67555,50.81627],[3.67347,50.81612],[3.67301,50.81746],[3.67493,50.81833],[3.67499,50.81876],[3.67393,50.82007],[3.6722,50.82071],[3.67247,50.82152],[3.67089,50.82134],[3.67097,50.82205],[3.66972,50.82279],[3.66831,50.8251],[3.66575,50.82593],[3.6639,50.82603],[3.66001,50.82938],[3.65885,50.82976],[3.64773,50.83004],[3.64751,50.82694],[3.64272,50.82687],[3.64239,50.82762],[3.63894,50.82759],[3.63443,50.82874],[3.63319,50.82835],[3.63345,50.82728],[3.63018,50.82679],[3.63037,50.82214],[3.62848,50.81905],[3.62756,50.81912],[3.62771,50.81994],[3.6258,50.82005],[3.62675,50.82174],[3.62475,50.82197],[3.62477,50.82144],[3.62401,50.8206],[3.62227,50.81958],[3.62193,50.82034],[3.62136,50.82055],[3.62144,50.82092],[3.6208,50.82113],[3.6211,50.82134],[3.62066,50.82177],[3.61951,50.82219],[3.6196,50.82269],[3.6181,50.82286],[3.61747,50.82227],[3.61579,50.82253],[3.61318,50.82487],[3.61124,50.8255],[3.60713,50.82289],[3.60631,50.822],[3.59899,50.818],[3.59876,50.81661],[3.59746,50.81642],[3.59608,50.81504],[3.59733,50.81466],[3.59806,50.81511],[3.59843,50.81436],[3.59808,50.81384],[3.59915,50.81311],[3.59744,50.81353],[3.59644,50.81285],[3.60265,50.80955],[3.6004,50.80961],[3.59687,50.80548],[3.59642,50.80638],[3.59536,50.80597],[3.5909,50.80661],[3.59042,50.80622],[3.59057,50.8054],[3.58967,50.80498],[3.58592,50.80465],[3.58463,50.80359],[3.58176,50.80332],[3.58011,50.80226],[3.58351,50.80046],[3.58167,50.79933],[3.58274,50.79885],[3.58188,50.79833],[3.58307,50.7969],[3.58173,50.79661],[3.5802,50.79546],[3.57905,50.79548],[3.57955,50.79483],[3.57889,50.7945],[3.57921,50.79413],[3.58136,50.79451],[3.58376,50.79403],[3.58148,50.79263],[3.58025,50.79045],[3.58425,50.78978],[3.58453,50.78905],[3.58182,50.78716],[3.58029,50.78775],[3.57868,50.78719],[3.57819,50.78656],[3.57837,50.78553],[3.58049,50.7835],[3.57988,50.78338],[3.57811,50.78171],[3.57898,50.78084],[3.58083,50.77705],[3.58206,50.77605],[3.58235,50.77469],[3.58395,50.77363],[3.58447,50.77178],[3.58448,50.76923],[3.58518,50.76806],[3.58728,50.76665],[3.58781,50.76561],[3.58713,50.76485],[3.58745,50.76483]]]]}},{"type":"Feature","properties":{"name":"Ronse","src":"VRBG"},"geometry":{"type":"MultiPolygon","coordinates":[[[[3.63076,50.72101],[3.6333,50.72219],[3.64038,50.7223],[3.64124,50.72357],[3.64167,50.73231],[3.64294,50.73585],[3.64275,50.7373],[3.64227,50.73783],[3.65896,50.74687],[3.65876,50.74886],[3.66037,50.75082],[3.66,50.75362],[3.65949,50.75376],[3.65986,50.75436],[3.66393,50.75407],[3.66655,50.75444],[3.6731,50.75872],[3.67243,50.75917],[3.67355,50.76047],[3.67121,50.76101],[3.67233,50.76146],[3.66949,50.76396],[3.67737,50.76702],[3.67503,50.76868],[3.6776,50.7707],[3.67664,50.77105],[3.67447,50.7708],[3.6743,50.7702],[3.67287,50.77084],[3.67218,50.77064],[3.67026,50.77166],[3.66863,50.7704],[3.66333,50.77396],[3.66224,50.77421],[3.66345,50.77623],[3.6609,50.77794],[3.6601,50.77741],[3.65901,50.77811],[3.65713,50.78147],[3.65595,50.78235],[3.65482,50.78251],[3.65538,50.78344],[3.65443,50.78373],[3.65441,50.78421],[3.6532,50.78417],[3.65185,50.78123],[3.65406,50.78095],[3.65441,50.78023],[3.65413,50.77949],[3.65462,50.7786],[3.65436,50.7785],[3.65486,50.77778],[3.6545,50.77714],[3.65486,50.77618],[3.6536,50.77475],[3.65147,50.77375],[3.6488,50.77148],[3.64725,50.76895],[3.64497,50.7698],[3.64452,50.77043],[3.64268,50.77071],[3.64139,50.77176],[3.64071,50.77175],[3.63473,50.77097],[3.63213,50.76947],[3.63113,50.7683],[3.63099,50.76757],[3.62523,50.76739],[3.62255,50.76866],[3.61791,50.76674],[3.61154,50.76655],[3.60881,50.76608],[3.60552,50.76628],[3.60095,50.76747],[3.5967,50.76723],[3.59161,50.76611],[3.58873,50.765],[3.58476,50.76466],[3.57809,50.76164],[3.57644,50.75974],[3.57424,50.75917],[3.56937,50.76108],[3.567,50.76142],[3.56478,50.76268],[3.55768,50.76324],[3.55696,50.76369],[3.55222,50.76348],[3.54903,50.76424],[3.54622,50.76434],[3.54067,50.7629],[3.5379,50.75939],[3.53857,50.7574],[3.54779,50.7472],[3.54581,50.74677],[3.54638,50.74515],[3.54637,50.74327],[3.54481,50.73911],[3.54517,50.7384],[3.54363,50.73781],[3.54047,50.73435],[3.54143,50.73369],[3.54114,50.73311],[3.54154,50.73285],[3.54477,50.73243],[3.54856,50.73273],[3.55098,50.73334],[3.55132,50.73408],[3.5553,50.73473],[3.55877,50.73422],[3.56088,50.73262],[3.56338,50.72979],[3.56448,50.73001],[3.56596,50.72881],[3.5682,50.72813],[3.57372,50.72959],[3.57586,50.72954],[3.57777,50.73029],[3.58139,50.72963],[3.58443,50.72988],[3.58631,50.72902],[3.58815,50.72891],[3.59228,50.72986],[3.59805,50.73242],[3.60354,50.73178],[3.60638,50.73229],[3.60802,50.7318],[3.61027,50.73227],[3.6122,50.73109],[3.61425,50.73061],[3.61463,50.72982],[3.61411,50.72936],[3.61499,50.72764],[3.6189,50.72554],[3.62037,50.724],[3.62195,50.72379],[3.62361,50.72252],[3.62591,50.72211],[3.62699,50.72243],[3.62885,50.72145],[3.63076,50.72101]]]]}},{"type":"Feature","properties":{"name":"Flobecq","src":"OSM"},"geometry":{"type":"MultiPolygon","coordinates":[[[[3.77568,50.74789],[3.77221,50.75223],[3.77221,50.75277],[3.77316,50.75318],[3.77316,50.75407],[3.77065,50.75467],[3.77088,50.75566],[3.76845,50.7573],[3.76868,50.75785],[3.76686,50.75882],[3.76576,50.75878],[3.76404,50.76044],[3.76116,50.76153],[3.76011,50.76258],[3.75996,50.76494],[3.7583,50.76708],[3.75852,50.76811],[3.75314,50.77155],[3.75368,50.77341],[3.75564,50.77494],[3.75746,50.77532],[3.75861,50.77673],[3.75933,50.77877],[3.75857,50.78045],[3.75664,50.77917],[3.75283,50.77808],[3.74846,50.77436],[3.7443,50.775],[3.74366,50.77461],[3.74203,50.77475],[3.7401,50.77256],[3.73793,50.77147],[3.73818,50.77024],[3.73613,50.7706],[3.73248,50.77052],[3.73126,50.77141],[3.72168,50.76959],[3.71687,50.7681],[3.71436,50.76791],[3.71153,50.77056],[3.71459,50.77309],[3.71163,50.77433],[3.70983,50.77395],[3.70904,50.7747],[3.71051,50.77809],[3.713,50.77972],[3.71331,50.78035],[3.71017,50.78187],[3.70468,50.77885],[3.69768,50.7743],[3.69718,50.77346],[3.69614,50.77365],[3.69428,50.77485],[3.69141,50.77431],[3.68874,50.77468],[3.68853,50.77348],[3.69044,50.77134],[3.69095,50.76971],[3.68986,50.7678],[3.68961,50.76607],[3.68581,50.76351],[3.68791,50.76306],[3.69081,50.76171],[3.691,50.76121],[3.69011,50.75999],[3.69013,50.75766],[3.69193,50.756],[3.69212,50.75535],[3.69115,50.75337],[3.6917,50.75194],[3.69528,50.75013],[3.69535,50.74897],[3.69437,50.7469],[3.69517,50.74478],[3.69861,50.74341],[3.70142,50.74003],[3.70496,50.73761],[3.71008,50.73541],[3.714,50.73626],[3.71632,50.73573],[3.71725,50.7349],[3.72046,50.73423],[3.72219,50.7342],[3.72241,50.73473],[3.72753,50.73472],[3.73203,50.73332],[3.7338,50.73218],[3.74271,50.72969],[3.74512,50.72931],[3.74813,50.73248],[3.7479,50.73263],[3.74942,50.73349],[3.75243,50.73397],[3.75664,50.73636],[3.75912,50.73384],[3.76048,50.73471],[3.76191,50.73411],[3.76412,50.73434],[3.76543,50.73345],[3.76899,50.73214],[3.7708,50.73205],[3.77269,50.73139],[3.77126,50.73527],[3.77442,50.73652],[3.77714,50.73955],[3.77672,50.7396],[3.77694,50.74045],[3.77653,50.7428],[3.77381,50.745],[3.77333,50.74626],[3.77395,50.74712],[3.77568,50.74789]]]]}},{"type":"Feature","properties":{"name":"Lessines","src":"OSM"},"geometry":{"type":"MultiPolygon","coordinates":[[[[3.75795,50.69576],[3.76241,50.68884],[3.76851,50.69035],[3.76744,50.69153],[3.76767,50.69274],[3.77128,50.69466],[3.77348,50.69364],[3.77427,50.69184],[3.77515,50.69159],[3.77669,50.69213],[3.77783,50.69187],[3.77902,50.6924],[3.78343,50.68896],[3.78458,50.68925],[3.78594,50.68834],[3.78679,50.68857],[3.78848,50.68677],[3.7923,50.68383],[3.79509,50.68257],[3.79484,50.68154],[3.79402,50.68106],[3.79546,50.67968],[3.79617,50.67989],[3.79718,50.67915],[3.79679,50.67853],[3.79896,50.67791],[3.79955,50.67811],[3.80029,50.6795],[3.80145,50.68056],[3.80342,50.67847],[3.80769,50.67626],[3.80888,50.67669],[3.81018,50.67635],[3.81083,50.67675],[3.81444,50.67484],[3.81585,50.67509],[3.81794,50.67633],[3.81998,50.67651],[3.8215,50.67878],[3.82368,50.68035],[3.82467,50.68167],[3.82661,50.68232],[3.82794,50.68153],[3.82882,50.68205],[3.83074,50.68127],[3.83252,50.68309],[3.83264,50.68381],[3.83888,50.68009],[3.83798,50.67934],[3.83827,50.67878],[3.83785,50.67811],[3.83863,50.67711],[3.83997,50.67632],[3.84322,50.67535],[3.8427,50.67365],[3.84387,50.67339],[3.84512,50.67366],[3.84916,50.67188],[3.85548,50.67082],[3.85545,50.67028],[3.85814,50.6694],[3.86085,50.67093],[3.86308,50.67163],[3.8698,50.67276],[3.86946,50.67292],[3.87302,50.67592],[3.87613,50.67522],[3.8813,50.67601],[3.88186,50.67563],[3.88621,50.67721],[3.88746,50.67804],[3.88808,50.68009],[3.8874,50.68133],[3.89082,50.68083],[3.89339,50.68264],[3.8935,50.68436],[3.89599,50.68444],[3.9,50.68604],[3.90068,50.68596],[3.89957,50.68695],[3.9057,50.68776],[3.90683,50.68832],[3.9072,50.68922],[3.90903,50.6909],[3.90923,50.69234],[3.9097,50.69245],[3.91097,50.69583],[3.91346,50.69874],[3.9113,50.69968],[3.90933,50.70195],[3.90781,50.70244],[3.90555,50.70455],[3.9036,50.70537],[3.90392,50.70658],[3.90276,50.70666],[3.90158,50.708],[3.90159,50.71099],[3.89719,50.70913],[3.89535,50.71074],[3.89264,50.70973],[3.89019,50.70998],[3.88932,50.71155],[3.88932,50.71279],[3.88992,50.71333],[3.88983,50.71511],[3.89196,50.71776],[3.89238,50.72031],[3.89471,50.72389],[3.89497,50.72659],[3.89656,50.7275],[3.89696,50.72917],[3.89388,50.72989],[3.89567,50.73301],[3.89387,50.73343],[3.89254,50.73506],[3.89908,50.73713],[3.89767,50.73851],[3.89703,50.73843],[3.89507,50.74055],[3.89442,50.74041],[3.89422,50.74128],[3.89295,50.74251],[3.88947,50.74408],[3.8903,50.74546],[3.88971,50.74565],[3.88745,50.74847],[3.88559,50.74968],[3.8798,50.75146],[3.87677,50.74971],[3.87293,50.74938],[3.87053,50.748],[3.86728,50.74918],[3.86633,50.74794],[3.86213,50.74982],[3.86144,50.75091],[3.86072,50.75058],[3.86003,50.74945],[3.85938,50.74939],[3.85839,50.75119],[3.8577,50.75161],[3.85745,50.75015],[3.85869,50.74832],[3.85818,50.74768],[3.8569,50.74749],[3.85587,50.74934],[3.85539,50.74856],[3.85565,50.74747],[3.85173,50.74882],[3.84834,50.74617],[3.84388,50.74556],[3.84012,50.74231],[3.83836,50.74138],[3.83495,50.74336],[3.82897,50.74223],[3.82776,50.74316],[3.82436,50.74433],[3.82115,50.74481],[3.8188,50.74467],[3.81703,50.74636],[3.81614,50.74998],[3.81547,50.75071],[3.8135,50.74983],[3.81071,50.75036],[3.8006,50.74998],[3.79605,50.74952],[3.79241,50.74866],[3.78868,50.74863],[3.78608,50.74791],[3.78254,50.74901],[3.77971,50.74831],[3.77802,50.74744],[3.77668,50.74835],[3.77395,50.74712],[3.77333,50.74626],[3.77381,50.745],[3.77653,50.7428],[3.77694,50.74045],[3.77672,50.7396],[3.77714,50.73955],[3.77442,50.73652],[3.77126,50.73527],[3.77269,50.73139],[3.7708,50.73205],[3.76899,50.73214],[3.76543,50.73345],[3.76412,50.73434],[3.76191,50.73411],[3.76048,50.73471],[3.75912,50.73384],[3.75664,50.73636],[3.75243,50.73397],[3.74942,50.73349],[3.7479,50.73263],[3.74813,50.73248],[3.74512,50.72931],[3.74871,50.72784],[3.75202,50.72535],[3.75566,50.72419],[3.75508,50.72294],[3.75487,50.7206],[3.75724,50.72031],[3.75735,50.71995],[3.76168,50.72034],[3.76235,50.71985],[3.76278,50.71815],[3.76093,50.7171],[3.76363,50.7132],[3.76255,50.71144],[3.76315,50.71092],[3.76334,50.70993],[3.76241,50.70905],[3.76428,50.70709],[3.76673,50.70546],[3.76515,50.70517],[3.76371,50.7038],[3.76227,50.70208],[3.76298,50.70115],[3.76259,50.69968],[3.76207,50.69905],[3.76021,50.69828],[3.75956,50.69696],[3.75795,50.69576]]]]}},{"type":"Feature","properties":{"name":"Ellezelles","src":"OSM"},"geometry":{"type":"MultiPolygon","coordinates":[[[[3.68853,50.77348],[3.68478,50.77098],[3.68243,50.77275],[3.68014,50.77131],[3.67824,50.77229],[3.6776,50.7707],[3.67504,50.76869],[3.67737,50.76702],[3.66951,50.76396],[3.6723,50.76145],[3.67121,50.76101],[3.67354,50.76047],[3.67244,50.75917],[3.6731,50.75872],[3.66665,50.75447],[3.66425,50.75407],[3.65986,50.75436],[3.65949,50.75376],[3.66,50.75362],[3.66037,50.75082],[3.65876,50.74886],[3.65896,50.74687],[3.64227,50.73783],[3.64275,50.7373],[3.64294,50.73585],[3.64169,50.73229],[3.64124,50.72357],[3.64038,50.7223],[3.64108,50.72229],[3.63921,50.71858],[3.63775,50.71731],[3.638,50.7164],[3.63942,50.71691],[3.64237,50.71679],[3.64693,50.71626],[3.64745,50.71587],[3.64528,50.71511],[3.64366,50.71373],[3.64232,50.71358],[3.64218,50.71308],[3.64056,50.71218],[3.64305,50.71087],[3.64385,50.70986],[3.64768,50.7079],[3.65254,50.70689],[3.65527,50.70556],[3.66998,50.70418],[3.67347,50.70438],[3.67551,50.70385],[3.67852,50.70431],[3.67929,50.70396],[3.67981,50.70332],[3.67947,50.70274],[3.67655,50.70148],[3.67382,50.69916],[3.67321,50.69765],[3.67044,50.69637],[3.66896,50.69511],[3.66913,50.6946],[3.66844,50.69255],[3.66907,50.6918],[3.67153,50.69189],[3.67407,50.69262],[3.67606,50.6937],[3.67696,50.69466],[3.68017,50.69291],[3.68127,50.69181],[3.68305,50.69196],[3.68479,50.69123],[3.68619,50.69161],[3.68439,50.69289],[3.68583,50.69398],[3.69036,50.69497],[3.69055,50.69398],[3.69288,50.69328],[3.6936,50.69359],[3.69532,50.69342],[3.70422,50.69516],[3.70595,50.69606],[3.71618,50.69322],[3.72233,50.68894],[3.72326,50.68743],[3.7244,50.68687],[3.7272,50.68696],[3.72892,50.68563],[3.73156,50.68625],[3.73512,50.68545],[3.73781,50.68602],[3.73972,50.68588],[3.74207,50.68467],[3.74627,50.68393],[3.74756,50.68432],[3.75061,50.68412],[3.75416,50.68527],[3.75427,50.68605],[3.75125,50.68725],[3.74957,50.68929],[3.75025,50.69076],[3.74944,50.69164],[3.74993,50.69191],[3.74957,50.69238],[3.74997,50.69253],[3.74894,50.69369],[3.75211,50.69472],[3.75091,50.69629],[3.75487,50.69728],[3.75677,50.69745],[3.75795,50.69576],[3.75956,50.69696],[3.76021,50.69828],[3.76207,50.69905],[3.76259,50.69968],[3.76298,50.70115],[3.76227,50.70208],[3.76371,50.7038],[3.76515,50.70517],[3.76673,50.70546],[3.76428,50.70709],[3.76241,50.70905],[3.76334,50.70993],[3.76315,50.71092],[3.76255,50.71144],[3.76363,50.7132],[3.76093,50.7171],[3.76278,50.71815],[3.76235,50.71985],[3.76168,50.72034],[3.75735,50.71995],[3.75724,50.72031],[3.75487,50.7206],[3.75508,50.72294],[3.75566,50.72419],[3.75202,50.72535],[3.7488,50.72779],[3.74646,50.72894],[3.73722,50.73112],[3.73362,50.73225],[3.7316,50.73349],[3.72697,50.73482],[3.72241,50.73473],[3.72219,50.7342],[3.72046,50.73423],[3.71725,50.7349],[3.71632,50.73573],[3.714,50.73626],[3.71018,50.73541],[3.70924,50.73556],[3.70496,50.73761],[3.70142,50.74003],[3.69861,50.74341],[3.69517,50.74478],[3.69437,50.7469],[3.69535,50.74897],[3.69528,50.75013],[3.69151,50.75221],[3.69115,50.75337],[3.69212,50.75535],[3.69193,50.756],[3.69013,50.75766],[3.69011,50.75999],[3.691,50.76121],[3.69081,50.76171],[3.68791,50.76306],[3.68581,50.76351],[3.68961,50.76607],[3.68986,50.7678],[3.69095,50.76971],[3.69044,50.77134],[3.68853,50.77348]]]]}},{"type":"Feature","properties":{"name":"Frasnes-lez-Anvaing","src":"OSM"},"geometry":{"type":"MultiPolygon","coordinates":[[[[3.66907,50.6918],[3.67153,50.69189],[3.67407,50.69262],[3.67606,50.6937],[3.67696,50.69466],[3.68017,50.69291],[3.68127,50.69181],[3.68305,50.69196],[3.68479,50.69123],[3.68619,50.69161],[3.68439,50.69289],[3.68583,50.69398],[3.69036,50.69497],[3.69055,50.69398],[3.69288,50.69328],[3.6936,50.69359],[3.69532,50.69342],[3.70422,50.69516],[3.70595,50.69606],[3.71618,50.69322],[3.72233,50.68894],[3.72326,50.68743],[3.72738,50.68524],[3.72869,50.68398],[3.73015,50.68393],[3.73098,50.68332],[3.73114,50.68296],[3.72914,50.67725],[3.72978,50.67662],[3.72865,50.67631],[3.72978,50.67532],[3.72801,50.6746],[3.7314,50.67222],[3.7302,50.67159],[3.7307,50.67083],[3.72646,50.67029],[3.72603,50.67087],[3.72081,50.67141],[3.72031,50.67217],[3.71834,50.67208],[3.7182,50.67267],[3.71693,50.67276],[3.71502,50.67029],[3.71205,50.66863],[3.70866,50.67033],[3.7093,50.67105],[3.70852,50.6715],[3.70767,50.67074],[3.70676,50.67083],[3.7064,50.6702],[3.70371,50.6703],[3.70308,50.66961],[3.70083,50.66863],[3.69779,50.66934],[3.69645,50.66903],[3.69638,50.66979],[3.68847,50.67303],[3.68748,50.67393],[3.68416,50.6733],[3.68268,50.67253],[3.68084,50.67285],[3.67802,50.67244],[3.67569,50.67128],[3.67505,50.67204],[3.67321,50.67056],[3.67484,50.66912],[3.67131,50.66759],[3.67124,50.66593],[3.6699,50.66566],[3.67126,50.66443],[3.67745,50.66607],[3.67929,50.66337],[3.67625,50.6605],[3.67336,50.65919],[3.67357,50.65821],[3.67152,50.65542],[3.67074,50.65578],[3.66947,50.65424],[3.66836,50.65481],[3.66772,50.65454],[3.66667,50.65303],[3.6643,50.65185],[3.66281,50.65057],[3.65983,50.64927],[3.65814,50.64804],[3.65683,50.6464],[3.65487,50.64533],[3.65375,50.64541],[3.65285,50.64498],[3.65059,50.64578],[3.64776,50.64553],[3.64451,50.64417],[3.64539,50.6425],[3.64963,50.64226],[3.64957,50.64011],[3.64903,50.63944],[3.64956,50.63887],[3.65166,50.63882],[3.65343,50.63796],[3.65406,50.63616],[3.65551,50.63474],[3.65504,50.63199],[3.6522,50.63096],[3.64868,50.63099],[3.6464,50.63165],[3.64382,50.63307],[3.64061,50.63289],[3.64019,50.63524],[3.63779,50.63717],[3.63793,50.63842],[3.63738,50.6396],[3.63395,50.6395],[3.63181,50.64033],[3.63026,50.64147],[3.62603,50.63884],[3.62469,50.63667],[3.61871,50.63482],[3.61606,50.63445],[3.61452,50.63498],[3.61418,50.63431],[3.61025,50.63309],[3.60784,50.63364],[3.60601,50.63328],[3.60586,50.63359],[3.60277,50.63347],[3.60112,50.63393],[3.59978,50.63302],[3.59857,50.63472],[3.59656,50.63591],[3.5946,50.63477],[3.59342,50.63616],[3.59116,50.63588],[3.58842,50.63475],[3.58486,50.63397],[3.58327,50.63335],[3.58343,50.6331],[3.58667,50.63391],[3.58769,50.63159],[3.59168,50.63241],[3.5919,50.62956],[3.59116,50.62855],[3.58888,50.62868],[3.58931,50.62797],[3.58389,50.62712],[3.58043,50.62591],[3.57951,50.62829],[3.57661,50.6273],[3.57471,50.62753],[3.57368,50.62952],[3.5678,50.62859],[3.56821,50.62951],[3.56735,50.62971],[3.56763,50.63085],[3.56699,50.63088],[3.56699,50.63142],[3.56405,50.63118],[3.56411,50.62991],[3.56551,50.62838],[3.56501,50.62821],[3.5651,50.62784],[3.56008,50.62738],[3.56037,50.62787],[3.55701,50.6284],[3.55379,50.62944],[3.55042,50.62924],[3.54968,50.62998],[3.55476,50.63162],[3.55688,50.63426],[3.56264,50.63606],[3.56534,50.63754],[3.5653,50.63796],[3.56272,50.63948],[3.56105,50.63956],[3.55985,50.64025],[3.55794,50.63963],[3.55612,50.6405],[3.55335,50.64236],[3.55475,50.64276],[3.55421,50.64385],[3.55447,50.64392],[3.55404,50.64457],[3.55316,50.6443],[3.55278,50.64551],[3.55218,50.64543],[3.55164,50.64693],[3.55029,50.6484],[3.54847,50.64829],[3.5457,50.64617],[3.54484,50.64676],[3.54282,50.64985],[3.54003,50.65097],[3.53918,50.6519],[3.53511,50.65408],[3.53436,50.65499],[3.5316,50.65614],[3.5336,50.65769],[3.53177,50.65847],[3.52927,50.66053],[3.5325,50.66164],[3.53168,50.66296],[3.53072,50.66271],[3.52977,50.6642],[3.53115,50.66446],[3.53085,50.66501],[3.53331,50.66556],[3.53234,50.66653],[3.53211,50.66758],[3.53025,50.66914],[3.53051,50.66938],[3.52727,50.671],[3.52223,50.67248],[3.52115,50.67436],[3.52163,50.67475],[3.52049,50.67573],[3.52114,50.6761],[3.52063,50.67678],[3.51881,50.67659],[3.51724,50.67712],[3.51778,50.67793],[3.51771,50.67865],[3.51536,50.68012],[3.51719,50.68135],[3.51502,50.68295],[3.51163,50.68649],[3.50881,50.68765],[3.50996,50.68872],[3.50902,50.68941],[3.50941,50.6899],[3.50834,50.69135],[3.50677,50.69085],[3.50665,50.69156],[3.50498,50.69199],[3.50522,50.69267],[3.50461,50.69288],[3.50428,50.6938],[3.50142,50.69464],[3.50061,50.69591],[3.49845,50.6967],[3.49707,50.6981],[3.49306,50.69834],[3.49175,50.69779],[3.4906,50.69964],[3.49046,50.70027],[3.4909,50.70058],[3.48703,50.70251],[3.48755,50.70358],[3.48949,50.70445],[3.49099,50.70591],[3.49239,50.70838],[3.4937,50.70926],[3.49417,50.71015],[3.49556,50.70989],[3.49779,50.70861],[3.50346,50.71106],[3.50414,50.71051],[3.51027,50.71031],[3.51842,50.71296],[3.51764,50.71354],[3.5209,50.71503],[3.52245,50.71419],[3.52731,50.71526],[3.52935,50.71612],[3.53299,50.71923],[3.53142,50.7201],[3.52886,50.72255],[3.53036,50.72325],[3.5329,50.72211],[3.53434,50.72047],[3.53667,50.72132],[3.53695,50.72101],[3.5401,50.72163],[3.54256,50.72274],[3.54079,50.72401],[3.53871,50.72385],[3.53676,50.72552],[3.54295,50.73018],[3.54467,50.72959],[3.54485,50.73166],[3.5427,50.73157],[3.54207,50.73204],[3.54062,50.73189],[3.54011,50.73109],[3.53886,50.7315],[3.53959,50.73237],[3.53879,50.73273],[3.53934,50.73378],[3.54124,50.73339],[3.54169,50.73279],[3.54477,50.73243],[3.54886,50.73278],[3.55098,50.73334],[3.55132,50.73408],[3.5553,50.73473],[3.55877,50.73422],[3.56088,50.73262],[3.56338,50.72979],[3.56448,50.73001],[3.56596,50.72881],[3.5682,50.72813],[3.57373,50.72959],[3.57586,50.72954],[3.57777,50.73029],[3.58139,50.72963],[3.58443,50.72988],[3.58631,50.72902],[3.58815,50.72891],[3.58923,50.72943],[3.59228,50.72986],[3.59805,50.73242],[3.60354,50.73178],[3.60638,50.73229],[3.60802,50.7318],[3.61027,50.73227],[3.6122,50.73109],[3.61425,50.73061],[3.61463,50.72982],[3.61411,50.72936],[3.61499,50.72764],[3.6189,50.72554],[3.62037,50.724],[3.62195,50.72379],[3.62361,50.72252],[3.62591,50.72211],[3.62699,50.72243],[3.62885,50.72145],[3.63076,50.72101],[3.6333,50.72219],[3.64108,50.72229],[3.63921,50.71858],[3.63775,50.71731],[3.638,50.7164],[3.63977,50.71691],[3.64731,50.7161],[3.64742,50.71582],[3.64528,50.71511],[3.64386,50.71383],[3.64232,50.71358],[3.64218,50.71308],[3.64056,50.71218],[3.64305,50.71087],[3.64385,50.70986],[3.64807,50.70773],[3.65254,50.70689],[3.65467,50.70573],[3.65728,50.70519],[3.66998,50.70418],[3.67347,50.70438],[3.67551,50.70385],[3.67836,50.70431],[3.67929,50.70396],[3.67981,50.70332],[3.67947,50.70274],[3.67655,50.70148],[3.67382,50.69916],[3.67321,50.69765],[3.67044,50.69637],[3.66896,50.69511],[3.66913,50.6946],[3.66844,50.69255],[3.66907,50.6918]]]]}},{"type":"Feature","properties":{"name":"Mont-de-l'Enclus","src":"OSM"},"geometry":{"type":"MultiPolygon","coordinates":[[[[3.54124,50.73339],[3.54144,50.73369],[3.54048,50.73435],[3.54363,50.73781],[3.54517,50.73841],[3.54481,50.73911],[3.54636,50.74326],[3.54638,50.74516],[3.54582,50.74677],[3.54779,50.74719],[3.53858,50.7574],[3.53791,50.75939],[3.54068,50.76287],[3.53931,50.7641],[3.53357,50.76482],[3.52834,50.7641],[3.52305,50.76287],[3.51984,50.76115],[3.51551,50.76051],[3.51318,50.75973],[3.51053,50.75955],[3.50909,50.75877],[3.50235,50.75909],[3.50017,50.75879],[3.49718,50.7576],[3.493,50.75768],[3.48874,50.75871],[3.48268,50.75915],[3.48062,50.75877],[3.47833,50.75912],[3.47792,50.75941],[3.47813,50.75992],[3.48123,50.76139],[3.47881,50.76226],[3.47837,50.76287],[3.47517,50.76098],[3.46936,50.76283],[3.46666,50.76474],[3.45968,50.76182],[3.45932,50.76222],[3.45999,50.76388],[3.45908,50.76464],[3.45926,50.76618],[3.45616,50.76747],[3.45605,50.76842],[3.45668,50.77091],[3.45545,50.77132],[3.4542,50.77047],[3.45355,50.76743],[3.45365,50.76531],[3.45452,50.76468],[3.45694,50.76425],[3.45742,50.7636],[3.45532,50.76133],[3.45316,50.76031],[3.45468,50.75906],[3.45442,50.75852],[3.45343,50.75813],[3.45687,50.75459],[3.45762,50.75425],[3.45816,50.75304],[3.46051,50.75373],[3.46387,50.75172],[3.46523,50.75006],[3.468,50.74809],[3.46856,50.74712],[3.46889,50.74477],[3.47253,50.74423],[3.47368,50.74218],[3.47635,50.74066],[3.47879,50.74002],[3.47881,50.73959],[3.48472,50.73958],[3.48881,50.73873],[3.48741,50.73774],[3.48551,50.73537],[3.4852,50.73408],[3.48545,50.73269],[3.48151,50.72912],[3.47988,50.72807],[3.46745,50.7229],[3.46729,50.72224],[3.46643,50.72228],[3.46484,50.72127],[3.46497,50.72087],[3.46423,50.72022],[3.46539,50.71921],[3.46677,50.7169],[3.46811,50.71586],[3.46909,50.71618],[3.4695,50.71593],[3.47107,50.71672],[3.47557,50.71457],[3.47631,50.71524],[3.47766,50.71521],[3.47865,50.7147],[3.47826,50.71442],[3.47944,50.71361],[3.48319,50.71151],[3.48348,50.70931],[3.48447,50.70904],[3.48581,50.70491],[3.48663,50.70463],[3.48773,50.70347],[3.48949,50.70445],[3.49099,50.70591],[3.49239,50.70838],[3.4937,50.70926],[3.49417,50.71015],[3.49556,50.70989],[3.49779,50.70861],[3.50346,50.71106],[3.50414,50.71051],[3.51027,50.71031],[3.51842,50.71296],[3.51764,50.71354],[3.5209,50.71503],[3.52245,50.71419],[3.52731,50.71526],[3.52935,50.71612],[3.53299,50.71923],[3.53142,50.7201],[3.52886,50.72255],[3.53036,50.72325],[3.5329,50.72211],[3.53434,50.72047],[3.53667,50.72132],[3.53695,50.72101],[3.5401,50.72163],[3.54256,50.72274],[3.54079,50.72401],[3.53871,50.72385],[3.53676,50.72552],[3.54295,50.73018],[3.54467,50.72959],[3.54485,50.73166],[3.5427,50.73157],[3.54207,50.73204],[3.54062,50.73189],[3.54011,50.73109],[3.53886,50.7315],[3.53959,50.73237],[3.53879,50.73273],[3.5391,50.73363],[3.54124,50.73339]]]]}},{"type":"Feature","properties":{"name":"Ath","src":"OSM"},"geometry":{"type":"MultiPolygon","coordinates":[[[[3.75795,50.69576],[3.75677,50.69745],[3.75487,50.69728],[3.75091,50.69629],[3.75211,50.69472],[3.74894,50.69369],[3.74997,50.69253],[3.74957,50.69238],[3.74993,50.69191],[3.74944,50.69164],[3.75025,50.69076],[3.74957,50.68929],[3.75125,50.68725],[3.75444,50.68587],[3.75416,50.68527],[3.75061,50.68412],[3.74756,50.68432],[3.74627,50.68393],[3.74207,50.68467],[3.73972,50.68588],[3.73781,50.68602],[3.73512,50.68545],[3.73156,50.68625],[3.72892,50.68563],[3.7272,50.68696],[3.7244,50.68687],[3.72738,50.68524],[3.72869,50.68398],[3.73015,50.68393],[3.73114,50.68296],[3.72914,50.67725],[3.72978,50.67662],[3.72865,50.67631],[3.72978,50.67532],[3.72801,50.6746],[3.7314,50.67222],[3.7302,50.67159],[3.7307,50.67083],[3.72646,50.67029],[3.72603,50.67087],[3.72081,50.67141],[3.72031,50.67217],[3.71834,50.67208],[3.7182,50.67267],[3.71693,50.67276],[3.71502,50.67029],[3.71205,50.66863],[3.70866,50.67033],[3.7093,50.67105],[3.70852,50.6715],[3.70767,50.67074],[3.70676,50.67083],[3.7064,50.6702],[3.70371,50.6703],[3.70308,50.66961],[3.70083,50.66863],[3.69779,50.66934],[3.69645,50.66903],[3.69638,50.66979],[3.68847,50.67303],[3.68748,50.67393],[3.68416,50.6733],[3.68268,50.67253],[3.68084,50.67285],[3.67802,50.67244],[3.67569,50.67128],[3.67505,50.67204],[3.67321,50.67056],[3.67484,50.66912],[3.67131,50.66759],[3.67124,50.66593],[3.6699,50.66566],[3.67126,50.66443],[3.67745,50.66607],[3.67929,50.66337],[3.67625,50.6605],[3.67336,50.65919],[3.67357,50.65821],[3.67152,50.65542],[3.67074,50.65578],[3.66947,50.65424],[3.66836,50.65481],[3.66772,50.65454],[3.66667,50.65303],[3.6643,50.65185],[3.66281,50.65057],[3.66001,50.64939],[3.65814,50.64804],[3.65683,50.6464],[3.65511,50.64557],[3.65549,50.645],[3.65881,50.6454],[3.66142,50.64433],[3.66356,50.6443],[3.66433,50.64331],[3.66617,50.64299],[3.66765,50.64133],[3.66716,50.64016],[3.66744,50.63855],[3.67057,50.63578],[3.67017,50.63529],[3.67098,50.63476],[3.67443,50.635],[3.67831,50.63401],[3.67867,50.63262],[3.67761,50.6297],[3.67937,50.62494],[3.68333,50.62422],[3.68467,50.62206],[3.6882,50.62296],[3.69653,50.6213],[3.69632,50.61896],[3.69738,50.61932],[3.69787,50.61856],[3.69576,50.61693],[3.69809,50.61622],[3.69759,50.61573],[3.69802,50.6156],[3.69745,50.61137],[3.69851,50.61074],[3.69625,50.60863],[3.69357,50.60868],[3.69004,50.60199],[3.68997,50.59857],[3.6966,50.59673],[3.69554,50.59498],[3.70183,50.59112],[3.70126,50.59031],[3.7067,50.5895],[3.70713,50.59067],[3.71009,50.58968],[3.71052,50.59058],[3.71376,50.58963],[3.71341,50.58856],[3.71122,50.58716],[3.70804,50.58294],[3.70949,50.58236],[3.70734,50.57962],[3.70227,50.5803],[3.7012,50.57778],[3.69687,50.57879],[3.69571,50.57733],[3.69512,50.57741],[3.69475,50.57604],[3.69532,50.57594],[3.69471,50.57403],[3.69723,50.57321],[3.69528,50.57135],[3.70278,50.56837],[3.70488,50.56812],[3.7057,50.56615],[3.70625,50.56579],[3.7079,50.56535],[3.70872,50.56714],[3.71111,50.56641],[3.70992,50.56469],[3.71217,50.563],[3.71411,50.56248],[3.7144,50.56453],[3.72951,50.56484],[3.73092,50.56578],[3.73043,50.56668],[3.7283,50.56626],[3.72711,50.56713],[3.72739,50.56978],[3.72492,50.57068],[3.72711,50.57297],[3.71955,50.57445],[3.72125,50.57616],[3.72472,50.57817],[3.72528,50.57953],[3.72867,50.58088],[3.7305,50.57935],[3.73333,50.57845],[3.73474,50.57738],[3.73799,50.58007],[3.73883,50.57926],[3.74279,50.58034],[3.74598,50.58175],[3.74588,50.58211],[3.7497,50.58326],[3.75015,50.58273],[3.7526,50.58292],[3.75448,50.58403],[3.75335,50.58476],[3.7536,50.58504],[3.75148,50.58562],[3.75155,50.58744],[3.75281,50.58691],[3.75691,50.59085],[3.7596,50.58977],[3.75805,50.59388],[3.76062,50.59505],[3.75818,50.59713],[3.75668,50.59761],[3.75564,50.60019],[3.7603,50.60325],[3.77604,50.60512],[3.77679,50.60579],[3.77767,50.60543],[3.7869,50.61323],[3.78767,50.61334],[3.78895,50.6124],[3.79004,50.61378],[3.79113,50.61359],[3.8021,50.60624],[3.8024,50.60492],[3.80467,50.60617],[3.80618,50.60503],[3.80408,50.60397],[3.80507,50.60341],[3.81159,50.60718],[3.82048,50.60405],[3.82069,50.60479],[3.82237,50.60441],[3.82237,50.60567],[3.82118,50.6068],[3.82474,50.61177],[3.82286,50.6124],[3.82385,50.61366],[3.82356,50.61447],[3.82781,50.6168],[3.82919,50.61617],[3.83196,50.62101],[3.8367,50.62347],[3.83967,50.62648],[3.84471,50.62598],[3.85163,50.6285],[3.85282,50.62743],[3.8546,50.62768],[3.85578,50.62831],[3.85489,50.62906],[3.85667,50.62975],[3.85737,50.63202],[3.86043,50.63089],[3.86112,50.63208],[3.86102,50.63378],[3.8627,50.63403],[3.86369,50.63321],[3.86626,50.63397],[3.86725,50.63183],[3.86696,50.62994],[3.86735,50.62724],[3.86982,50.62554],[3.87249,50.62667],[3.87338,50.62554],[3.87743,50.62265],[3.87832,50.62315],[3.88025,50.62252],[3.88007,50.6222],[3.88455,50.62152],[3.88732,50.62252],[3.8893,50.62095],[3.89375,50.61988],[3.89499,50.62315],[3.89678,50.62338],[3.89914,50.62468],[3.89677,50.62598],[3.90011,50.63003],[3.89982,50.63028],[3.90073,50.63065],[3.90035,50.63101],[3.90257,50.63284],[3.90874,50.63616],[3.90976,50.63603],[3.91107,50.63673],[3.91323,50.639],[3.91247,50.63929],[3.91289,50.64037],[3.91128,50.64048],[3.91141,50.64091],[3.91209,50.64091],[3.9134,50.64269],[3.91264,50.64285],[3.91315,50.64401],[3.9002,50.6483],[3.89997,50.64876],[3.90051,50.64895],[3.89815,50.65115],[3.89662,50.65325],[3.89476,50.65261],[3.89408,50.65306],[3.89285,50.65244],[3.89111,50.65398],[3.88997,50.65606],[3.88933,50.65603],[3.88929,50.65792],[3.88819,50.65972],[3.88564,50.66109],[3.88328,50.66083],[3.88188,50.66171],[3.88302,50.66295],[3.87984,50.66657],[3.87764,50.66616],[3.87654,50.66969],[3.87921,50.67069],[3.87764,50.67231],[3.87874,50.67295],[3.88037,50.67526],[3.88186,50.67563],[3.8813,50.67601],[3.87613,50.67522],[3.87302,50.67592],[3.86946,50.67292],[3.8698,50.67276],[3.86308,50.67163],[3.86085,50.67093],[3.85814,50.6694],[3.85545,50.67028],[3.85548,50.67082],[3.84916,50.67188],[3.84512,50.67366],[3.84387,50.67339],[3.8427,50.67365],[3.84322,50.67535],[3.83997,50.67632],[3.83863,50.67711],[3.83785,50.67811],[3.83827,50.67878],[3.83798,50.67934],[3.83888,50.68009],[3.83264,50.68381],[3.83252,50.68309],[3.83074,50.68127],[3.82882,50.68205],[3.82794,50.68153],[3.82661,50.68232],[3.82467,50.68167],[3.82368,50.68035],[3.8215,50.67878],[3.81998,50.67651],[3.81794,50.67633],[3.81585,50.67509],[3.81444,50.67484],[3.81083,50.67675],[3.81018,50.67635],[3.80888,50.67669],[3.80769,50.67626],[3.80342,50.67847],[3.80145,50.68056],[3.80029,50.6795],[3.79955,50.67811],[3.79896,50.67791],[3.79679,50.67853],[3.79718,50.67915],[3.79617,50.67989],[3.79546,50.67968],[3.79402,50.68106],[3.79484,50.68154],[3.79509,50.68257],[3.7923,50.68383],[3.78848,50.68677],[3.78679,50.68857],[3.78594,50.68834],[3.78458,50.68925],[3.78343,50.68896],[3.77902,50.6924],[3.77783,50.69187],[3.77669,50.69213],[3.77515,50.69159],[3.77427,50.69184],[3.77348,50.69364],[3.77128,50.69466],[3.76767,50.69274],[3.76744,50.69153],[3.76851,50.69035],[3.76241,50.68884],[3.75795,50.69576]]]]}}]}